{"type": "FeatureCollection", "name": "halte", "crs": {"type": "name", "properties": {"name": "urn:ogc:def:crs:OGC:1.3:CRS84"}}, "features": [{"type": "Feature", "geometry": {"type": "Point", "coordinates": [110.361849, -7.79597]}, "properties": {"nama": "Halte tanpa nama", "koridor": ["3B", "8", "L1"]}}, {"type": "Feature", "geometry": {"type": "Point", "coordinates": [110.423538, -7.764549]}, "properties": {"nama": "Halte RRU Instiper 2", "koridor": ["3A"]}}, {"type": "Feature", "geometry": {"type": "Point", "coordinates": [110.361458, -7.747377]}, "properties": {"nama": "Terminal Jombor", "koridor": ["2A", "2B", "5A", "5B", "8", "9", "L1"]}}, {"type": "Feature", "geometry": {"type": "Point", "coordinates": [110.394793, -7.785949]}, "properties": {"nama": "Halte UIN Sunan Kalijaga 1", "koridor": ["4B"]}}, {"type": "Feature", "geometry": {"type": "Point", "coordinates": [110.394841, -7.786235]}, "properties": {"nama": "Halte UIN Sunan Kalijaga 2", "koridor": ["4A"]}}, {"type": "Feature", "geometry": {"type": "Point", "coordinates": [110.364254, -7.789476]}, "properties": {"nama": "Yogyakarta", "koridor": []}}, {"type": "Feature", "geometry": {"type": "Point", "coordinates": [110.394566, -7.800243]}, "properties": {"nama": "Halte SGM", "koridor": ["4B"]}}, {"type": "Feature", "geometry": {"type": "Point", "coordinates": [110.3875, -7.777604]}, "properties": {"nama": "Samirono", "koridor": ["12", "2B"]}}, {"type": "Feature", "geometry": {"type": "Point", "coordinates": [110.395002, -7.818985]}, "properties": {"nama": "Halte Ngeksigondo (Diklat PU)", "koridor": ["2A"]}}, {"type": "Feature", "geometry": {"type": "Point", "coordinates": [110.431505, -7.767883]}, "properties": {"nama": "Disnakertrans DIY", "koridor": ["14"]}}, {"type": "Feature", "geometry": {"type": "Point", "coordinates": [110.356658, -7.747124]}, "properties": {"nama": "Portabel UTY Ring Road Utara 1", "koridor": ["8"]}}, {"type": "Feature", "geometry": {"type": "Point", "coordinates": [110.356562, -7.747307]}, "properties": {"nama": "Portabel UTY Ringroad Utara 2", "koridor": ["8"]}}, {"type": "Feature", "geometry": {"type": "Point", "coordinates": [110.389243, -7.775066]}, "properties": {"nama": "Halte Sanata Dharma", "koridor": ["12", "2B", "4A"]}}, {"type": "Feature", "geometry": {"type": "Point", "coordinates": [110.367183, -7.781802]}, "properties": {"nama": "STP Kranggan", "koridor": ["2A"]}}, {"type": "Feature", "geometry": {"type": "Point", "coordinates": [110.351528, -7.8005]}, "properties": {"nama": "Stop-an Bis JOGJA - TEMPEL", "koridor": []}}, {"type": "Feature", "geometry": {"type": "Point", "coordinates": [110.374124, -7.790303]}, "properties": {"nama": "Lempuyangan", "koridor": []}}, {"type": "Feature", "geometry": {"type": "Point", "coordinates": [110.378209, -7.776179]}, "properties": {"nama": "Panti Rapih", "koridor": ["12", "2B"]}}, {"type": "Feature", "geometry": {"type": "Point", "coordinates": [110.412191, -7.773942]}, "properties": {"nama": "Babarsari", "koridor": ["1B", "5A"]}}, {"type": "Feature", "geometry": {"type": "Point", "coordinates": [110.367922, -7.775801]}, "properties": {"nama": "Halte Susteran Jetis", "koridor": ["2A"]}}, {"type": "Feature", "geometry": {"type": "Point", "coordinates": [110.361175, -7.773719]}, "properties": {"nama": "TPB Karangwaru", "koridor": ["5B", "9", "L1"]}}, {"type": "Feature", "geometry": {"type": "Point", "coordinates": [110.389161, -7.775048]}, "properties": {"nama": "Halte UNY", "koridor": ["12", "2A", "4B"]}}, {"type": "Feature", "geometry": {"type": "Point", "coordinates": [110.380228, -7.761887]}, "properties": {"nama": "STP Hotel VIDI, Jl. Kaliurang", "koridor": ["12", "3B", "4A", "5B"]}}, {"type": "Feature", "geometry": {"type": "Point", "coordinates": [110.361452, -7.747419]}, "properties": {"nama": "Terminal Jombor", "koridor": ["2A", "2B", "5A", "5B", "8", "9", "L1"]}}, {"type": "Feature", "geometry": {"type": "Point", "coordinates": [110.36766, -7.75045]}, "properties": {"nama": "Halte RRU Monjali 1", "koridor": ["2A", "2B", "5B"]}}, {"type": "Feature", "geometry": {"type": "Point", "coordinates": [110.367653, -7.75052]}, "properties": {"nama": "Halte RRU Monjali 1", "koridor": ["2A", "2B", "5B"]}}, {"type": "Feature", "geometry": {"type": "Point", "coordinates": [110.384648, -7.755962]}, "properties": {"nama": "Halte TJ RRU Kentungan", "koridor": ["2B", "3B", "4A", "5B"]}}, {"type": "Feature", "geometry": {"type": "Point", "coordinates": [110.368817, -7.750833]}, "properties": {"nama": "Halte RRU Monjali 2", "koridor": ["2A", "2B", "5A"]}}, {"type": "Feature", "geometry": {"type": "Point", "coordinates": [110.368817, -7.750906]}, "properties": {"nama": "Halte RRU Monjali 2", "koridor": ["2A", "2B", "5A"]}}, {"type": "Feature", "geometry": {"type": "Point", "coordinates": [110.395793, -7.756582]}, "properties": {"nama": "Halte Terminal Condong Catur", "koridor": ["2A", "3B", "4A", "5B"]}}, {"type": "Feature", "geometry": {"type": "Point", "coordinates": [110.395817, -7.756691]}, "properties": {"nama": "Terminal Condong Catur", "koridor": ["12", "1B", "2A", "2B", "3A", "3B", "4A", "4B", "5A", "5B"]}}, {"type": "Feature", "geometry": {"type": "Point", "coordinates": [110.386428, -7.758043]}, "properties": {"nama": "Halte Ring Road Utara (Manggung)", "koridor": ["2A", "3A", "4B", "5A"]}}, {"type": "Feature", "geometry": {"type": "Point", "coordinates": [110.386376, -7.758124]}, "properties": {"nama": "TPB RRU Manggung", "koridor": ["2A", "3A", "4B", "5A"]}}, {"type": "Feature", "geometry": {"type": "Point", "coordinates": [110.37513, -7.782346]}, "properties": {"nama": "Halte Cik Di Tiro", "koridor": ["11", "2B", "3A", "5A"]}}, {"type": "Feature", "geometry": {"type": "Point", "coordinates": [110.37517, -7.781181]}, "properties": {"nama": "Halte RS dr. Yap", "koridor": ["11", "2A", "3B", "4A", "5B"]}}, {"type": "Feature", "geometry": {"type": "Point", "coordinates": [110.375207, -7.781211]}, "properties": {"nama": "RS dr. Yap", "koridor": ["11", "2A", "3B", "4A", "5B"]}}, {"type": "Feature", "geometry": {"type": "Point", "coordinates": [110.378644, -7.776151]}, "properties": {"nama": "Halte Kosudgama", "koridor": ["12", "2A"]}}, {"type": "Feature", "geometry": {"type": "Point", "coordinates": [110.378608, -7.776201]}, "properties": {"nama": "Kosudgama", "koridor": ["12", "2A"]}}, {"type": "Feature", "geometry": {"type": "Point", "coordinates": [110.378191, -7.776236]}, "properties": {"nama": "Halte Panti Rapih", "koridor": ["12", "2B"]}}, {"type": "Feature", "geometry": {"type": "Point", "coordinates": [110.38752, -7.777689]}, "properties": {"nama": "Halte Jl. Colombo (Samirono)", "koridor": ["12", "2B"]}}, {"type": "Feature", "geometry": {"type": "Point", "coordinates": [110.3867, -7.777716]}, "properties": {"nama": "Halte Jl. Colombo (UNY)", "koridor": ["12", "2A"]}}, {"type": "Feature", "geometry": {"type": "Point", "coordinates": [110.38672, -7.777779]}, "properties": {"nama": "UNY Colombo", "koridor": ["12", "2A"]}}, {"type": "Feature", "geometry": {"type": "Point", "coordinates": [110.389131, -7.775042]}, "properties": {"nama": "Halte TJ UNY Gejayan", "koridor": ["12", "2A", "4B"]}}, {"type": "Feature", "geometry": {"type": "Point", "coordinates": [110.391959, -7.766404]}, "properties": {"nama": "Santren", "koridor": ["12", "2A", "4B"]}}, {"type": "Feature", "geometry": {"type": "Point", "coordinates": [110.391905, -7.766372]}, "properties": {"nama": "Santren", "koridor": ["12", "2A", "4B"]}}, {"type": "Feature", "geometry": {"type": "Point", "coordinates": [110.392292, -7.765883]}, "properties": {"nama": "Susteran Novisiat", "koridor": ["12", "2B", "4A"]}}, {"type": "Feature", "geometry": {"type": "Point", "coordinates": [110.392334, -7.765899]}, "properties": {"nama": "Susteran Novisiat", "koridor": ["12", "2B", "4A"]}}, {"type": "Feature", "geometry": {"type": "Point", "coordinates": [110.375366, -7.787296]}, "properties": {"nama": "Halte Kridosono", "koridor": ["10", "11", "13", "1A", "2A", "2B", "3A", "4A", "4B", "5A", "5B", "8", "L1"]}}, {"type": "Feature", "geometry": {"type": "Point", "coordinates": [110.383195, -7.797478]}, "properties": {"nama": "Halte TJ Kenari 1", "koridor": ["2A"]}}, {"type": "Feature", "geometry": {"type": "Point", "coordinates": [110.383189, -7.797517]}, "properties": {"nama": "Halte TJ Kenari 1", "koridor": ["2A"]}}, {"type": "Feature", "geometry": {"type": "Point", "coordinates": [110.383381, -7.797457]}, "properties": {"nama": "Halte TJ Kenari 2", "koridor": ["2B"]}}, {"type": "Feature", "geometry": {"type": "Point", "coordinates": [110.38338, -7.797498]}, "properties": {"nama": "Halte Kenari 2", "koridor": ["2B"]}}, {"type": "Feature", "geometry": {"type": "Point", "coordinates": [110.377721, -7.795777]}, "properties": {"nama": "TPB Dr. Sutomo Kota", "koridor": ["2A"]}}, {"type": "Feature", "geometry": {"type": "Point", "coordinates": [110.377764, -7.795765]}, "properties": {"nama": "STP Gayam, Ir. Dr. Soetomo", "koridor": ["2A"]}}, {"type": "Feature", "geometry": {"type": "Point", "coordinates": [110.384793, -7.798451]}, "properties": {"nama": "TPB Among Rogo Kota 2", "koridor": ["2A"]}}, {"type": "Feature", "geometry": {"type": "Point", "coordinates": [110.377778, -7.795583]}, "properties": {"nama": "STP Wisma Nendra (Kanisius)", "koridor": ["10", "2B"]}}, {"type": "Feature", "geometry": {"type": "Point", "coordinates": [110.377849, -7.795601]}, "properties": {"nama": "TPB SMP Kanisius Kota", "koridor": ["10", "2B"]}}, {"type": "Feature", "geometry": {"type": "Point", "coordinates": [110.384842, -7.798453]}, "properties": {"nama": "TPB Among Rogo Kota 2", "koridor": ["2A"]}}, {"type": "Feature", "geometry": {"type": "Point", "coordinates": [110.384839, -7.798468]}, "properties": {"nama": "TPB Among Rogo Kota 1", "koridor": ["2B"]}}, {"type": "Feature", "geometry": {"type": "Point", "coordinates": [110.384882, -7.798472]}, "properties": {"nama": "TPB Among Rogo Kota 1", "koridor": ["2B"]}}, {"type": "Feature", "geometry": {"type": "Point", "coordinates": [110.402248, -7.807301]}, "properties": {"nama": "Halte Gedong Kuning Banguntapan", "koridor": ["2B", "3B"]}}, {"type": "Feature", "geometry": {"type": "Point", "coordinates": [110.401218, -7.819626]}, "properties": {"nama": "Halte Gedong Kuning (Dep. Kehutanan)", "koridor": ["2A", "3A"]}}, {"type": "Feature", "geometry": {"type": "Point", "coordinates": [110.40109, -7.819608]}, "properties": {"nama": "Halte Gedong Kuning", "koridor": ["2A", "3A"]}}, {"type": "Feature", "geometry": {"type": "Point", "coordinates": [110.399948, -7.802206]}, "properties": {"nama": "Halte Gedung Juang 45", "koridor": ["1B", "2B"]}}, {"type": "Feature", "geometry": {"type": "Point", "coordinates": [110.398774, -7.802254]}, "properties": {"nama": "Gembira Loka", "koridor": ["1B", "2A"]}}, {"type": "Feature", "geometry": {"type": "Point", "coordinates": [110.398757, -7.802299]}, "properties": {"nama": "Halte Gembira Loka", "koridor": ["1B", "2A"]}}, {"type": "Feature", "geometry": {"type": "Point", "coordinates": [110.393051, -7.80207]}, "properties": {"nama": "Halte Kusumanegara 3", "koridor": ["1B", "2B", "4B"]}}, {"type": "Feature", "geometry": {"type": "Point", "coordinates": [110.39305, -7.802121]}, "properties": {"nama": "Halte Kusumanegara 3", "koridor": ["1B", "2B", "4B"]}}, {"type": "Feature", "geometry": {"type": "Point", "coordinates": [110.39335, -7.802166]}, "properties": {"nama": "Halte Kusumanegara 4", "koridor": ["10", "1B", "2A", "4A"]}}, {"type": "Feature", "geometry": {"type": "Point", "coordinates": [110.402101, -7.808001]}, "properties": {"nama": "TPB Banguntapan 1 Gedong Kuning", "koridor": ["2A", "3A"]}}, {"type": "Feature", "geometry": {"type": "Point", "coordinates": [110.402175, -7.808062]}, "properties": {"nama": "STP Banguntapan", "koridor": ["2A", "3A"]}}, {"type": "Feature", "geometry": {"type": "Point", "coordinates": [110.387339, -7.801982]}, "properties": {"nama": "Makam Gajah (Selatan)", "koridor": ["1B", "2A"]}}, {"type": "Feature", "geometry": {"type": "Point", "coordinates": [110.387332, -7.802003]}, "properties": {"nama": "Makam Gajah (Selatan)", "koridor": ["1B", "2A"]}}, {"type": "Feature", "geometry": {"type": "Point", "coordinates": [110.401824, -7.818132]}, "properties": {"nama": "TPB Kehutanan Gedongkuning", "koridor": ["2B", "3B"]}}, {"type": "Feature", "geometry": {"type": "Point", "coordinates": [110.402023, -7.813442]}, "properties": {"nama": "TPB Pilar 1 Gedong Kuning Kota", "koridor": ["2A", "3A"]}}, {"type": "Feature", "geometry": {"type": "Point", "coordinates": [110.402108, -7.813468]}, "properties": {"nama": "STP Rejowinangun 1", "koridor": ["2A", "3A"]}}, {"type": "Feature", "geometry": {"type": "Point", "coordinates": [110.402154, -7.814378]}, "properties": {"nama": "TPB Poltekkes BSI", "koridor": ["2B", "3B"]}}, {"type": "Feature", "geometry": {"type": "Point", "coordinates": [110.402093, -7.81436]}, "properties": {"nama": "STP Rejowinangun 2", "koridor": ["2B", "3B"]}}, {"type": "Feature", "geometry": {"type": "Point", "coordinates": [110.397839, -7.819695]}, "properties": {"nama": "TPB SMP 9 Basen", "koridor": ["2A"]}}, {"type": "Feature", "geometry": {"type": "Point", "coordinates": [110.397836, -7.819712]}, "properties": {"nama": "STP SMP 9, 1", "koridor": ["2A"]}}, {"type": "Feature", "geometry": {"type": "Point", "coordinates": [110.397998, -7.819841]}, "properties": {"nama": "STP SMP 9, 2", "koridor": ["2B"]}}, {"type": "Feature", "geometry": {"type": "Point", "coordinates": [110.397994, -7.819876]}, "properties": {"nama": "TPB SMP 9 Basen", "koridor": ["2B"]}}, {"type": "Feature", "geometry": {"type": "Point", "coordinates": [110.395002, -7.818925]}, "properties": {"nama": "Halte Ngeksigondo (Diklat PU)", "koridor": ["2A"]}}, {"type": "Feature", "geometry": {"type": "Point", "coordinates": [110.36018, -7.801189]}, "properties": {"nama": "Halte KHA Dahlan 1", "koridor": ["10", "13", "15", "2B", "3A", "6", "8"]}}, {"type": "Feature", "geometry": {"type": "Point", "coordinates": [110.360176, -7.801234]}, "properties": {"nama": "Halte KHA Dahlan 1", "koridor": ["10", "13", "15", "2B", "3A", "6", "8"]}}, {"type": "Feature", "geometry": {"type": "Point", "coordinates": [110.360625, -7.80118]}, "properties": {"nama": "Halte KHA Dahlan 2", "koridor": ["10", "15", "1B", "3B", "6", "8"]}}, {"type": "Feature", "geometry": {"type": "Point", "coordinates": [110.360634, -7.801201]}, "properties": {"nama": "Halte KHA Dahlan 2", "koridor": ["10", "15", "1B", "3B", "6", "8"]}}, {"type": "Feature", "geometry": {"type": "Point", "coordinates": [110.36917, -7.808651]}, "properties": {"nama": "Halte Katamso 1", "koridor": ["2A"]}}, {"type": "Feature", "geometry": {"type": "Point", "coordinates": [110.369163, -7.802697]}, "properties": {"nama": "Halte Katamso 2", "koridor": ["2B"]}}, {"type": "Feature", "geometry": {"type": "Point", "coordinates": [110.369203, -7.802674]}, "properties": {"nama": "Halte Katamso 2", "koridor": ["2B"]}}, {"type": "Feature", "geometry": {"type": "Point", "coordinates": [110.35622, -7.803635]}, "properties": {"nama": "Terminal Ngabean", "koridor": ["10", "11", "13", "15", "1B", "2B", "3A", "3B", "6", "8", "9"]}}, {"type": "Feature", "geometry": {"type": "Point", "coordinates": [110.356292, -7.803638]}, "properties": {"nama": "Terminal Ngabean", "koridor": ["10", "11", "13", "15", "1B", "2B", "3A", "3B", "6", "8", "9"]}}, {"type": "Feature", "geometry": {"type": "Point", "coordinates": [110.394975, -7.819071]}, "properties": {"nama": "Halte Ngeksigondo (Basen)", "koridor": ["2B"]}}, {"type": "Feature", "geometry": {"type": "Point", "coordinates": [110.394958, -7.819123]}, "properties": {"nama": "Halte Ngeksigondo Basen", "koridor": ["2B"]}}, {"type": "Feature", "geometry": {"type": "Point", "coordinates": [110.385926, -7.816157]}, "properties": {"nama": "Halte PSKY", "koridor": ["2B", "4A"]}}, {"type": "Feature", "geometry": {"type": "Point", "coordinates": [110.385935, -7.816238]}, "properties": {"nama": "Halte PSKY", "koridor": ["2B", "4A"]}}, {"type": "Feature", "geometry": {"type": "Point", "coordinates": [110.387481, -7.81557]}, "properties": {"nama": "Halte RSI Hidayatullah", "koridor": ["2A"]}}, {"type": "Feature", "geometry": {"type": "Point", "coordinates": [110.387516, -7.815677]}, "properties": {"nama": "Halte RSI Hidayatullah", "koridor": ["2A"]}}, {"type": "Feature", "geometry": {"type": "Point", "coordinates": [110.367063, -7.801496]}, "properties": {"nama": "Halte Senopati 1", "koridor": ["2B"]}}, {"type": "Feature", "geometry": {"type": "Point", "coordinates": [110.367029, -7.801544]}, "properties": {"nama": "Halte Senopati 1", "koridor": ["2B"]}}, {"type": "Feature", "geometry": {"type": "Point", "coordinates": [110.367156, -7.801409]}, "properties": {"nama": "Halte Senopati 2", "koridor": ["10", "15", "1A", "1B", "2A", "6"]}}, {"type": "Feature", "geometry": {"type": "Point", "coordinates": [110.367176, -7.801441]}, "properties": {"nama": "Halte Senopati 2", "koridor": ["10", "15", "1A", "1B", "2A", "6"]}}, {"type": "Feature", "geometry": {"type": "Point", "coordinates": [110.383245, -7.816709]}, "properties": {"nama": "STP APPI, In. Menteri Supeno", "koridor": ["2A"]}}, {"type": "Feature", "geometry": {"type": "Point", "coordinates": [110.390879, -7.817003]}, "properties": {"nama": "TPB Gambiran 1", "koridor": ["2B"]}}, {"type": "Feature", "geometry": {"type": "Point", "coordinates": [110.390927, -7.817008]}, "properties": {"nama": "TPB Gambiran 1", "koridor": ["2B"]}}, {"type": "Feature", "geometry": {"type": "Point", "coordinates": [110.390964, -7.816854]}, "properties": {"nama": "TPB Gambiran 2", "koridor": ["2A"]}}, {"type": "Feature", "geometry": {"type": "Point", "coordinates": [110.391009, -7.816863]}, "properties": {"nama": "TPB Gambiran 2", "koridor": ["2A"]}}, {"type": "Feature", "geometry": {"type": "Point", "coordinates": [110.38034, -7.816354]}, "properties": {"nama": "TPB Pasar Sepeda Tanjungsari", "koridor": ["2B", "4A"]}}, {"type": "Feature", "geometry": {"type": "Point", "coordinates": [110.380329, -7.816402]}, "properties": {"nama": "TPB Pasar Sepeda Tanjungsari", "koridor": ["2B", "4A"]}}, {"type": "Feature", "geometry": {"type": "Point", "coordinates": [110.369078, -7.808176]}, "properties": {"nama": "TPB Purawisata", "koridor": ["2B"]}}, {"type": "Feature", "geometry": {"type": "Point", "coordinates": [110.352073, -7.799354]}, "properties": {"nama": "Halte Cokroaminoto SMA 1", "koridor": ["11", "13", "2B", "9"]}}, {"type": "Feature", "geometry": {"type": "Point", "coordinates": [110.352176, -7.799391]}, "properties": {"nama": "Halte Cokroaminoto (SMA 1)", "koridor": ["11", "13", "2B", "9"]}}, {"type": "Feature", "geometry": {"type": "Point", "coordinates": [110.353342, -7.792939]}, "properties": {"nama": "Halte SMP N 11", "koridor": ["11", "13", "2B", "9"]}}, {"type": "Feature", "geometry": {"type": "Point", "coordinates": [110.353416, -7.79296]}, "properties": {"nama": "Halte SMP N 11", "koridor": ["11", "13", "2B", "9"]}}, {"type": "Feature", "geometry": {"type": "Point", "coordinates": [110.3599, -7.786483]}, "properties": {"nama": "Halte Tentara Pelajar 1 (SMP N 1 14)", "koridor": ["11", "2B", "3B", "8", "9", "L1"]}}, {"type": "Feature", "geometry": {"type": "Point", "coordinates": [110.359739, -7.78715]}, "properties": {"nama": "Halte Tentara Pelajar 2", "koridor": ["11", "9"]}}, {"type": "Feature", "geometry": {"type": "Point", "coordinates": [110.359772, -7.787169]}, "properties": {"nama": "Halte Tentara Pelajar 2 (Samsat)", "koridor": ["11", "9"]}}, {"type": "Feature", "geometry": {"type": "Point", "coordinates": [110.362072, -7.778826]}, "properties": {"nama": "TPB Eks Borobudur Plaza 2", "koridor": ["2B", "5A"]}}, {"type": "Feature", "geometry": {"type": "Point", "coordinates": [110.362058, -7.778844]}, "properties": {"nama": "TPB Eks Borobudur Plaza 2", "koridor": ["2B", "5A"]}}, {"type": "Feature", "geometry": {"type": "Point", "coordinates": [110.36086, -7.780366]}, "properties": {"nama": "TPB Hotel Utara Kota", "koridor": ["2B", "9", "L1"]}}, {"type": "Feature", "geometry": {"type": "Point", "coordinates": [110.360885, -7.780368]}, "properties": {"nama": "STP Hotel Utara", "koridor": ["2B", "9", "L1"]}}, {"type": "Feature", "geometry": {"type": "Point", "coordinates": [110.357968, -7.788032]}, "properties": {"nama": "TPB Perpusda Samsat Kota Yogya", "koridor": ["11", "2B", "3B", "8", "9", "L1"]}}, {"type": "Feature", "geometry": {"type": "Point", "coordinates": [110.35797, -7.788076]}, "properties": {"nama": "STP Perpusda DIY", "koridor": ["11", "2B", "3B", "8", "9", "L1"]}}, {"type": "Feature", "geometry": {"type": "Point", "coordinates": [110.367652, -7.777377]}, "properties": {"nama": "Halte AM Sangaji 1", "koridor": ["2B"]}}, {"type": "Feature", "geometry": {"type": "Point", "coordinates": [110.369077, -7.764411]}, "properties": {"nama": "TPB Karangjati (AM Sangaji)", "koridor": ["2B"]}}, {"type": "Feature", "geometry": {"type": "Point", "coordinates": [110.368007, -7.7758]}, "properties": {"nama": "Halte A.M. Sangaji 2", "koridor": ["2A"]}}, {"type": "Feature", "geometry": {"type": "Point", "coordinates": [110.366794, -7.777852]}, "properties": {"nama": "TPB Wolter Monginsidi", "koridor": ["2B", "5A"]}}, {"type": "Feature", "geometry": {"type": "Point", "coordinates": [110.369163, -7.764401]}, "properties": {"nama": "TPB Karangjati (AM Sangaji)", "koridor": ["2B"]}}, {"type": "Feature", "geometry": {"type": "Point", "coordinates": [110.366842, -7.784757]}, "properties": {"nama": "Mangkubumi 1", "koridor": ["1A", "2A", "8", "L1"]}}, {"type": "Feature", "geometry": {"type": "Point", "coordinates": [110.366893, -7.784728]}, "properties": {"nama": "Halte Mangkubumi 1", "koridor": ["1A", "2A", "8", "L1"]}}, {"type": "Feature", "geometry": {"type": "Point", "coordinates": [110.36648, -7.787663]}, "properties": {"nama": "Mangkubumi 2", "koridor": ["1A", "2A", "8", "L1"]}}, {"type": "Feature", "geometry": {"type": "Point", "coordinates": [110.366528, -7.787646]}, "properties": {"nama": "Halte Mangkubumi 2", "koridor": ["1A", "2A", "8", "L1"]}}, {"type": "Feature", "geometry": {"type": "Point", "coordinates": [110.367234, -7.781808]}, "properties": {"nama": "TPB Pasar Kranggan Yogya", "koridor": ["2A"]}}, {"type": "Feature", "geometry": {"type": "Point", "coordinates": [110.364943, -7.799843]}, "properties": {"nama": "Halte Ahmad Yani (Benteng Vredeburg)", "koridor": ["10", "13", "15", "1A", "2A", "3A", "6", "8", "L1"]}}, {"type": "Feature", "geometry": {"type": "Point", "coordinates": [110.364984, -7.799854]}, "properties": {"nama": "Halte Malioboro 3", "koridor": ["10", "13", "15", "1A", "2A", "3A", "6", "8", "L1"]}}, {"type": "Feature", "geometry": {"type": "Point", "coordinates": [110.366079, -7.790828]}, "properties": {"nama": "Malioboro 1", "koridor": ["10", "13", "15", "1A", "2A", "3A", "6", "8", "L1"]}}, {"type": "Feature", "geometry": {"type": "Point", "coordinates": [110.366126, -7.790807]}, "properties": {"nama": "Halte Malioboro 1", "koridor": ["10", "13", "15", "1A", "2A", "3A", "6", "8", "L1"]}}, {"type": "Feature", "geometry": {"type": "Point", "coordinates": [110.365528, -7.795218]}, "properties": {"nama": "Malioboro 2", "koridor": ["10", "13", "15", "1A", "2A", "3A", "6", "8", "L1"]}}, {"type": "Feature", "geometry": {"type": "Point", "coordinates": [110.365582, -7.795193]}, "properties": {"nama": "Halte Malioboro 2", "koridor": ["10", "13", "15", "1A", "2A", "3A", "6", "8", "L1"]}}, {"type": "Feature", "geometry": {"type": "Point", "coordinates": [110.377991, -7.783]}, "properties": {"nama": "Bethesda", "koridor": ["1A", "2A", "4A", "5B"]}}, {"type": "Feature", "geometry": {"type": "Point", "coordinates": [110.37799, -7.783073]}, "properties": {"nama": "Halte Bethesda", "koridor": ["1A", "2A", "4A", "5B"]}}, {"type": "Feature", "geometry": {"type": "Point", "coordinates": [110.43571, -7.784484]}, "properties": {"nama": "Bandara Adisutjipto", "koridor": ["14", "1A", "1B", "3A", "3B", "5B"]}}, {"type": "Feature", "geometry": {"type": "Point", "coordinates": [110.402915, -7.798534]}, "properties": {"nama": "Halte JEC", "koridor": ["1B", "3A"]}}, {"type": "Feature", "geometry": {"type": "Point", "coordinates": [110.402912, -7.798568]}, "properties": {"nama": "JEC", "koridor": ["1B", "3A"]}}, {"type": "Feature", "geometry": {"type": "Point", "coordinates": [110.406396, -7.798606]}, "properties": {"nama": "Wonocatur", "koridor": ["1B", "3B"]}}, {"type": "Feature", "geometry": {"type": "Point", "coordinates": [110.406397, -7.798654]}, "properties": {"nama": "Halte Wonocatur", "koridor": ["1B", "3B"]}}, {"type": "Feature", "geometry": {"type": "Point", "coordinates": [110.420182, -7.783221]}, "properties": {"nama": "Halte Transmart", "koridor": ["1A", "1B", "3A", "5B"]}}, {"type": "Feature", "geometry": {"type": "Point", "coordinates": [110.420191, -7.783295]}, "properties": {"nama": "Transmart", "koridor": ["1A", "1B", "3A", "5B"]}}, {"type": "Feature", "geometry": {"type": "Point", "coordinates": [110.402435, -7.783155]}, "properties": {"nama": "Halte Ambarrukmo Plaza 2", "koridor": ["1A", "5A"]}}, {"type": "Feature", "geometry": {"type": "Point", "coordinates": [110.40244, -7.7832]}, "properties": {"nama": "Ambarrukmo Plaza 2", "koridor": ["1A", "5A"]}}, {"type": "Feature", "geometry": {"type": "Point", "coordinates": [110.393916, -7.783059]}, "properties": {"nama": "Halte De Britto", "koridor": ["1A", "4A", "5A"]}}, {"type": "Feature", "geometry": {"type": "Point", "coordinates": [110.393915, -7.783106]}, "properties": {"nama": "De Britto", "koridor": ["1A", "4A", "5A"]}}, {"type": "Feature", "geometry": {"type": "Point", "coordinates": [110.392704, -7.78323]}, "properties": {"nama": "Halte Gedung Wanita", "koridor": ["1A", "4B", "5B"]}}, {"type": "Feature", "geometry": {"type": "Point", "coordinates": [110.410443, -7.785775]}, "properties": {"nama": "Halte Janti Selatan", "koridor": ["1A", "5A", "5B"]}}, {"type": "Feature", "geometry": {"type": "Point", "coordinates": [110.41164, -7.783199]}, "properties": {"nama": "Halte Janti Utara", "koridor": ["1A", "1B", "3A", "5A"]}}, {"type": "Feature", "geometry": {"type": "Point", "coordinates": [110.411701, -7.78324]}, "properties": {"nama": "Halte Janti Utara", "koridor": ["1A", "1B", "3A", "5A"]}}, {"type": "Feature", "geometry": {"type": "Point", "coordinates": [110.419384, -7.783373]}, "properties": {"nama": "Jayakarta", "koridor": ["1A", "1B", "3B"]}}, {"type": "Feature", "geometry": {"type": "Point", "coordinates": [110.419385, -7.783429]}, "properties": {"nama": "Halte Jayakarta", "koridor": ["1A", "1B", "3B"]}}, {"type": "Feature", "geometry": {"type": "Point", "coordinates": [110.401774, -7.783294]}, "properties": {"nama": "Ambarrukmo Plaza 1", "koridor": ["1A", "5B"]}}, {"type": "Feature", "geometry": {"type": "Point", "coordinates": [110.401771, -7.783348]}, "properties": {"nama": "Halte Ambarrukmo Plaza 1", "koridor": ["1A", "5B"]}}, {"type": "Feature", "geometry": {"type": "Point", "coordinates": [110.450519, -7.781722]}, "properties": {"nama": "KR 1", "koridor": ["1A"]}}, {"type": "Feature", "geometry": {"type": "Point", "coordinates": [110.450547, -7.781763]}, "properties": {"nama": "Halte KR 1", "koridor": ["1A"]}}, {"type": "Feature", "geometry": {"type": "Point", "coordinates": [110.448777, -7.782493]}, "properties": {"nama": "Halte KR 2", "koridor": ["1A"]}}, {"type": "Feature", "geometry": {"type": "Point", "coordinates": [110.448812, -7.782549]}, "properties": {"nama": "KR 2", "koridor": ["1A"]}}, {"type": "Feature", "geometry": {"type": "Point", "coordinates": [110.43102, -7.783364]}, "properties": {"nama": "Halte Maguwo Sambilegi", "koridor": ["14", "1A", "1B", "3A", "3B", "5B"]}}, {"type": "Feature", "geometry": {"type": "Point", "coordinates": [110.431018, -7.783438]}, "properties": {"nama": "Maguwo Sambilegi", "koridor": ["14", "1A", "1B", "3A", "3B", "5B"]}}, {"type": "Feature", "geometry": {"type": "Point", "coordinates": [110.383487, -7.801833]}, "properties": {"nama": "Taman Makam Pahlawan (Utara)", "koridor": ["1B"]}}, {"type": "Feature", "geometry": {"type": "Point", "coordinates": [110.383462, -7.801876]}, "properties": {"nama": "Taman Makam Pahlawan (Utara)", "koridor": ["1B"]}}, {"type": "Feature", "geometry": {"type": "Point", "coordinates": [110.3822, -7.801839]}, "properties": {"nama": "Taman Makam Pahlawan (Selatan)", "koridor": ["1B"]}}, {"type": "Feature", "geometry": {"type": "Point", "coordinates": [110.382198, -7.801915]}, "properties": {"nama": "Taman Makam Pahlawan (Selatan)", "koridor": ["1B"]}}, {"type": "Feature", "geometry": {"type": "Point", "coordinates": [110.374152, -7.801621]}, "properties": {"nama": "Halte Museum Biologi", "koridor": ["1B", "4A"]}}, {"type": "Feature", "geometry": {"type": "Point", "coordinates": [110.374154, -7.801681]}, "properties": {"nama": "Halte Museum Biologi", "koridor": ["1B", "4A"]}}, {"type": "Feature", "geometry": {"type": "Point", "coordinates": [110.375745, -7.801616]}, "properties": {"nama": "Halte Pakualaman", "koridor": ["1B", "4A"]}}, {"type": "Feature", "geometry": {"type": "Point", "coordinates": [110.37574, -7.801657]}, "properties": {"nama": "Halte Puro Pakualaman", "koridor": ["1B", "4A"]}}, {"type": "Feature", "geometry": {"type": "Point", "coordinates": [110.410076, -7.797349]}, "properties": {"nama": "Halte RSPAU DR. S. Hardjolukito", "koridor": ["1B", "3B"]}}, {"type": "Feature", "geometry": {"type": "Point", "coordinates": [110.409988, -7.797331]}, "properties": {"nama": "Halte RS. AU DR. S. Hardjolukito", "koridor": ["1B", "3B"]}}, {"type": "Feature", "geometry": {"type": "Point", "coordinates": [110.369546, -7.782936]}, "properties": {"nama": "Jalan Jend. Sudirman (S)", "koridor": ["11", "1A"]}}, {"type": "Feature", "geometry": {"type": "Point", "coordinates": [110.369548, -7.783037]}, "properties": {"nama": "Halte Jl. Jend. Sudirman (S)", "koridor": ["11", "1A"]}}, {"type": "Feature", "geometry": {"type": "Point", "coordinates": [110.368832, -7.782854]}, "properties": {"nama": "Halte Jl. Jend. Sudirman (U)", "koridor": ["11", "13", "3B"]}}, {"type": "Feature", "geometry": {"type": "Point", "coordinates": [110.368831, -7.782927]}, "properties": {"nama": "Jalan Jend. Sudirman (U)", "koridor": ["11", "13", "3B"]}}, {"type": "Feature", "geometry": {"type": "Point", "coordinates": [110.386119, -7.783154]}, "properties": {"nama": "Halte LPP", "koridor": ["1A", "5B"]}}, {"type": "Feature", "geometry": {"type": "Point", "coordinates": [110.409905, -7.797328]}, "properties": {"nama": "STP Block O", "koridor": ["1B", "3A"]}}, {"type": "Feature", "geometry": {"type": "Point", "coordinates": [110.409821, -7.797332]}, "properties": {"nama": "TPB Blok O", "koridor": ["1B", "3A"]}}, {"type": "Feature", "geometry": {"type": "Point", "coordinates": [110.428331, -7.783541]}, "properties": {"nama": "TPB Hyundai", "koridor": ["1A", "1B", "3B", "5B"]}}, {"type": "Feature", "geometry": {"type": "Point", "coordinates": [110.414705, -7.779576]}, "properties": {"nama": "Sahid J-Walk", "koridor": ["1B", "5A"]}}, {"type": "Feature", "geometry": {"type": "Point", "coordinates": [110.412213, -7.773992]}, "properties": {"nama": "TPB Babarsari (Selatan)", "koridor": ["1B", "5A"]}}, {"type": "Feature", "geometry": {"type": "Point", "coordinates": [110.408562, -7.778289]}, "properties": {"nama": "TPB Kledokan Babarsari", "koridor": ["1B"]}}, {"type": "Feature", "geometry": {"type": "Point", "coordinates": [110.408526, -7.778279]}, "properties": {"nama": "TPB Kledokan Babarsari", "koridor": ["1B"]}}, {"type": "Feature", "geometry": {"type": "Point", "coordinates": [110.362077, -7.799395]}, "properties": {"nama": "Bhayangkara", "koridor": ["3B", "8", "L1"]}}, {"type": "Feature", "geometry": {"type": "Point", "coordinates": [110.36209, -7.799386]}, "properties": {"nama": "STP Bayangkara (Gereja)", "koridor": ["3B", "8", "L1"]}}, {"type": "Feature", "geometry": {"type": "Point", "coordinates": [110.362556, -7.782872]}, "properties": {"nama": "Diponegoro", "koridor": ["11"]}}, {"type": "Feature", "geometry": {"type": "Point", "coordinates": [110.362548, -7.782927]}, "properties": {"nama": "Halte Diponegoro", "koridor": ["11"]}}, {"type": "Feature", "geometry": {"type": "Point", "coordinates": [110.374304, -7.767771]}, "properties": {"nama": "Halte RS Sardjito (Timur)", "koridor": ["12", "3A", "4B", "5B"]}}, {"type": "Feature", "geometry": {"type": "Point", "coordinates": [110.374211, -7.767806]}, "properties": {"nama": "RS Sardjito", "koridor": ["12", "3B", "4A", "5A"]}}, {"type": "Feature", "geometry": {"type": "Point", "coordinates": [110.375164, -7.774305]}, "properties": {"nama": "Halte GIK UGM", "koridor": ["12", "3A", "4B"]}}, {"type": "Feature", "geometry": {"type": "Point", "coordinates": [110.374947, -7.774487]}, "properties": {"nama": "Halte Vokasi UGM", "koridor": ["12", "3B", "4A"]}}, {"type": "Feature", "geometry": {"type": "Point", "coordinates": [110.358863, -7.789498]}, "properties": {"nama": "Jlagran", "koridor": ["1B", "3B", "8", "L1"]}}, {"type": "Feature", "geometry": {"type": "Point", "coordinates": [110.371361, -7.78467]}, "properties": {"nama": "Halte TJ Kotabaru", "koridor": ["11"]}}, {"type": "Feature", "geometry": {"type": "Point", "coordinates": [110.430775, -7.774451]}, "properties": {"nama": "Halte Ring Road Utara (Binamarga)", "koridor": ["14", "3B"]}}, {"type": "Feature", "geometry": {"type": "Point", "coordinates": [110.430727, -7.774451]}, "properties": {"nama": "Halte Ring Road Utara (Binamarga)", "koridor": ["14", "3B"]}}, {"type": "Feature", "geometry": {"type": "Point", "coordinates": [110.431056, -7.769385]}, "properties": {"nama": "TPB RRU PJN", "koridor": ["14", "3A"]}}, {"type": "Feature", "geometry": {"type": "Point", "coordinates": [110.423539, -7.764237]}, "properties": {"nama": "TPB RRU Instiper 1", "koridor": ["3B"]}}, {"type": "Feature", "geometry": {"type": "Point", "coordinates": [110.403038, -7.758832]}, "properties": {"nama": "Halte Ring Road Utara (JIH)", "koridor": ["3B", "5B"]}}, {"type": "Feature", "geometry": {"type": "Point", "coordinates": [110.408895, -7.760731]}, "properties": {"nama": "TJ RRU Guna Bangsa", "koridor": ["3B", "5B"]}}, {"type": "Feature", "geometry": {"type": "Point", "coordinates": [110.408009, -7.760638]}, "properties": {"nama": "Halte Ring Road Utara (UPN)", "koridor": ["3A", "5A"]}}, {"type": "Feature", "geometry": {"type": "Point", "coordinates": [110.408008, -7.760658]}, "properties": {"nama": "Halte RRU TJ (UPN)", "koridor": ["3A", "5A"]}}, {"type": "Feature", "geometry": {"type": "Point", "coordinates": [110.39184, -7.82602]}, "properties": {"nama": "Halte Tegal Gendu 1", "koridor": ["3A"]}}, {"type": "Feature", "geometry": {"type": "Point", "coordinates": [110.39181, -7.826078]}, "properties": {"nama": "Halte Tegal Gendu 1", "koridor": ["3A"]}}, {"type": "Feature", "geometry": {"type": "Point", "coordinates": [110.391362, -7.825824]}, "properties": {"nama": "Halte Tegal Gendu 2", "koridor": ["3B"]}}, {"type": "Feature", "geometry": {"type": "Point", "coordinates": [110.391329, -7.825918]}, "properties": {"nama": "Halte Tegal Gendu 2", "koridor": ["3B"]}}, {"type": "Feature", "geometry": {"type": "Point", "coordinates": [110.377035, -7.765316]}, "properties": {"nama": "TPB Fakultas Biologi UGM", "koridor": ["3A"]}}, {"type": "Feature", "geometry": {"type": "Point", "coordinates": [110.377043, -7.765291]}, "properties": {"nama": "TPB Fakultas Biologi UGM", "koridor": ["12", "3A", "4B"]}}, {"type": "Feature", "geometry": {"type": "Point", "coordinates": [110.375426, -7.771536]}, "properties": {"nama": "TPB Fak. Kedokteran UGM", "koridor": ["12", "3B", "4A", "5A"]}}, {"type": "Feature", "geometry": {"type": "Point", "coordinates": [110.375219, -7.771355]}, "properties": {"nama": "TPB Fak. Peternakan UGM", "koridor": ["12", "3A", "4B", "5B"]}}, {"type": "Feature", "geometry": {"type": "Point", "coordinates": [110.380013, -7.762551]}, "properties": {"nama": "Halte Graha Asus Jakal", "koridor": ["12", "3A", "4B", "5A"]}}, {"type": "Feature", "geometry": {"type": "Point", "coordinates": [110.380139, -7.761864]}, "properties": {"nama": "Halte Hotel Vidi Jakal", "koridor": ["12", "3B", "4A", "5B"]}}, {"type": "Feature", "geometry": {"type": "Point", "coordinates": [110.396347, -7.822355]}, "properties": {"nama": "TPB Lapangan Karang", "koridor": ["3A"]}}, {"type": "Feature", "geometry": {"type": "Point", "coordinates": [110.396393, -7.822415]}, "properties": {"nama": "STP Lapangan Karang 1", "koridor": ["3A"]}}, {"type": "Feature", "geometry": {"type": "Point", "coordinates": [110.396438, -7.822434]}, "properties": {"nama": "TPB Lap. Karang Kotagede", "koridor": ["3B"]}}, {"type": "Feature", "geometry": {"type": "Point", "coordinates": [110.377116, -7.764962]}, "properties": {"nama": "Trans Jogja", "koridor": ["12", "3B", "4A"]}}, {"type": "Feature", "geometry": {"type": "Point", "coordinates": [110.431148, -7.766512]}, "properties": {"nama": "TPB SMK Tajem Ringroad", "koridor": ["3B"]}}, {"type": "Feature", "geometry": {"type": "Point", "coordinates": [110.415486, -7.762384]}, "properties": {"nama": "TPB Polsek Depok Timur", "koridor": ["3B"]}}, {"type": "Feature", "geometry": {"type": "Point", "coordinates": [110.383125, -7.786111]}, "properties": {"nama": "Halte AA YKPN", "koridor": ["1A", "5A"]}}, {"type": "Feature", "geometry": {"type": "Point", "coordinates": [110.393153, -7.791642]}, "properties": {"nama": "Halte APMD 1", "koridor": ["4B"]}}, {"type": "Feature", "geometry": {"type": "Point", "coordinates": [110.393215, -7.791644]}, "properties": {"nama": "Halte APMD 1", "koridor": ["4B"]}}, {"type": "Feature", "geometry": {"type": "Point", "coordinates": [110.393277, -7.791173]}, "properties": {"nama": "Halte APMD 2", "koridor": ["4A"]}}, {"type": "Feature", "geometry": {"type": "Point", "coordinates": [110.372637, -7.795723]}, "properties": {"nama": "Dinas Pendidikan Kota Yogyakarta", "koridor": ["4A"]}}, {"type": "Feature", "geometry": {"type": "Point", "coordinates": [110.372688, -7.795735]}, "properties": {"nama": "Halte Hayam Wuruk", "koridor": ["4A"]}}, {"type": "Feature", "geometry": {"type": "Point", "coordinates": [110.395027, -7.800365]}, "properties": {"nama": "Halte Trans Jogja SMKN 5", "koridor": ["10", "4A"]}}, {"type": "Feature", "geometry": {"type": "Point", "coordinates": [110.395037, -7.800303]}, "properties": {"nama": "Halte Trans Jogja SMKN 5", "koridor": ["10", "4A"]}}, {"type": "Feature", "geometry": {"type": "Point", "coordinates": [110.394559, -7.80028]}, "properties": {"nama": "Halte SGM", "koridor": ["4B"]}}, {"type": "Feature", "geometry": {"type": "Point", "coordinates": [110.376457, -7.813818]}, "properties": {"nama": "Halte Taman Siswa", "koridor": ["4B"]}}, {"type": "Feature", "geometry": {"type": "Point", "coordinates": [110.376531, -7.813778]}, "properties": {"nama": "TPB STSRD Visi Tamansiswa", "koridor": ["4B"]}}, {"type": "Feature", "geometry": {"type": "Point", "coordinates": [110.388551, -7.820503]}, "properties": {"nama": "Halte TJ Universitas Ahmad Dahlan", "koridor": ["4A", "4B"]}}, {"type": "Feature", "geometry": {"type": "Point", "coordinates": [110.388529, -7.820505]}, "properties": {"nama": "Halte TJ Universitas Ahmad Dahlan", "koridor": ["4A", "4B"]}}, {"type": "Feature", "geometry": {"type": "Point", "coordinates": [110.362307, -7.789427]}, "properties": {"nama": "Yogyakarta", "koridor": []}}, {"type": "Feature", "geometry": {"type": "Point", "coordinates": [110.364247, -7.789585]}, "properties": {"nama": "Yogyakarta", "koridor": []}}, {"type": "Feature", "geometry": {"type": "Point", "coordinates": [110.362218, -7.788958]}, "properties": {"nama": "Yogyakarta", "koridor": []}}, {"type": "Feature", "geometry": {"type": "Point", "coordinates": [110.356553, -7.747344]}, "properties": {"nama": "Portabel UTY Ringroad Utara 2", "koridor": ["8"]}}, {"type": "Feature", "geometry": {"type": "Point", "coordinates": [110.399969, -7.802269]}, "properties": {"nama": "Gedung Juang 45", "koridor": ["1B", "2B"]}}, {"type": "Feature", "geometry": {"type": "Point", "coordinates": [110.374269, -7.767767]}, "properties": {"nama": "RS Sardjito", "koridor": ["12", "3A", "4B", "5B"]}}, {"type": "Feature", "geometry": {"type": "Point", "coordinates": [110.356672, -7.74709]}, "properties": {"nama": "Portabel UTY Ring Road Utara 1", "koridor": ["8"]}}, {"type": "Feature", "geometry": {"type": "Point", "coordinates": [110.349706, -7.781036]}, "properties": {"nama": "Halte Portabel Soragan 1", "koridor": ["13", "8"]}}, {"type": "Feature", "geometry": {"type": "Point", "coordinates": [110.342035, -7.779392]}, "properties": {"nama": "Halte tanpa nama", "koridor": ["13", "8"]}}, {"type": "Feature", "geometry": {"type": "Point", "coordinates": [110.343778, -7.779804]}, "properties": {"nama": "Halte Portabel Dentes (Ruko Godean)", "koridor": ["13", "8"]}}, {"type": "Feature", "geometry": {"type": "Point", "coordinates": [110.342063, -7.779365]}, "properties": {"nama": "Halte Portabel McD Jl. Godean", "koridor": ["13", "8"]}}, {"type": "Feature", "geometry": {"type": "Point", "coordinates": [110.350376, -7.781269]}, "properties": {"nama": "Halte Portabel Soragan 2", "koridor": ["13", "8"]}}, {"type": "Feature", "geometry": {"type": "Point", "coordinates": [110.361581, -7.792077]}, "properties": {"nama": "Sosrowijayan", "koridor": ["3B", "8", "L1"]}}, {"type": "Feature", "geometry": {"type": "Point", "coordinates": [110.361813, -7.796018]}, "properties": {"nama": "Pasar Pathuk", "koridor": ["3B", "8", "L1"]}}, {"type": "Feature", "geometry": {"type": "Point", "coordinates": [110.362101, -7.753011]}, "properties": {"nama": "TPB Jogja City Mall 1", "koridor": ["5B", "9", "L1"]}}, {"type": "Feature", "geometry": {"type": "Point", "coordinates": [110.362271, -7.753249]}, "properties": {"nama": "TPB Jogja City Mall 2", "koridor": ["5A", "9", "L1"]}}, {"type": "Feature", "geometry": {"type": "Point", "coordinates": [110.361518, -7.765373]}, "properties": {"nama": "TPB TVRI", "koridor": ["5B", "9", "L1"]}}, {"type": "Feature", "geometry": {"type": "Point", "coordinates": [110.361692, -7.765268]}, "properties": {"nama": "TPB TVRI (Eksisting)", "koridor": ["5A", "9", "L1"]}}, {"type": "Feature", "geometry": {"type": "Point", "coordinates": [110.361148, -7.773714]}, "properties": {"nama": "TPB Karangwaru", "koridor": ["5B", "9", "L1"]}}, {"type": "Feature", "geometry": {"type": "Point", "coordinates": [110.408917, -7.76071]}, "properties": {"nama": "Halte TJ RRU (STIKES Guna Bangsa)", "koridor": ["3B", "5B"]}}, {"type": "Feature", "geometry": {"type": "Point", "coordinates": [110.375337, -7.787341]}, "properties": {"nama": "Kridosono", "koridor": ["10", "11", "13", "1A", "2A", "2B", "3A", "4A", "4B", "5A", "5B", "8", "L1"]}}, {"type": "Feature", "geometry": {"type": "Point", "coordinates": [110.396177, -7.822202]}, "properties": {"nama": "STP Lapangan Karang 2", "koridor": []}}, {"type": "Feature", "geometry": {"type": "Point", "coordinates": [110.399479, -7.758291]}, "properties": {"nama": "Halte Pakuwon Mall Jogja", "koridor": ["3A", "5A"]}}, {"type": "Feature", "geometry": {"type": "Point", "coordinates": [110.395935, -7.756719]}, "properties": {"nama": "Halte Terminal Condong Catur", "koridor": ["12", "2B", "3A", "4B", "5A"]}}, {"type": "Feature", "geometry": {"type": "Point", "coordinates": [110.373649, -7.790402]}, "properties": {"nama": "Halte Lempuyangan Gudang (Utara)", "koridor": ["10", "2B", "4B"]}}, {"type": "Feature", "geometry": {"type": "Point", "coordinates": [110.435711, -7.784521]}, "properties": {"nama": "Halte Bandara Adisutjipto", "koridor": ["14", "1A", "1B", "3A", "3B", "5B"]}}, {"type": "Feature", "geometry": {"type": "Point", "coordinates": [110.374737, -7.764077]}, "properties": {"nama": "TPB Teknik UGM 1", "koridor": ["5B"]}}, {"type": "Feature", "geometry": {"type": "Point", "coordinates": [110.39933, -7.757979]}, "properties": {"nama": "TPB Pakuwon Mall 2", "koridor": ["3B", "5B"]}}, {"type": "Feature", "geometry": {"type": "Point", "coordinates": [110.40306, -7.758759]}, "properties": {"nama": "TJ RRU (JIH)", "koridor": ["3B", "5B"]}}, {"type": "Feature", "geometry": {"type": "Point", "coordinates": [110.390945, -7.792253]}, "properties": {"nama": "Mako Lanal Yogyakarta", "koridor": ["10"]}}, {"type": "Feature", "geometry": {"type": "Point", "coordinates": [110.392314, -7.792606]}, "properties": {"nama": "TPB TNI AL 1", "koridor": ["10"]}}, {"type": "Feature", "geometry": {"type": "Point", "coordinates": [110.393353, -7.791169]}, "properties": {"nama": "Halte APMD 2", "koridor": ["4A"]}}, {"type": "Feature", "geometry": {"type": "Point", "coordinates": [110.394857, -7.78616]}, "properties": {"nama": "Halte UIN Sunan Kalijaga 2", "koridor": ["4A"]}}, {"type": "Feature", "geometry": {"type": "Point", "coordinates": [110.39474, -7.785937]}, "properties": {"nama": "Halte UIN Sunan Kalijaga 1", "koridor": ["4B"]}}, {"type": "Feature", "geometry": {"type": "Point", "coordinates": [110.375866, -7.777881]}, "properties": {"nama": "TPB Panti Rapih", "koridor": ["11", "2B", "3A", "5A"]}}, {"type": "Feature", "geometry": {"type": "Point", "coordinates": [110.375745, -7.777552]}, "properties": {"nama": "TPB SMPN 1 Yogyakarta", "koridor": ["11", "2A", "3B", "4A", "5B"]}}, {"type": "Feature", "geometry": {"type": "Point", "coordinates": [110.441277, -7.783402]}, "properties": {"nama": "TPB Makam Sorogenen", "koridor": ["1A"]}}, {"type": "Feature", "geometry": {"type": "Point", "coordinates": [110.394392, -7.760786]}, "properties": {"nama": "Halte SPBU Gejayan", "koridor": ["12", "2A", "4B"]}}, {"type": "Feature", "geometry": {"type": "Point", "coordinates": [110.389273, -7.775088]}, "properties": {"nama": "Halte Sanata Dharma Gejayan (Realino)", "koridor": ["12", "2B", "4A"]}}, {"type": "Feature", "geometry": {"type": "Point", "coordinates": [110.412181, -7.773879]}, "properties": {"nama": "TPB Babarsari (Utara)", "koridor": ["5B"]}}, {"type": "Feature", "geometry": {"type": "Point", "coordinates": [110.415098, -7.77807]}, "properties": {"nama": "TPB Dishub DIY", "koridor": ["5B"]}}, {"type": "Feature", "geometry": {"type": "Point", "coordinates": [110.414667, -7.779569]}, "properties": {"nama": "Halte Sahid J-Walk", "koridor": ["1B", "5A"]}}, {"type": "Feature", "geometry": {"type": "Point", "coordinates": [110.410314, -7.767112]}, "properties": {"nama": "TPB Neutron Seturan (YKPN)", "koridor": ["5A"]}}, {"type": "Feature", "geometry": {"type": "Point", "coordinates": [110.410176, -7.768316]}, "properties": {"nama": "TPB AA YKPN 1", "koridor": ["5B"]}}, {"type": "Feature", "geometry": {"type": "Point", "coordinates": [110.369955, -7.755972]}, "properties": {"nama": "TPB PDAM Monjali", "koridor": ["2A"]}}, {"type": "Feature", "geometry": {"type": "Point", "coordinates": [110.357504, -7.790878]}, "properties": {"nama": "Letjen Suprapto", "koridor": ["1B"]}}, {"type": "Feature", "geometry": {"type": "Point", "coordinates": [110.367545, -7.791791]}, "properties": {"nama": "Portabel Teras Malioboro", "koridor": ["10", "15", "1A", "1B", "6"]}}, {"type": "Feature", "geometry": {"type": "Point", "coordinates": [110.369281, -7.799253]}, "properties": {"nama": "TPB Jl. Mayor Suryotomo 1", "koridor": ["10", "15", "1A", "1B", "6"]}}, {"type": "Feature", "geometry": {"type": "Point", "coordinates": [110.372812, -7.794569]}, "properties": {"nama": "TPB Hayam Wuruk 2", "koridor": ["4B"]}}, {"type": "Feature", "geometry": {"type": "Point", "coordinates": [110.387935, -7.807441]}, "properties": {"nama": "TPB Jl. Glagahsari", "koridor": ["4A"]}}, {"type": "Feature", "geometry": {"type": "Point", "coordinates": [110.378256, -7.804238]}, "properties": {"nama": "TPB Wirogunan Tamsis 2", "koridor": ["4B"]}}, {"type": "Feature", "geometry": {"type": "Point", "coordinates": [110.38873, -7.80426]}, "properties": {"nama": "TPB Olive Kentucky", "koridor": ["4B"]}}, {"type": "Feature", "geometry": {"type": "Point", "coordinates": [110.388427, -7.805555]}, "properties": {"nama": "TPB UTY Glagahsari", "koridor": ["4A"]}}, {"type": "Feature", "geometry": {"type": "Point", "coordinates": [110.354217, -7.801093]}, "properties": {"nama": "TPB Pasar Serangan", "koridor": ["11", "13", "2B", "9"]}}, {"type": "Feature", "geometry": {"type": "Point", "coordinates": [110.376895, -7.810951]}, "properties": {"nama": "TPB Nyutran Tamansiswa", "koridor": ["4A"]}}, {"type": "Feature", "geometry": {"type": "Point", "coordinates": [110.431542, -7.767886]}, "properties": {"nama": "Disnakertrans DI Yogyakarta", "koridor": ["14"]}}, {"type": "Feature", "geometry": {"type": "Point", "coordinates": [110.384786, -7.752494]}, "properties": {"nama": "Halte Superindo Kaliurang 2", "koridor": ["12"]}}, {"type": "Feature", "geometry": {"type": "Point", "coordinates": [110.384636, -7.752533]}, "properties": {"nama": "Halte Superindo Kaliurang", "koridor": ["12"]}}, {"type": "Feature", "geometry": {"type": "Point", "coordinates": [110.38879, -7.745342]}, "properties": {"nama": "Halte Pasar Colombo", "koridor": ["12"]}}, {"type": "Feature", "geometry": {"type": "Point", "coordinates": [110.397807, -7.73022]}, "properties": {"nama": "Halte Simpang Kaliurang Palem Raya", "koridor": ["12"]}}, {"type": "Feature", "geometry": {"type": "Point", "coordinates": [110.392881, -7.738716]}, "properties": {"nama": "Halte PLN Gardu Induk Kentungan", "koridor": ["12"]}}, {"type": "Feature", "geometry": {"type": "Point", "coordinates": [110.392376, -7.739325]}, "properties": {"nama": "Terminal Bangunan", "koridor": ["12"]}}, {"type": "Feature", "geometry": {"type": "Point", "coordinates": [110.434257, -7.743149]}, "properties": {"nama": "SMA Budi Mulia Dua (Halte 2)", "koridor": ["14"]}}, {"type": "Feature", "geometry": {"type": "Point", "coordinates": [110.434157, -7.742822]}, "properties": {"nama": "SMA Budi Mulia Dua", "koridor": ["14"]}}, {"type": "Feature", "geometry": {"type": "Point", "coordinates": [110.402526, -7.722011]}, "properties": {"nama": "Halte Puskesmas Ngaglik 2", "koridor": ["12"]}}, {"type": "Feature", "geometry": {"type": "Point", "coordinates": [110.402515, -7.721839]}, "properties": {"nama": "Halte Puskesmas Ngaglik 1", "koridor": ["12"]}}, {"type": "Feature", "geometry": {"type": "Point", "coordinates": [110.401255, -7.724269]}, "properties": {"nama": "Halte TK Bias Kaliurang", "koridor": ["12"]}}, {"type": "Feature", "geometry": {"type": "Point", "coordinates": [110.40121, -7.724123]}, "properties": {"nama": "Halte Kantor Camat Ngaglik", "koridor": ["12"]}}, {"type": "Feature", "geometry": {"type": "Point", "coordinates": [110.406037, -7.715706]}, "properties": {"nama": "Halte SMP Negeri 2 Ngaglik", "koridor": ["12"]}}, {"type": "Feature", "geometry": {"type": "Point", "coordinates": [110.389675, -7.822613]}, "properties": {"nama": "Halte Muhammadiyah 3", "koridor": ["4A", "4B"]}}, {"type": "Feature", "geometry": {"type": "Point", "coordinates": [110.387319, -7.818463]}, "properties": {"nama": "TPB Jl. Pramuka", "koridor": ["4A", "4B"]}}, {"type": "Feature", "geometry": {"type": "Point", "coordinates": [110.433896, -7.755468]}, "properties": {"nama": "KUA Depok (Timur)", "koridor": ["14"]}}, {"type": "Feature", "geometry": {"type": "Point", "coordinates": [110.433737, -7.75556]}, "properties": {"nama": "KUA Depok (Barat)", "koridor": ["14"]}}, {"type": "Feature", "geometry": {"type": "Point", "coordinates": [110.434576, -7.750472]}, "properties": {"nama": "MAN 2 Sleman (Halte 2)", "koridor": ["14"]}}, {"type": "Feature", "geometry": {"type": "Point", "coordinates": [110.434488, -7.750376]}, "properties": {"nama": "MAN 2 Sleman", "koridor": ["14"]}}, {"type": "Feature", "geometry": {"type": "Point", "coordinates": [110.431454, -7.765221]}, "properties": {"nama": "SMKN 1 Depok", "koridor": ["14"]}}, {"type": "Feature", "geometry": {"type": "Point", "coordinates": [110.431521, -7.765633]}, "properties": {"nama": "SMKN 1 Depok (Halte 2)", "koridor": ["14"]}}, {"type": "Feature", "geometry": {"type": "Point", "coordinates": [110.408861, -7.711045]}, "properties": {"nama": "Halte SPBU Kaliurang", "koridor": ["12"]}}, {"type": "Feature", "geometry": {"type": "Point", "coordinates": [110.408845, -7.710843]}, "properties": {"nama": "Halte Warung Sego Penyetan Banyuwangi", "koridor": ["12"]}}, {"type": "Feature", "geometry": {"type": "Point", "coordinates": [110.418177, -7.695389]}, "properties": {"nama": "Pusat Rehabilitasi YAKKUM (Halte 2)", "koridor": ["12", "14"]}}, {"type": "Feature", "geometry": {"type": "Point", "coordinates": [110.417951, -7.695586]}, "properties": {"nama": "Halte Pusat Rehabilitasi Yakkum", "koridor": ["12", "14"]}}, {"type": "Feature", "geometry": {"type": "Point", "coordinates": [110.413516, -7.702737]}, "properties": {"nama": "Halte Wedangan Kampoeng", "koridor": ["12"]}}, {"type": "Feature", "geometry": {"type": "Point", "coordinates": [110.418781, -7.688173]}, "properties": {"nama": "Kampus Terpadu UII (Halte 2)", "koridor": ["12", "14"]}}, {"type": "Feature", "geometry": {"type": "Point", "coordinates": [110.418726, -7.687283]}, "properties": {"nama": "Kampus Terpadu UII", "koridor": ["12", "14"]}}, {"type": "Feature", "geometry": {"type": "Point", "coordinates": [110.420197, -7.66684]}, "properties": {"nama": "Terminal Pakem", "koridor": ["12", "14"]}}, {"type": "Feature", "geometry": {"type": "Point", "coordinates": [110.417715, -7.668432]}, "properties": {"nama": "SDN Percobaan 3 Pakem", "koridor": ["12", "14"]}}, {"type": "Feature", "geometry": {"type": "Point", "coordinates": [110.41767, -7.669071]}, "properties": {"nama": "Halte SMPN 4 Pakem", "koridor": ["12", "14"]}}, {"type": "Feature", "geometry": {"type": "Point", "coordinates": [110.41757, -7.669172]}, "properties": {"nama": "Halte RS Panti Nugroho", "koridor": ["12", "14"]}}, {"type": "Feature", "geometry": {"type": "Point", "coordinates": [110.417283, -7.676118]}, "properties": {"nama": "Raminten Boutique & Cafe (Halte 2)", "koridor": ["12", "14"]}}, {"type": "Feature", "geometry": {"type": "Point", "coordinates": [110.417184, -7.676086]}, "properties": {"nama": "Halte Raminten Boutique dan Cafe", "koridor": ["12", "14"]}}, {"type": "Feature", "geometry": {"type": "Point", "coordinates": [110.425102, -7.703749]}, "properties": {"nama": "Kantor Kalurahan Sukoharjo", "koridor": ["14"]}}, {"type": "Feature", "geometry": {"type": "Point", "coordinates": [110.420557, -7.702322]}, "properties": {"nama": "SD Negeri Selomulyo", "koridor": ["14"]}}, {"type": "Feature", "geometry": {"type": "Point", "coordinates": [110.42045, -7.702208]}, "properties": {"nama": "SD Negeri Selomulyo (Halte 2)", "koridor": ["14"]}}, {"type": "Feature", "geometry": {"type": "Point", "coordinates": [110.447426, -7.702113]}, "properties": {"nama": "Simpang Pasar Jangkang", "koridor": ["14"]}}, {"type": "Feature", "geometry": {"type": "Point", "coordinates": [110.447389, -7.702036]}, "properties": {"nama": "Simpang Pasar Jangkang (Halte 2)", "koridor": ["14"]}}, {"type": "Feature", "geometry": {"type": "Point", "coordinates": [110.444604, -7.702992]}, "properties": {"nama": "Puskesmas Ngemplak 2", "koridor": ["14"]}}, {"type": "Feature", "geometry": {"type": "Point", "coordinates": [110.44446, -7.702971]}, "properties": {"nama": "Puskesmas Ngemplak 2 (Halte 2)", "koridor": ["14"]}}, {"type": "Feature", "geometry": {"type": "Point", "coordinates": [110.434971, -7.704914]}, "properties": {"nama": "SMA Negeri 2 Ngaglik", "koridor": ["14"]}}, {"type": "Feature", "geometry": {"type": "Point", "coordinates": [110.434943, -7.704824]}, "properties": {"nama": "SMA Negeri 2 Ngaglik (Halte 2)", "koridor": ["14"]}}, {"type": "Feature", "geometry": {"type": "Point", "coordinates": [110.441941, -7.714551]}, "properties": {"nama": "Jl. Raya Kabunan 2", "koridor": []}}, {"type": "Feature", "geometry": {"type": "Point", "coordinates": [110.442979, -7.713171]}, "properties": {"nama": "Jl. Raya Kabunan", "koridor": []}}, {"type": "Feature", "geometry": {"type": "Point", "coordinates": [110.447711, -7.713755]}, "properties": {"nama": "RS Kemasan (Halte 2)", "koridor": ["14"]}}, {"type": "Feature", "geometry": {"type": "Point", "coordinates": [110.447874, -7.713546]}, "properties": {"nama": "RS Kemasan", "koridor": ["14"]}}, {"type": "Feature", "geometry": {"type": "Point", "coordinates": [110.438211, -7.718971]}, "properties": {"nama": "Simpang Tajem Kabunan", "koridor": ["14"]}}, {"type": "Feature", "geometry": {"type": "Point", "coordinates": [110.438544, -7.718575]}, "properties": {"nama": "Simpang Kabunan", "koridor": ["14"]}}, {"type": "Feature", "geometry": {"type": "Point", "coordinates": [110.434794, -7.731403]}, "properties": {"nama": "Kantor Desa Wedomartani", "koridor": ["14"]}}, {"type": "Feature", "geometry": {"type": "Point", "coordinates": [110.434874, -7.731262]}, "properties": {"nama": "Kantor Desa Wedomartani (Halte 2)", "koridor": ["14"]}}, {"type": "Feature", "geometry": {"type": "Point", "coordinates": [110.429766, -7.782054]}, "properties": {"nama": "Kantor Kesehatan Pelabuhan Yogyakarta", "koridor": ["14"]}}, {"type": "Feature", "geometry": {"type": "Point", "coordinates": [110.415501, -7.762671]}, "properties": {"nama": "TPB Polsek Depok Timur", "koridor": ["3A"]}}, {"type": "Feature", "geometry": {"type": "Point", "coordinates": [110.389143, -7.815226]}, "properties": {"nama": "TPB Jl. Veteran", "koridor": ["2B"]}}, {"type": "Feature", "geometry": {"type": "Point", "coordinates": [110.38635, -7.815747]}, "properties": {"nama": "TPB S3 PSKY Umbulharjo", "koridor": ["4B"]}}, {"type": "Feature", "geometry": {"type": "Point", "coordinates": [110.401777, -7.818132]}, "properties": {"nama": "TPB Purnomo Mebel", "koridor": ["2B", "3B"]}}, {"type": "Feature", "geometry": {"type": "Point", "coordinates": [110.400211, -7.822797]}, "properties": {"nama": "TPB Pegadaian", "koridor": ["3B"]}}, {"type": "Feature", "geometry": {"type": "Point", "coordinates": [110.399032, -7.822438]}, "properties": {"nama": "TPB SMA 5", "koridor": ["3A"]}}, {"type": "Feature", "geometry": {"type": "Point", "coordinates": [110.378231, -7.803764]}, "properties": {"nama": "TPB Wirogunan Tamsis 1", "koridor": ["4A"]}}, {"type": "Feature", "geometry": {"type": "Point", "coordinates": [110.402392, -7.800361]}, "properties": {"nama": "TPB BKPM", "koridor": ["1B", "3B"]}}, {"type": "Feature", "geometry": {"type": "Point", "coordinates": [110.374182, -7.767782]}, "properties": {"nama": "Halte RS Sardjito (Barat)", "koridor": ["12", "3B", "4A", "5A"]}}, {"type": "Feature", "geometry": {"type": "Point", "coordinates": [110.365684, -7.782826]}, "properties": {"nama": "Halte Pasar Kranggan", "koridor": ["11", "13", "3B", "8", "L1"]}}, {"type": "Feature", "geometry": {"type": "Point", "coordinates": [110.336203, -7.763733]}, "properties": {"nama": "Portabel Nogotirto", "koridor": ["8"]}}, {"type": "Feature", "geometry": {"type": "Point", "coordinates": [110.361349, -7.77229]}, "properties": {"nama": "TPB Karangwaru (Polsek Tegalrejo)", "koridor": ["5A", "9", "L1"]}}, {"type": "Feature", "geometry": {"type": "Point", "coordinates": [110.356101, -7.782373]}, "properties": {"nama": "Halte Badan Kepegawaian DI Yogyakarta", "koridor": ["13", "8"]}}, {"type": "Feature", "geometry": {"type": "Point", "coordinates": [110.366887, -7.778035]}, "properties": {"nama": "TPB SMP N 6 Yogyakarta", "koridor": ["5B"]}}, {"type": "Feature", "geometry": {"type": "Point", "coordinates": [110.369245, -7.76415]}, "properties": {"nama": "TPB Karangjati 2 (AM Sangaji)", "koridor": ["2A"]}}, {"type": "Feature", "geometry": {"type": "Point", "coordinates": [110.393365, -7.802126]}, "properties": {"nama": "Halte Kusumanegara 4", "koridor": ["10", "1B", "2A", "4A"]}}, {"type": "Feature", "geometry": {"type": "Point", "coordinates": [110.374576, -7.764263]}, "properties": {"nama": "TPB Teknik UGM 2", "koridor": ["5A"]}}, {"type": "Feature", "geometry": {"type": "Point", "coordinates": [110.38198, -7.790556]}, "properties": {"nama": "TPB Tarumartani", "koridor": ["10"]}}, {"type": "Feature", "geometry": {"type": "Point", "coordinates": [110.381906, -7.790435]}, "properties": {"nama": "TPB Tarumartani", "koridor": ["10"]}}, {"type": "Feature", "geometry": {"type": "Point", "coordinates": [110.364251, -7.789534]}, "properties": {"nama": "Yogyakarta", "koridor": []}}, {"type": "Feature", "geometry": {"type": "Point", "coordinates": [110.36602, -7.801599]}, "properties": {"nama": "Shuttle Damri Wisata", "koridor": []}}, {"type": "Feature", "geometry": {"type": "Point", "coordinates": [110.365982, -7.801656]}, "properties": {"nama": "DAMRI bus (to and from Borobudur, Prambanan, Baron)", "koridor": []}}, {"type": "Feature", "geometry": {"type": "Point", "coordinates": [110.36231, -7.789373]}, "properties": {"nama": "Yogyakarta", "koridor": []}}, {"type": "Feature", "geometry": {"type": "Point", "coordinates": [110.402345, -7.800354]}, "properties": {"nama": "BKPM", "koridor": ["1B", "3B"]}}, {"type": "Feature", "geometry": {"type": "Point", "coordinates": [110.402187, -7.807283]}, "properties": {"nama": "Halte Gedong Kuning (Banguntapan)", "koridor": ["2B", "3B"]}}, {"type": "Feature", "geometry": {"type": "Point", "coordinates": [110.364684, -7.789214]}, "properties": {"nama": "Yogyakarta", "koridor": []}}, {"type": "Feature", "geometry": {"type": "Point", "coordinates": [110.362211, -7.789011]}, "properties": {"nama": "Yogyakarta", "koridor": []}}, {"type": "Feature", "geometry": {"type": "Point", "coordinates": [110.374117, -7.790238]}, "properties": {"nama": "Lempuyangan", "koridor": []}}, {"type": "Feature", "geometry": {"type": "Point", "coordinates": [110.376466, -7.790116]}, "properties": {"nama": "Lempuyangan", "koridor": []}}, {"type": "Feature", "geometry": {"type": "Point", "coordinates": [110.376463, -7.790054]}, "properties": {"nama": "Lempuyangan", "koridor": []}}, {"type": "Feature", "geometry": {"type": "Point", "coordinates": [110.437066, -7.785142]}, "properties": {"nama": "Maguwo", "koridor": []}}, {"type": "Feature", "geometry": {"type": "Point", "coordinates": [110.43604, -7.785101]}, "properties": {"nama": "Maguwo", "koridor": []}}, {"type": "Feature", "geometry": {"type": "Point", "coordinates": [110.441277, -7.783454]}, "properties": {"nama": "TPB Makam Sorogenen", "koridor": []}}, {"type": "Feature", "geometry": {"type": "Point", "coordinates": [110.382338, -7.783113]}, "properties": {"nama": "Superindo Urip Sumoharjo", "koridor": ["1A", "5B"]}}, {"type": "Feature", "geometry": {"type": "Point", "coordinates": [110.377858, -7.792298]}, "properties": {"nama": "TPB Eks. Bioskop Mataram", "koridor": ["2A"]}}, {"type": "Feature", "geometry": {"type": "Point", "coordinates": [110.377403, -7.790217]}, "properties": {"nama": "Halte Stasiun Lempuyangan", "koridor": ["10", "2B", "4A"]}}, {"type": "Feature", "geometry": {"type": "Point", "coordinates": [110.361773, -7.789708]}, "properties": {"nama": "Stasiun Yogyakarta", "koridor": ["1B", "3B", "8", "L1"]}}, {"type": "Feature", "geometry": {"type": "Point", "coordinates": [110.33677, -7.778204]}, "properties": {"nama": "SDN 1 Demak Ijo", "koridor": ["13", "8"]}}, {"type": "Feature", "geometry": {"type": "Point", "coordinates": [110.336784, -7.778269]}, "properties": {"nama": "SDN 1 Demak Ijo 2", "koridor": ["13", "8"]}}, {"type": "Feature", "geometry": {"type": "Point", "coordinates": [110.339535, -7.778785]}, "properties": {"nama": "Pasar Tlogorejo", "koridor": ["13", "8"]}}, {"type": "Feature", "geometry": {"type": "Point", "coordinates": [110.339341, -7.778833]}, "properties": {"nama": "Pasar Tlogorejo", "koridor": ["13", "8"]}}, {"type": "Feature", "geometry": {"type": "Point", "coordinates": [110.358723, -7.782673]}, "properties": {"nama": "Pasar Pingit (Utara)", "koridor": ["13", "8"]}}, {"type": "Feature", "geometry": {"type": "Point", "coordinates": [110.348978, -7.800843]}, "properties": {"nama": "TPB Museum Bahari 2", "koridor": []}}, {"type": "Feature", "geometry": {"type": "Point", "coordinates": [110.349163, -7.800928]}, "properties": {"nama": "TPB Museum Bahari 1", "koridor": []}}, {"type": "Feature", "geometry": {"type": "Point", "coordinates": [110.351467, -7.802936]}, "properties": {"nama": "TPB SMP Muhammadiyah 3", "koridor": ["10"]}}, {"type": "Feature", "geometry": {"type": "Point", "coordinates": [110.367988, -7.7942]}, "properties": {"nama": "Halte Kepatihan (Jl. Mataram)", "koridor": ["10", "15", "1A", "1B", "6"]}}, {"type": "Feature", "geometry": {"type": "Point", "coordinates": [110.383247, -7.816673]}, "properties": {"nama": "Eks STIE Kerjasama", "koridor": ["2A", "4B"]}}, {"type": "Feature", "geometry": {"type": "Point", "coordinates": [110.375096, -7.782326]}, "properties": {"nama": "Cik Di Tiro", "koridor": ["11", "2B", "3A", "5A"]}}, {"type": "Feature", "geometry": {"type": "Point", "coordinates": [110.366788, -7.777879]}, "properties": {"nama": "TPB Wolter Monginsidi", "koridor": ["2B", "5A"]}}, {"type": "Feature", "geometry": {"type": "Point", "coordinates": [110.375197, -7.7714]}, "properties": {"nama": "TPB Fak. Peternakan UGM", "koridor": ["12", "3A", "4B", "5B"]}}, {"type": "Feature", "geometry": {"type": "Point", "coordinates": [110.375442, -7.771474]}, "properties": {"nama": "TPB Fak. Kedokteran UGM", "koridor": ["12", "3B", "4A", "5A"]}}, {"type": "Feature", "geometry": {"type": "Point", "coordinates": [110.396431, -7.822402]}, "properties": {"nama": "STP Lapangan Karang 2", "koridor": ["3B"]}}, {"type": "Feature", "geometry": {"type": "Point", "coordinates": [110.343991, -7.744827]}, "properties": {"nama": "Portable Dusun Ngawen", "koridor": ["8"]}}, {"type": "Feature", "geometry": {"type": "Point", "coordinates": [110.363244, -7.790068]}, "properties": {"nama": "Abadi Hotel Jogja", "koridor": ["1B"]}}, {"type": "Feature", "geometry": {"type": "Point", "coordinates": [110.352307, -7.799018]}, "properties": {"nama": "Halte SMA 1 Yogyakarta", "koridor": ["11", "9"]}}, {"type": "Feature", "geometry": {"type": "Point", "coordinates": [110.353571, -7.792488]}, "properties": {"nama": "Halte Saudagaran", "koridor": ["11", "9"]}}, {"type": "Feature", "geometry": {"type": "Point", "coordinates": [110.431134, -7.770981]}, "properties": {"nama": "Selokan Mataram Maguwo", "koridor": ["14"]}}, {"type": "Feature", "geometry": {"type": "Point", "coordinates": [110.362175, -7.750808]}, "properties": {"nama": "Halte MMTC Yogya", "koridor": ["5B", "9", "L1"]}}, {"type": "Feature", "geometry": {"type": "Point", "coordinates": [110.415522, -7.699852]}, "properties": {"nama": "Simpang Besi Jangkang", "koridor": ["12", "14"]}}, {"type": "Feature", "geometry": {"type": "Point", "coordinates": [110.415379, -7.700258]}, "properties": {"nama": "Simpang Besi Jangkang 2", "koridor": ["12", "14"]}}, {"type": "Feature", "geometry": {"type": "Point", "coordinates": [110.417155, -7.687474]}, "properties": {"nama": "Boulevard UII", "koridor": ["12", "14"]}}, {"type": "Feature", "geometry": {"type": "Point", "coordinates": [110.419216, -7.684139]}, "properties": {"nama": "Simpang Dogolan 2", "koridor": ["12", "14"]}}, {"type": "Feature", "geometry": {"type": "Point", "coordinates": [110.419112, -7.684052]}, "properties": {"nama": "Simpang Dogolan", "koridor": ["12", "14"]}}, {"type": "Feature", "geometry": {"type": "Point", "coordinates": [110.417317, -7.672569]}, "properties": {"nama": "Dusun Kledokan (Soto Brakot)", "koridor": ["12", "14"]}}, {"type": "Feature", "geometry": {"type": "Point", "coordinates": [110.417393, -7.672699]}, "properties": {"nama": "Dusun Kledokan (Soto Brakot) 2", "koridor": ["12", "14"]}}, {"type": "Feature", "geometry": {"type": "Point", "coordinates": [110.416956, -7.701128]}, "properties": {"nama": "RSU Gramedika", "koridor": ["14"]}}, {"type": "Feature", "geometry": {"type": "Point", "coordinates": [110.416989, -7.701086]}, "properties": {"nama": "RSU Gramedika 2", "koridor": ["14"]}}, {"type": "Feature", "geometry": {"type": "Point", "coordinates": [110.426433, -7.704134]}, "properties": {"nama": "Lapangan Klidon 2", "koridor": ["14"]}}, {"type": "Feature", "geometry": {"type": "Point", "coordinates": [110.426421, -7.704205]}, "properties": {"nama": "Lapangan Klidon", "koridor": ["14"]}}, {"type": "Feature", "geometry": {"type": "Point", "coordinates": [110.431107, -7.704776]}, "properties": {"nama": "SPBU Mindi 2", "koridor": ["14"]}}, {"type": "Feature", "geometry": {"type": "Point", "coordinates": [110.431037, -7.704861]}, "properties": {"nama": "SPBU Mindi", "koridor": ["14"]}}, {"type": "Feature", "geometry": {"type": "Point", "coordinates": [110.433151, -7.704803]}, "properties": {"nama": "Simpang Losari (Cozy)", "koridor": ["14"]}}, {"type": "Feature", "geometry": {"type": "Point", "coordinates": [110.432997, -7.704852]}, "properties": {"nama": "Simpang Losari (Cozy)", "koridor": ["14"]}}, {"type": "Feature", "geometry": {"type": "Point", "coordinates": [110.439427, -7.704991]}, "properties": {"nama": "Timur Jembatan Yapah 2", "koridor": ["14"]}}, {"type": "Feature", "geometry": {"type": "Point", "coordinates": [110.439365, -7.705078]}, "properties": {"nama": "Timur Jembatan Yapah", "koridor": ["14"]}}, {"type": "Feature", "geometry": {"type": "Point", "coordinates": [110.442684, -7.703698]}, "properties": {"nama": "Tugu Batas Desa Yapah 2", "koridor": ["14"]}}, {"type": "Feature", "geometry": {"type": "Point", "coordinates": [110.442111, -7.704126]}, "properties": {"nama": "Tugu Batas Desa Yapah", "koridor": ["14"]}}, {"type": "Feature", "geometry": {"type": "Point", "coordinates": [110.438161, -7.722302]}, "properties": {"nama": "Simpang Selomartani", "koridor": ["14"]}}, {"type": "Feature", "geometry": {"type": "Point", "coordinates": [110.438013, -7.722401]}, "properties": {"nama": "Simpang Selomartani 2", "koridor": ["14"]}}, {"type": "Feature", "geometry": {"type": "Point", "coordinates": [110.435429, -7.723371]}, "properties": {"nama": "Simpang Babadan 2", "koridor": ["14"]}}, {"type": "Feature", "geometry": {"type": "Point", "coordinates": [110.435407, -7.723242]}, "properties": {"nama": "Simpang Babadan", "koridor": ["14"]}}, {"type": "Feature", "geometry": {"type": "Point", "coordinates": [110.434584, -7.735378]}, "properties": {"nama": "Indomaret Pokoh Sambiroto", "koridor": ["14"]}}, {"type": "Feature", "geometry": {"type": "Point", "coordinates": [110.434659, -7.735646]}, "properties": {"nama": "Indomaret Pokoh Sambiroto 2", "koridor": ["14"]}}, {"type": "Feature", "geometry": {"type": "Point", "coordinates": [110.434146, -7.74636]}, "properties": {"nama": "Kampus Unriyo", "koridor": ["14"]}}, {"type": "Feature", "geometry": {"type": "Point", "coordinates": [110.434221, -7.746382]}, "properties": {"nama": "Kampus Unriyo 2", "koridor": ["14"]}}, {"type": "Feature", "geometry": {"type": "Point", "coordinates": [110.432869, -7.760714]}, "properties": {"nama": "SD N 1 Depok", "koridor": ["14"]}}, {"type": "Feature", "geometry": {"type": "Point", "coordinates": [110.432993, -7.760777]}, "properties": {"nama": "Pasar Stan", "koridor": ["14"]}}, {"type": "Feature", "geometry": {"type": "Point", "coordinates": [110.389347, -7.744743]}, "properties": {"nama": "Halte Pasar Colombo 2", "koridor": ["12"]}}, {"type": "Feature", "geometry": {"type": "Point", "coordinates": [110.397457, -7.730584]}, "properties": {"nama": "Halte Simpang Palem Raya", "koridor": ["12"]}}, {"type": "Feature", "geometry": {"type": "Point", "coordinates": [110.406016, -7.715988]}, "properties": {"nama": "Halte SMPN 2 Ngaglik", "koridor": ["12"]}}, {"type": "Feature", "geometry": {"type": "Point", "coordinates": [110.413566, -7.702841]}, "properties": {"nama": "Halte Wedangan Kampoeng 2", "koridor": ["12"]}}, {"type": "Feature", "geometry": {"type": "Point", "coordinates": [110.424975, -7.703818]}, "properties": {"nama": "Kantor Kalurahan Sukoharjo (Halte 2)", "koridor": []}}, {"type": "Feature", "geometry": {"type": "Point", "coordinates": [110.387457, -7.801919]}, "properties": {"nama": "Makam Gajah (Utara)", "koridor": ["1B", "2B"]}}, {"type": "Feature", "geometry": {"type": "Point", "coordinates": [110.366315, -7.790062]}, "properties": {"nama": "Halte Abu Bakar Ali", "koridor": ["1B"]}}, {"type": "Feature", "geometry": {"type": "Point", "coordinates": [110.356976, -7.79259]}, "properties": {"nama": "SDN Gedongtengen", "koridor": ["1B"]}}, {"type": "Feature", "geometry": {"type": "Point", "coordinates": [110.356524, -7.797859]}, "properties": {"nama": "KS Tubun", "koridor": ["1B"]}}, {"type": "Feature", "geometry": {"type": "Point", "coordinates": [110.395212, -7.75968]}, "properties": {"nama": "SPBU Condongcatur", "koridor": ["12", "2B", "4A"]}}, {"type": "Feature", "geometry": {"type": "Point", "coordinates": [110.424016, -7.783273]}, "properties": {"nama": "Kantor Wilayah DJPb", "koridor": ["1A", "1B", "3A", "5B"]}}, {"type": "Feature", "geometry": {"type": "Point", "coordinates": [110.368902, -7.811984]}, "properties": {"nama": "SDN Kintelan", "koridor": ["2A"]}}, {"type": "Feature", "geometry": {"type": "Point", "coordinates": [110.369325, -7.805907]}, "properties": {"nama": "TPB Jogjatronik", "koridor": ["2A"]}}, {"type": "Feature", "geometry": {"type": "Point", "coordinates": [110.393494, -7.763467]}, "properties": {"nama": "Halte Prayan 2", "koridor": ["12", "2A", "4B"]}}, {"type": "Feature", "geometry": {"type": "Point", "coordinates": [110.393675, -7.763548]}, "properties": {"nama": "Halte Prayan 1", "koridor": ["12", "2B", "4A"]}}, {"type": "Feature", "geometry": {"type": "Point", "coordinates": [110.378757, -7.786001]}, "properties": {"nama": "UKDW", "koridor": ["2A", "4A"]}}, {"type": "Feature", "geometry": {"type": "Point", "coordinates": [110.384281, -7.801183]}, "properties": {"nama": "KPPN (Jl. Cendana)", "koridor": ["2A"]}}, {"type": "Feature", "geometry": {"type": "Point", "coordinates": [110.392296, -7.818253]}, "properties": {"nama": "Jl. Perintis Kemerdekaan", "koridor": ["2A"]}}, {"type": "Feature", "geometry": {"type": "Point", "coordinates": [110.391882, -7.818323]}, "properties": {"nama": "Jl. Perintis Kemerdekaan", "koridor": ["2B"]}}, {"type": "Feature", "geometry": {"type": "Point", "coordinates": [110.351572, -7.801774]}, "properties": {"nama": "TPB Wirobrajan 1", "koridor": ["10"]}}, {"type": "Feature", "geometry": {"type": "Point", "coordinates": [110.374635, -7.784498]}, "properties": {"nama": "TPB Suroto 1", "koridor": ["5B"]}}, {"type": "Feature", "geometry": {"type": "Point", "coordinates": [110.370082, -7.789254]}, "properties": {"nama": "TPB Abu Bakar Ali", "koridor": ["10", "1A", "2A", "8", "L1"]}}, {"type": "Feature", "geometry": {"type": "Point", "coordinates": [110.370111, -7.789376]}, "properties": {"nama": "Gereja Kota Baru", "koridor": ["13", "1A", "2A", "3A", "8", "L1"]}}, {"type": "Feature", "geometry": {"type": "Point", "coordinates": [110.374728, -7.784968]}, "properties": {"nama": "Halte Bulog", "koridor": ["11", "13", "2B", "3A", "4B", "5A", "5B"]}}, {"type": "Feature", "geometry": {"type": "Point", "coordinates": [110.372548, -7.782113]}, "properties": {"nama": "Halte PDIN C Simanjuntak", "koridor": ["4B"]}}, {"type": "Feature", "geometry": {"type": "Point", "coordinates": [110.353207, -7.801018]}, "properties": {"nama": "TPB RE Martadinata", "koridor": ["11", "9"]}}, {"type": "Feature", "geometry": {"type": "Point", "coordinates": [110.456166, -7.778657]}, "properties": {"nama": "Cupuwatu", "koridor": ["1A"]}}, {"type": "Feature", "geometry": {"type": "Point", "coordinates": [110.455969, -7.778556]}, "properties": {"nama": "BPD Kalasan", "koridor": ["1A"]}}, {"type": "Feature", "geometry": {"type": "Point", "coordinates": [110.384631, -7.75598]}, "properties": {"nama": "Halte Ring Road Utara (Kentungan)", "koridor": ["2B", "3B", "4A", "5B"]}}, {"type": "Feature", "geometry": {"type": "Point", "coordinates": [110.386135, -7.783079]}, "properties": {"nama": "LPP", "koridor": ["1A", "5B"]}}, {"type": "Feature", "geometry": {"type": "Point", "coordinates": [110.360963, -7.780322]}, "properties": {"nama": "Hotel Utara (Timur)", "koridor": ["L1"]}}, {"type": "Feature", "geometry": {"type": "Point", "coordinates": [110.36213, -7.756298]}, "properties": {"nama": "Atakrib Jl. Magelang", "koridor": ["5A", "9", "L1"]}}, {"type": "Feature", "geometry": {"type": "Point", "coordinates": [110.361946, -7.756266]}, "properties": {"nama": "Daytrans Jl. Magelang", "koridor": ["5B", "9", "L1"]}}, {"type": "Feature", "geometry": {"type": "Point", "coordinates": [110.362369, -7.751086]}, "properties": {"nama": "Indogrosir", "koridor": ["5A", "9", "L1"]}}, {"type": "Feature", "geometry": {"type": "Point", "coordinates": [110.399481, -7.758239]}, "properties": {"nama": "Pakuwon Mall Jogja", "koridor": []}}, {"type": "Feature", "geometry": {"type": "Point", "coordinates": [110.399331, -7.758007]}, "properties": {"nama": "Pakuwon Mall 2", "koridor": []}}, {"type": "Feature", "geometry": {"type": "Point", "coordinates": [110.3612, -7.771701]}, "properties": {"nama": "Karangwaru (Barat)", "koridor": ["5B", "9", "L1"]}}, {"type": "Feature", "geometry": {"type": "Point", "coordinates": [110.368422, -7.770556]}, "properties": {"nama": "Batas Kota Jl. Monjali (Barat)", "koridor": ["2B"]}}, {"type": "Feature", "geometry": {"type": "Point", "coordinates": [110.368543, -7.770507]}, "properties": {"nama": "Batas Kota Jl. Monjali (Timur)", "koridor": ["2A"]}}, {"type": "Feature", "geometry": {"type": "Point", "coordinates": [110.369393, -7.760159]}, "properties": {"nama": "SPBU Monjali (Barat)", "koridor": ["2B", "5A"]}}, {"type": "Feature", "geometry": {"type": "Point", "coordinates": [110.369529, -7.760113]}, "properties": {"nama": "SPBU Monjali (Timur)", "koridor": ["2A", "5B"]}}, {"type": "Feature", "geometry": {"type": "Point", "coordinates": [110.372511, -7.775785]}, "properties": {"nama": "Fisipol UGM (Barat)", "koridor": ["5A"]}}, {"type": "Feature", "geometry": {"type": "Point", "coordinates": [110.372585, -7.775831]}, "properties": {"nama": "Fisipol UGM (Timur)", "koridor": ["5B"]}}, {"type": "Feature", "geometry": {"type": "Point", "coordinates": [110.381961, -7.757581]}, "properties": {"nama": "Hokben Jakal (Barat)", "koridor": ["12", "3B", "4A", "5B"]}}, {"type": "Feature", "geometry": {"type": "Point", "coordinates": [110.38191, -7.757903]}, "properties": {"nama": "Hokben Jakal (Timur)", "koridor": ["12", "3A", "4B", "5A"]}}, {"type": "Feature", "geometry": {"type": "Point", "coordinates": [110.410278, -7.791815]}, "properties": {"nama": "Pasar Angkasa (Timur)", "koridor": []}}, {"type": "Feature", "geometry": {"type": "Point", "coordinates": [110.415109, -7.777333]}, "properties": {"nama": "TPB Tambak Bayan 1", "koridor": ["1B", "5A"]}}, {"type": "Feature", "geometry": {"type": "Point", "coordinates": [110.414678, -7.78323]}, "properties": {"nama": "TPB Manna Kampus", "koridor": ["1A", "1B", "3A", "5B"]}}, {"type": "Feature", "geometry": {"type": "Point", "coordinates": [110.388661, -7.783018]}, "properties": {"nama": "TPB Demangan", "koridor": ["1A", "4A", "5A"]}}, {"type": "Feature", "geometry": {"type": "Point", "coordinates": [110.359057, -7.78288]}, "properties": {"nama": "Pasar Pingit (Selatan)", "koridor": ["8"]}}, {"type": "Feature", "geometry": {"type": "Point", "coordinates": [110.392711, -7.783162]}, "properties": {"nama": "Gedung Wanita", "koridor": []}}, {"type": "Feature", "geometry": {"type": "Point", "coordinates": [110.355854, -7.782475]}, "properties": {"nama": "BKD (Selatan)", "koridor": ["8"]}}, {"type": "Feature", "geometry": {"type": "Point", "coordinates": [110.36979, -7.755652]}, "properties": {"nama": "PDAM Monjali (Barat)", "koridor": ["2B", "5A"]}}, {"type": "Feature", "geometry": {"type": "Point", "coordinates": [110.388393, -7.805381]}, "properties": {"nama": "UTY Glagahsari (Barat)", "koridor": ["4B"]}}, {"type": "Feature", "geometry": {"type": "Point", "coordinates": [110.392847, -7.795257]}, "properties": {"nama": "Timoho (Timur)", "koridor": ["10", "4A"]}}, {"type": "Feature", "geometry": {"type": "Point", "coordinates": [110.392545, -7.79682]}, "properties": {"nama": "Timoho (Barat)", "koridor": ["10", "4B"]}}, {"type": "Feature", "geometry": {"type": "Point", "coordinates": [110.376753, -7.801749]}, "properties": {"nama": "Pasar Sentul (Selatan)", "koridor": ["1B", "4A"]}}, {"type": "Feature", "geometry": {"type": "Point", "coordinates": [110.369314, -7.798009]}, "properties": {"nama": "Progo", "koridor": ["10", "15", "1A", "1B", "6"]}}, {"type": "Feature", "geometry": {"type": "Point", "coordinates": [110.373933, -7.777159]}, "properties": {"nama": "MAN 1 Yogyakarta", "koridor": ["4B"]}}, {"type": "Feature", "geometry": {"type": "Point", "coordinates": [110.374986, -7.77454]}, "properties": {"nama": "Vokasi UGM", "koridor": []}}, {"type": "Feature", "geometry": {"type": "Point", "coordinates": [110.375078, -7.774319]}, "properties": {"nama": "GIK UGM", "koridor": []}}, {"type": "Feature", "geometry": {"type": "Point", "coordinates": [110.377169, -7.769663]}, "properties": {"nama": "Halte GSP", "koridor": ["1", "2", "3"]}}, {"type": "Feature", "geometry": {"type": "Point", "coordinates": [110.377642, -7.772192]}, "properties": {"nama": "Halte University Club", "koridor": ["1"]}}, {"type": "Feature", "geometry": {"type": "Point", "coordinates": [110.378958, -7.769066]}, "properties": {"nama": "Halte Perpustakaan", "koridor": ["1"]}}, {"type": "Feature", "geometry": {"type": "Point", "coordinates": [110.380527, -7.767747]}, "properties": {"nama": "Halte F. Kehutanan", "koridor": ["1"]}}, {"type": "Feature", "geometry": {"type": "Point", "coordinates": [110.381049, -7.769437]}, "properties": {"nama": "Halte F. Pertanian", "koridor": ["1"]}}, {"type": "Feature", "geometry": {"type": "Point", "coordinates": [110.381554, -7.770319]}, "properties": {"nama": "Halte Wisdom Park", "koridor": ["1"]}}, {"type": "Feature", "geometry": {"type": "Point", "coordinates": [110.379507, -7.771445]}, "properties": {"nama": "Halte F. Ilmu Budaya", "koridor": ["1"]}}, {"type": "Feature", "geometry": {"type": "Point", "coordinates": [110.385132, -7.768136]}, "properties": {"nama": "Halte F. Peternakan", "koridor": ["1"]}}, {"type": "Feature", "geometry": {"type": "Point", "coordinates": [110.375751, -7.770321]}, "properties": {"nama": "Halte Jalan Medika", "koridor": ["2", "3"]}}, {"type": "Feature", "geometry": {"type": "Point", "coordinates": [110.376051, -7.767705]}, "properties": {"nama": "Halte F. MIPA", "koridor": ["2"]}}, {"type": "Feature", "geometry": {"type": "Point", "coordinates": [110.376019, -7.765424]}, "properties": {"nama": "Halte Bus F. Biologi", "koridor": ["2"]}}, {"type": "Feature", "geometry": {"type": "Point", "coordinates": [110.374079, -7.772331]}, "properties": {"nama": "Halte Jalan Kemuning", "koridor": ["3"]}}, {"type": "Feature", "geometry": {"type": "Point", "coordinates": [110.372803, -7.773508]}, "properties": {"nama": "Halte TILC", "koridor": ["3"]}}, {"type": "Feature", "geometry": {"type": "Point", "coordinates": [110.373076, -7.771592]}, "properties": {"nama": "Halte Fasilitas Kerohanian", "koridor": ["3"]}}, {"type": "Feature", "geometry": {"type": "Point", "coordinates": [110.373993, -7.766232]}, "properties": {"nama": "Halte F. Teknik", "koridor": ["2"]}}, {"type": "Feature", "geometry": {"type": "Point", "coordinates": [110.388439, -7.779544]}, "properties": {"nama": "TPB Pasar Demangan", "koridor": ["4A"]}}, {"type": "Feature", "geometry": {"type": "Point", "coordinates": [110.388272, -7.779525]}, "properties": {"nama": "TPB RRI Gejayan", "koridor": ["4B"]}}, {"type": "Feature", "geometry": {"type": "Point", "coordinates": [110.378097, -7.790803]}, "properties": {"nama": "Flyover Lempuyangan", "koridor": ["10", "2B"]}}, {"type": "Feature", "geometry": {"type": "Point", "coordinates": [110.433823, -7.755503]}, "properties": {"nama": "KUA Depok", "koridor": []}}, {"type": "Feature", "geometry": {"type": "Point", "coordinates": [110.390608, -7.769495]}, "properties": {"nama": "Ombudsman", "koridor": ["12", "2A", "4B"]}}, {"type": "Feature", "geometry": {"type": "Point", "coordinates": [110.390676, -7.769706]}, "properties": {"nama": "Makam Santren", "koridor": ["12", "2B", "4A"]}}, {"type": "Feature", "geometry": {"type": "Point", "coordinates": [110.373437, -7.792413]}, "properties": {"nama": "TPB Pasar Lempuyangan", "koridor": ["4A"]}}, {"type": "Feature", "geometry": {"type": "Point", "coordinates": [110.385093, -7.816948]}, "properties": {"nama": "Polsek Umbulharjo", "koridor": ["4A", "4B"]}}, {"type": "Feature", "geometry": {"type": "Point", "coordinates": [110.435711, -7.78452]}, "properties": {"nama": "Halte Bandara Adisutjipto", "koridor": []}}, {"type": "Feature", "geometry": {"type": "Point", "coordinates": [110.363511, -7.789035]}, "properties": {"nama": "Halte tanpa nama", "koridor": []}}, {"type": "Feature", "geometry": {"type": "Point", "coordinates": [110.363331, -7.789075]}, "properties": {"nama": "Halte tanpa nama", "koridor": []}}, {"type": "Feature", "geometry": {"type": "Point", "coordinates": [110.363517, -7.789137]}, "properties": {"nama": "Halte tanpa nama", "koridor": []}}, {"type": "Feature", "geometry": {"type": "Point", "coordinates": [110.363373, -7.78938]}, "properties": {"nama": "Halte tanpa nama", "koridor": []}}, {"type": "Feature", "geometry": {"type": "Point", "coordinates": [110.363274, -7.789426]}, "properties": {"nama": "Halte tanpa nama", "koridor": []}}, {"type": "Feature", "geometry": {"type": "Point", "coordinates": [110.363271, -7.789476]}, "properties": {"nama": "Halte tanpa nama", "koridor": []}}, {"type": "Feature", "geometry": {"type": "Point", "coordinates": [110.363268, -7.789533]}, "properties": {"nama": "Halte tanpa nama", "koridor": []}}, {"type": "Feature", "geometry": {"type": "Point", "coordinates": [110.374856, -7.790015]}, "properties": {"nama": "Halte tanpa nama", "koridor": []}}, {"type": "Feature", "geometry": {"type": "Point", "coordinates": [110.374982, -7.79005]}, "properties": {"nama": "Halte tanpa nama", "koridor": []}}, {"type": "Feature", "geometry": {"type": "Point", "coordinates": [110.375283, -7.790125]}, "properties": {"nama": "Halte tanpa nama", "koridor": []}}, {"type": "Feature", "geometry": {"type": "Point", "coordinates": [110.37529, -7.790177]}, "properties": {"nama": "Halte tanpa nama", "koridor": []}}, {"type": "Feature", "geometry": {"type": "Point", "coordinates": [110.375302, -7.790241]}, "properties": {"nama": "Halte tanpa nama", "koridor": []}}, {"type": "Feature", "geometry": {"type": "Point", "coordinates": [110.431024, -7.785477]}, "properties": {"nama": "Halte tanpa nama", "koridor": []}}, {"type": "Feature", "geometry": {"type": "Point", "coordinates": [110.436775, -7.785188]}, "properties": {"nama": "Halte tanpa nama", "koridor": []}}, {"type": "Feature", "geometry": {"type": "Point", "coordinates": [110.436766, -7.785008]}, "properties": {"nama": "Halte tanpa nama", "koridor": []}}, {"type": "Feature", "geometry": {"type": "Point", "coordinates": [110.411673, -7.783196]}, "properties": {"nama": "Janti Utara", "koridor": []}}, {"type": "Feature", "geometry": {"type": "Point", "coordinates": [110.402436, -7.783147]}, "properties": {"nama": "Halte Ambarrukmo Plaza 2", "koridor": []}}, {"type": "Feature", "geometry": {"type": "Point", "coordinates": [110.401772, -7.783346]}, "properties": {"nama": "Halte Ambarrukmo Plaza 1", "koridor": []}}, {"type": "Feature", "geometry": {"type": "Point", "coordinates": [110.431022, -7.783355]}, "properties": {"nama": "Halte Maguwo Sambilegi", "koridor": []}}, {"type": "Feature", "geometry": {"type": "Point", "coordinates": [110.420183, -7.783221]}, "properties": {"nama": "Halte Transmart", "koridor": []}}, {"type": "Feature", "geometry": {"type": "Point", "coordinates": [110.419384, -7.783427]}, "properties": {"nama": "Halte Jayakarta", "koridor": []}}, {"type": "Feature", "geometry": {"type": "Point", "coordinates": [110.414667, -7.779566]}, "properties": {"nama": "Halte Sahid J-Walk", "koridor": []}}, {"type": "Feature", "geometry": {"type": "Point", "coordinates": [110.448777, -7.782491]}, "properties": {"nama": "Halte KR 2", "koridor": []}}, {"type": "Feature", "geometry": {"type": "Point", "coordinates": [110.450551, -7.781763]}, "properties": {"nama": "Halte KR 1", "koridor": []}}, {"type": "Feature", "geometry": {"type": "Point", "coordinates": [110.386145, -7.783152]}, "properties": {"nama": "Halte LPP", "koridor": []}}, {"type": "Feature", "geometry": {"type": "Point", "coordinates": [110.39948, -7.758287]}, "properties": {"nama": "Halte Pakuwon Mall Jogja", "koridor": []}}, {"type": "Feature", "geometry": {"type": "Point", "coordinates": [110.402919, -7.79853]}, "properties": {"nama": "Halte JEC", "koridor": []}}, {"type": "Feature", "geometry": {"type": "Point", "coordinates": [110.406379, -7.79867]}, "properties": {"nama": "Halte Wonocatur", "koridor": []}}, {"type": "Feature", "geometry": {"type": "Point", "coordinates": [110.402392, -7.800357]}, "properties": {"nama": "TPB BKPM", "koridor": []}}, {"type": "Feature", "geometry": {"type": "Point", "coordinates": [110.399973, -7.802206]}, "properties": {"nama": "Halte Gedung Juang 45", "koridor": []}}, {"type": "Feature", "geometry": {"type": "Point", "coordinates": [110.398778, -7.802291]}, "properties": {"nama": "Halte Gembira Loka", "koridor": []}}, {"type": "Feature", "geometry": {"type": "Point", "coordinates": [110.377991, -7.783071]}, "properties": {"nama": "Halte Bethesda", "koridor": []}}, {"type": "Feature", "geometry": {"type": "Point", "coordinates": [110.375131, -7.782339]}, "properties": {"nama": "Halte Cik Di Tiro", "koridor": []}}, {"type": "Feature", "geometry": {"type": "Point", "coordinates": [110.37517, -7.781193]}, "properties": {"nama": "Halte RS dr. Yap", "koridor": []}}, {"type": "Feature", "geometry": {"type": "Point", "coordinates": [110.369547, -7.783036]}, "properties": {"nama": "Halte Jl. Jend. Sudirman (S)", "koridor": []}}, {"type": "Feature", "geometry": {"type": "Point", "coordinates": [110.368833, -7.782849]}, "properties": {"nama": "Halte Jl. Jend. Sudirman (U)", "koridor": []}}, {"type": "Feature", "geometry": {"type": "Point", "coordinates": [110.362552, -7.782924]}, "properties": {"nama": "Halte Diponegoro", "koridor": []}}, {"type": "Feature", "geometry": {"type": "Point", "coordinates": [110.392705, -7.783225]}, "properties": {"nama": "Halte Gedung Wanita", "koridor": []}}, {"type": "Feature", "geometry": {"type": "Point", "coordinates": [110.393907, -7.783049]}, "properties": {"nama": "Halte De Britto", "koridor": []}}, {"type": "Feature", "geometry": {"type": "Point", "coordinates": [110.366891, -7.784745]}, "properties": {"nama": "Halte Mangkubumi 1", "koridor": []}}, {"type": "Feature", "geometry": {"type": "Point", "coordinates": [110.366527, -7.787655]}, "properties": {"nama": "Halte Mangkubumi 2", "koridor": []}}, {"type": "Feature", "geometry": {"type": "Point", "coordinates": [110.374941, -7.774499]}, "properties": {"nama": "Halte Vokasi UGM", "koridor": []}}, {"type": "Feature", "geometry": {"type": "Point", "coordinates": [110.37515, -7.774324]}, "properties": {"nama": "Halte GIK UGM", "koridor": []}}, {"type": "Feature", "geometry": {"type": "Point", "coordinates": [110.378208, -7.776235]}, "properties": {"nama": "Halte Panti Rapih", "koridor": []}}, {"type": "Feature", "geometry": {"type": "Point", "coordinates": [110.378628, -7.776145]}, "properties": {"nama": "Halte Kosudgama", "koridor": []}}, {"type": "Feature", "geometry": {"type": "Point", "coordinates": [110.366123, -7.79083]}, "properties": {"nama": "Halte Malioboro 1", "koridor": []}}, {"type": "Feature", "geometry": {"type": "Point", "coordinates": [110.365579, -7.795225]}, "properties": {"nama": "Halte Malioboro 2", "koridor": []}}, {"type": "Feature", "geometry": {"type": "Point", "coordinates": [110.381984, -7.790554]}, "properties": {"nama": "Halte tanpa nama", "koridor": []}}, {"type": "Feature", "geometry": {"type": "Point", "coordinates": [110.356233, -7.80307]}, "properties": {"nama": "Halte tanpa nama", "koridor": []}}, {"type": "Feature", "geometry": {"type": "Point", "coordinates": [110.431124, -7.766524]}, "properties": {"nama": "Halte tanpa nama", "koridor": ["3B"]}}, {"type": "Feature", "geometry": {"type": "Point", "coordinates": [110.371477, -7.784615]}, "properties": {"nama": "Halte tanpa nama", "koridor": ["3A"]}}, {"type": "Feature", "geometry": {"type": "Point", "coordinates": [110.367352, -7.780356]}, "properties": {"nama": "Halte tanpa nama", "koridor": ["2A"]}}]}