{"type": "FeatureCollection", "name": "kampus_gerbang", "features": [{"type": "Feature", "geometry": {"type": "Point", "coordinates": [110.3765414, -7.7631926]}, "properties": {"kampus": "UGM", "jalan": "Gang Kinanti", "jarak_jalan_m": 6.0, "osm_node": 1390691962, "label": "Gerbang UGM - Gang Kinanti 1"}}, {"type": "Feature", "geometry": {"type": "Point", "coordinates": [110.3793871, -7.7759933]}, "properties": {"kampus": "UGM", "jalan": "Jalan Colombo", "jarak_jalan_m": 30.0, "osm_node": 3874351512, "label": "Gerbang UGM - Jalan Colombo 1"}}, {"type": "Feature", "geometry": {"type": "Point", "coordinates": [110.381328, -7.7667803]}, "properties": {"kampus": "UGM", "jalan": "Jalan Agro", "jarak_jalan_m": 12.0, "osm_node": 5922737653, "label": "Gerbang UGM - Jalan Agro 1"}}, {"type": "Feature", "geometry": {"type": "Point", "coordinates": [110.3772121, -7.7760386]}, "properties": {"kampus": "UGM", "jalan": "Jalan Bungur", "jarak_jalan_m": 0.0, "osm_node": 6934603111, "label": "Gerbang UGM - Jalan Bungur"}}, {"type": "Feature", "geometry": {"type": "Point", "coordinates": [110.377749, -7.7633609]}, "properties": {"kampus": "UGM", "jalan": "Gang Kinanti", "jarak_jalan_m": 4.6, "osm_node": 8695578597, "label": "Gerbang UGM - Gang Kinanti 2"}}, {"type": "Feature", "geometry": {"type": "Point", "coordinates": [110.3745165, -7.767354]}, "properties": {"kampus": "UGM", "jalan": "Jalan Kesehatan", "jarak_jalan_m": 10.1, "osm_node": 8837559088, "label": "Gerbang UGM - Jalan Kesehatan 1"}}, {"type": "Feature", "geometry": {"type": "Point", "coordinates": [110.3744855, -7.7674485]}, "properties": {"kampus": "UGM", "jalan": "Jalan Kesehatan", "jarak_jalan_m": 10.6, "osm_node": 8837559091, "label": "Gerbang UGM - Jalan Kesehatan 2"}}, {"type": "Feature", "geometry": {"type": "Point", "coordinates": [110.3881333, -7.7664848]}, "properties": {"kampus": "UGM", "jalan": "Jalan Gambir", "jarak_jalan_m": 6.8, "osm_node": 9157861768, "label": "Gerbang UGM - Jalan Gambir 1"}}, {"type": "Feature", "geometry": {"type": "Point", "coordinates": [110.3790437, -7.7645653]}, "properties": {"kampus": "UGM", "jalan": "Jalan Kaliurang", "jarak_jalan_m": 3.9, "osm_node": 9192188634, "label": "Gerbang UGM - Jalan Kaliurang"}}, {"type": "Feature", "geometry": {"type": "Point", "coordinates": [110.3877128, -7.7676611]}, "properties": {"kampus": "UGM", "jalan": "Jalan Gambir", "jarak_jalan_m": 8.1, "osm_node": 10247270045, "label": "Gerbang UGM - Jalan Gambir 2"}}, {"type": "Feature", "geometry": {"type": "Point", "coordinates": [110.3805681, -7.7766934]}, "properties": {"kampus": "UGM", "jalan": "Jalan Colombo", "jarak_jalan_m": 4.2, "osm_node": 10276680279, "label": "Gerbang UGM - Jalan Colombo 2"}}, {"type": "Feature", "geometry": {"type": "Point", "coordinates": [110.3779842, -7.7762534]}, "properties": {"kampus": "UGM", "jalan": "Jalan Colombo", "jarak_jalan_m": 8.8, "osm_node": 10276680280, "label": "Gerbang UGM - Jalan Colombo 3"}}, {"type": "Feature", "geometry": {"type": "Point", "coordinates": [110.3770506, -7.776201]}, "properties": {"kampus": "UGM", "jalan": "Jalan Colombo", "jarak_jalan_m": 7.5, "osm_node": 10276680281, "label": "Gerbang UGM - Jalan Colombo 4"}}, {"type": "Feature", "geometry": {"type": "Point", "coordinates": [110.3737137, -7.7696416]}, "properties": {"kampus": "UGM", "jalan": "Jalan Medika", "jarak_jalan_m": 0.0, "osm_node": 10307191728, "label": "Gerbang UGM - Jalan Medika"}}, {"type": "Feature", "geometry": {"type": "Point", "coordinates": [110.3746363, -7.7639429]}, "properties": {"kampus": "UGM", "jalan": "Jalan Pogung Kidul", "jarak_jalan_m": 0.0, "osm_node": 10307191729, "label": "Gerbang UGM - Jalan Pogung Kidul 1"}}, {"type": "Feature", "geometry": {"type": "Point", "coordinates": [110.3879771, -7.7672224]}, "properties": {"kampus": "UGM", "jalan": "Jalan Gambir", "jarak_jalan_m": 4.8, "osm_node": 10307252509, "label": "Gerbang UGM - Jalan Gambir 3"}}, {"type": "Feature", "geometry": {"type": "Point", "coordinates": [110.3734995, -7.7701604]}, "properties": {"kampus": "UGM", "jalan": "Jalan Kesehatan", "jarak_jalan_m": 9.2, "osm_node": 10307270222, "label": "Gerbang UGM - Jalan Kesehatan 3"}}, {"type": "Feature", "geometry": {"type": "Point", "coordinates": [110.3722617, -7.7630814]}, "properties": {"kampus": "UGM", "jalan": "Jalan Pogung Kidul", "jarak_jalan_m": 7.1, "osm_node": 10307427439, "label": "Gerbang UGM - Jalan Pogung Kidul 2"}}, {"type": "Feature", "geometry": {"type": "Point", "coordinates": [110.3775442, -7.7762317]}, "properties": {"kampus": "UGM", "jalan": "Jalan Colombo", "jarak_jalan_m": 9.4, "osm_node": 10309023291, "label": "Gerbang UGM - Jalan Colombo 5"}}, {"type": "Feature", "geometry": {"type": "Point", "coordinates": [110.3865886, -7.7659802]}, "properties": {"kampus": "UGM", "jalan": "Jalan Manggis", "jarak_jalan_m": 3.7, "osm_node": 11031479457, "label": "Gerbang UGM - Jalan Manggis"}}, {"type": "Feature", "geometry": {"type": "Point", "coordinates": [110.3853661, -7.7673477]}, "properties": {"kampus": "UGM", "jalan": "Jalan Agro", "jarak_jalan_m": 0.4, "osm_node": 11258996986, "label": "Gerbang UGM - Jalan Agro 2"}}, {"type": "Feature", "geometry": {"type": "Point", "coordinates": [110.3816285, -7.7761926]}, "properties": {"kampus": "UGM", "jalan": "Jalan Wukirretawu", "jarak_jalan_m": 5.4, "osm_node": 12317733863, "label": "Gerbang UGM - Jalan Wukirretawu 1"}}, {"type": "Feature", "geometry": {"type": "Point", "coordinates": [110.3731152, -7.7711606]}, "properties": {"kampus": "UGM", "jalan": "Jalan Podocarpus I", "jarak_jalan_m": 7.0, "osm_node": 12330528628, "label": "Gerbang UGM - Jalan Podocarpus I 1"}}, {"type": "Feature", "geometry": {"type": "Point", "coordinates": [110.3727939, -7.7719712]}, "properties": {"kampus": "UGM", "jalan": "Jalan Podocarpus I", "jarak_jalan_m": 8.9, "osm_node": 12330536950, "label": "Gerbang UGM - Jalan Podocarpus I 2"}}, {"type": "Feature", "geometry": {"type": "Point", "coordinates": [110.3819608, -7.7752494]}, "properties": {"kampus": "UGM", "jalan": "Jalan Wukirretawu", "jarak_jalan_m": 4.8, "osm_node": 12335959201, "label": "Gerbang UGM - Jalan Wukirretawu 2"}}, {"type": "Feature", "geometry": {"type": "Point", "coordinates": [110.3794445, -7.7760602]}, "properties": {"kampus": "UGM", "jalan": "Jalan Colombo", "jarak_jalan_m": 23.8, "osm_node": 12919208395, "label": "Gerbang UGM - Jalan Colombo 6"}}, {"type": "Feature", "geometry": {"type": "Point", "coordinates": [110.3745533, -7.7757928]}, "properties": {"kampus": "UGM", "jalan": "Jalan Persatuan", "jarak_jalan_m": 5.8, "osm_node": 13398137527, "label": "Gerbang UGM - Jalan Persatuan 1"}}, {"type": "Feature", "geometry": {"type": "Point", "coordinates": [110.3775839, -7.7762334]}, "properties": {"kampus": "UGM", "jalan": "Jalan Colombo", "jarak_jalan_m": 9.4, "osm_node": 13398204992, "label": "Gerbang UGM - Jalan Colombo 7"}}, {"type": "Feature", "geometry": {"type": "Point", "coordinates": [110.3768387, -7.7762024]}, "properties": {"kampus": "UGM", "jalan": "Jalan Colombo", "jarak_jalan_m": 8.3, "osm_node": 13398264710, "label": "Gerbang UGM - Jalan Colombo 8"}}, {"type": "Feature", "geometry": {"type": "Point", "coordinates": [110.3743014, -7.7755184]}, "properties": {"kampus": "UGM", "jalan": "Jalan Persatuan", "jarak_jalan_m": 26.9, "osm_node": 13398895793, "label": "Gerbang UGM - Jalan Persatuan 2"}}, {"type": "Feature", "geometry": {"type": "Point", "coordinates": [110.3748587, -7.7746543]}, "properties": {"kampus": "UGM", "jalan": "Jalan Persatuan", "jarak_jalan_m": 8.1, "osm_node": 13403987173, "label": "Gerbang UGM - Jalan Persatuan 3"}}, {"type": "Feature", "geometry": {"type": "Point", "coordinates": [110.3749273, -7.7745305]}, "properties": {"kampus": "UGM", "jalan": "Jalan Persatuan", "jarak_jalan_m": 6.4, "osm_node": 13403987174, "label": "Gerbang UGM - Jalan Persatuan 4"}}, {"type": "Feature", "geometry": {"type": "Point", "coordinates": [110.3748397, -7.774701]}, "properties": {"kampus": "UGM", "jalan": "Jalan Persatuan", "jarak_jalan_m": 8.1, "osm_node": 13403987185, "label": "Gerbang UGM - Jalan Persatuan 5"}}, {"type": "Feature", "geometry": {"type": "Point", "coordinates": [110.3749534, -7.7744662]}, "properties": {"kampus": "UGM", "jalan": "Jalan Persatuan", "jarak_jalan_m": 6.4, "osm_node": 13403987186, "label": "Gerbang UGM - Jalan Persatuan 6"}}, {"type": "Feature", "geometry": {"type": "Point", "coordinates": [110.3746211, -7.7752319]}, "properties": {"kampus": "UGM", "jalan": "Jalan Persatuan", "jarak_jalan_m": 7.9, "osm_node": 13403987200, "label": "Gerbang UGM - Jalan Persatuan 7"}}, {"type": "Feature", "geometry": {"type": "Point", "coordinates": [110.3746391, -7.7751854]}, "properties": {"kampus": "UGM", "jalan": "Jalan Persatuan", "jarak_jalan_m": 8.0, "osm_node": 13404003003, "label": "Gerbang UGM - Jalan Persatuan 8"}}, {"type": "Feature", "geometry": {"type": "Point", "coordinates": [110.3727151, -7.775197]}, "properties": {"kampus": "UGM", "jalan": "Jalan Yacaranda", "jarak_jalan_m": 7.2, "osm_node": 13404182292, "label": "Gerbang UGM - Jalan Yacaranda"}}, {"type": "Feature", "geometry": {"type": "Point", "coordinates": [110.3720659, -7.7738045]}, "properties": {"kampus": "UGM", "jalan": "Jalan Blimbingsari", "jarak_jalan_m": 11.7, "osm_node": 13413579094, "label": "Gerbang UGM - Jalan Blimbingsari"}}, {"type": "Feature", "geometry": {"type": "Point", "coordinates": [110.3738398, -7.7686214]}, "properties": {"kampus": "UGM", "jalan": null, "jarak_jalan_m": null, "osm_node": 13415353263, "label": "Gerbang UGM"}}, {"type": "Feature", "geometry": {"type": "Point", "coordinates": [110.3743984, -7.7679381]}, "properties": {"kampus": "UGM", "jalan": "Jalan Kesehatan", "jarak_jalan_m": 38.3, "osm_node": 13415353266, "label": "Gerbang UGM - Jalan Kesehatan 4"}}, {"type": "Feature", "geometry": {"type": "Point", "coordinates": [110.3737729, -7.7687869]}, "properties": {"kampus": "UGM", "jalan": "Jalan Kesehatan", "jarak_jalan_m": 55.5, "osm_node": 13418514785, "label": "Gerbang UGM - Jalan Kesehatan 5"}}, {"type": "Feature", "geometry": {"type": "Point", "coordinates": [110.3743743, -7.764133]}, "properties": {"kampus": "UGM", "jalan": "Jalan Pogung Kidul", "jarak_jalan_m": 2.5, "osm_node": 13825507502, "label": "Gerbang UGM - Jalan Pogung Kidul 3"}}, {"type": "Feature", "geometry": {"type": "Point", "coordinates": [110.3877763, -7.7721101]}, "properties": {"kampus": "UNY", "jalan": "Gang Komojoyo", "jarak_jalan_m": 4.1, "osm_node": 1998336502, "label": "Gerbang UNY - Gang Komojoyo"}}, {"type": "Feature", "geometry": {"type": "Point", "coordinates": [110.3828063, -7.7726142]}, "properties": {"kampus": "UNY", "jalan": "Blok G", "jarak_jalan_m": 5.7, "osm_node": 3472798372, "label": "Gerbang UNY - Blok G 1"}}, {"type": "Feature", "geometry": {"type": "Point", "coordinates": [110.3890454, -7.7754163]}, "properties": {"kampus": "UNY", "jalan": "Jalan Affandi", "jarak_jalan_m": 6.0, "osm_node": 3473158261, "label": "Gerbang UNY - Jalan Affandi 1"}}, {"type": "Feature", "geometry": {"type": "Point", "coordinates": [110.3866708, -7.7718645]}, "properties": {"kampus": "UNY", "jalan": "Jalan Wirata", "jarak_jalan_m": 26.1, "osm_node": 3474842691, "label": "Gerbang UNY - Jalan Wirata"}}, {"type": "Feature", "geometry": {"type": "Point", "coordinates": [110.3829865, -7.7768376]}, "properties": {"kampus": "UNY", "jalan": "Jalan Colombo", "jarak_jalan_m": 13.1, "osm_node": 3972701511, "label": "Gerbang UNY - Jalan Colombo 1"}}, {"type": "Feature", "geometry": {"type": "Point", "coordinates": [110.3837881, -7.7769983]}, "properties": {"kampus": "UNY", "jalan": "Jalan Colombo", "jarak_jalan_m": 12.8, "osm_node": 3972701512, "label": "Gerbang UNY - Jalan Colombo 2"}}, {"type": "Feature", "geometry": {"type": "Point", "coordinates": [110.3840483, -7.7770855]}, "properties": {"kampus": "UNY", "jalan": "Jalan Colombo", "jarak_jalan_m": 13.0, "osm_node": 3972701513, "label": "Gerbang UNY - Jalan Colombo 3"}}, {"type": "Feature", "geometry": {"type": "Point", "coordinates": [110.3892409, -7.7753485]}, "properties": {"kampus": "UNY", "jalan": "Jalan Affandi", "jarak_jalan_m": 5.0, "osm_node": 5800901152, "label": "Gerbang UNY - Jalan Affandi 2"}}, {"type": "Feature", "geometry": {"type": "Point", "coordinates": [110.3881739, -7.7683756]}, "properties": {"kampus": "UNY", "jalan": "Jalan Anyelir", "jarak_jalan_m": 3.9, "osm_node": 7637547346, "label": "Gerbang UNY - Jalan Anyelir 1"}}, {"type": "Feature", "geometry": {"type": "Point", "coordinates": [110.3886645, -7.7685651]}, "properties": {"kampus": "UNY", "jalan": "Jalan Anyelir", "jarak_jalan_m": 4.0, "osm_node": 7637547347, "label": "Gerbang UNY - Jalan Anyelir 2"}}, {"type": "Feature", "geometry": {"type": "Point", "coordinates": [110.382823, -7.7725602]}, "properties": {"kampus": "UNY", "jalan": "Blok G", "jarak_jalan_m": 5.4, "osm_node": 7716428999, "label": "Gerbang UNY - Blok G 2"}}, {"type": "Feature", "geometry": {"type": "Point", "coordinates": [110.3828619, -7.7768272]}, "properties": {"kampus": "UNY", "jalan": "Jalan Colombo", "jarak_jalan_m": 13.1, "osm_node": 9179304517, "label": "Gerbang UNY - Jalan Colombo 4"}}, {"type": "Feature", "geometry": {"type": "Point", "coordinates": [110.3888907, -7.7772636]}, "properties": {"kampus": "UNY", "jalan": "Jalan Affandi", "jarak_jalan_m": 6.6, "osm_node": 10303247193, "label": "Gerbang UNY - Jalan Affandi 3"}}, {"type": "Feature", "geometry": {"type": "Point", "coordinates": [110.3859667, -7.7777487]}, "properties": {"kampus": "UNY", "jalan": "Jalan Colombo", "jarak_jalan_m": 7.9, "osm_node": 10304480888, "label": "Gerbang UNY - Jalan Colombo 5"}}, {"type": "Feature", "geometry": {"type": "Point", "coordinates": [110.3887852, -7.7777226]}, "properties": {"kampus": "UNY", "jalan": "Jalan Affandi", "jarak_jalan_m": 4.6, "osm_node": 10307634054, "label": "Gerbang UNY - Jalan Affandi 4"}}, {"type": "Feature", "geometry": {"type": "Point", "coordinates": [110.3846055, -7.7772758]}, "properties": {"kampus": "UNY", "jalan": "Jalan Colombo", "jarak_jalan_m": 14.8, "osm_node": 11454308856, "label": "Gerbang UNY - Jalan Colombo 6"}}, {"type": "Feature", "geometry": {"type": "Point", "coordinates": [110.3888823, -7.769528]}, "properties": {"kampus": "UNY", "jalan": "Jalan Flamboyan", "jarak_jalan_m": 2.5, "osm_node": 11957604015, "label": "Gerbang UNY - Jalan Flamboyan"}}, {"type": "Feature", "geometry": {"type": "Point", "coordinates": [110.3816285, -7.7761926]}, "properties": {"kampus": "UNY", "jalan": "Jalan Wukirretawu", "jarak_jalan_m": 5.4, "osm_node": 12317733863, "label": "Gerbang UNY - Jalan Wukirretawu 1"}}, {"type": "Feature", "geometry": {"type": "Point", "coordinates": [110.3819608, -7.7752494]}, "properties": {"kampus": "UNY", "jalan": "Jalan Wukirretawu", "jarak_jalan_m": 4.8, "osm_node": 12335959201, "label": "Gerbang UNY - Jalan Wukirretawu 2"}}, {"type": "Feature", "geometry": {"type": "Point", "coordinates": [110.387679, -7.7773365]}, "properties": {"kampus": "UNY", "jalan": "Jalan Colombo", "jarak_jalan_m": 32.5, "osm_node": 13397271162, "label": "Gerbang UNY - Jalan Colombo 7"}}, {"type": "Feature", "geometry": {"type": "Point", "coordinates": [110.3878101, -7.7774151]}, "properties": {"kampus": "UNY", "jalan": "Jalan Colombo", "jarak_jalan_m": 27.2, "osm_node": 13397271164, "label": "Gerbang UNY - Jalan Colombo 8"}}, {"type": "Feature", "geometry": {"type": "Point", "coordinates": [110.3875265, -7.7773365]}, "properties": {"kampus": "UNY", "jalan": "Jalan Colombo", "jarak_jalan_m": 29.9, "osm_node": 13397271165, "label": "Gerbang UNY - Jalan Colombo 9"}}, {"type": "Feature", "geometry": {"type": "Point", "coordinates": [110.3889242, -7.7755394]}, "properties": {"kampus": "UNY", "jalan": "Jalan Affandi", "jarak_jalan_m": 16.6, "osm_node": 13634070241, "label": "Gerbang UNY - Jalan Affandi 5"}}, {"type": "Feature", "geometry": {"type": "Point", "coordinates": [110.3891059, -7.7750088]}, "properties": {"kampus": "UNY", "jalan": "Jalan Affandi", "jarak_jalan_m": 6.8, "osm_node": 13634070242, "label": "Gerbang UNY - Jalan Affandi 6"}}, {"type": "Feature", "geometry": {"type": "Point", "coordinates": [110.3891499, -7.7747867]}, "properties": {"kampus": "UNY", "jalan": "Jalan Affandi", "jarak_jalan_m": 6.5, "osm_node": 13634070245, "label": "Gerbang UNY - Jalan Affandi 7"}}, {"type": "Feature", "geometry": {"type": "Point", "coordinates": [110.4097212, -7.6871497]}, "properties": {"kampus": "UII Kaliurang", "jalan": null, "jarak_jalan_m": null, "osm_node": 6813350736, "label": "Gerbang UII Kaliurang"}}, {"type": "Feature", "geometry": {"type": "Point", "coordinates": [110.4141452, -7.6862833]}, "properties": {"kampus": "UII Kaliurang", "jalan": "Jalan Tegal Sari", "jarak_jalan_m": 18.6, "osm_node": 7305089804, "label": "Gerbang UII Kaliurang - Jalan Tegal Sari"}}, {"type": "Feature", "geometry": {"type": "Point", "coordinates": [110.4222898, -7.7532617]}, "properties": {"kampus": "Sanata Dharma III", "jalan": "Jalan Kepuhsari", "jarak_jalan_m": 9.6, "osm_node": 8852336623, "label": "Gerbang Sanata Dharma III - Jalan Kepuhsari 1"}}, {"type": "Feature", "geometry": {"type": "Point", "coordinates": [110.4218848, -7.7532112]}, "properties": {"kampus": "Sanata Dharma III", "jalan": "Jalan Kepuhsari", "jarak_jalan_m": 9.1, "osm_node": 8852336624, "label": "Gerbang Sanata Dharma III - Jalan Kepuhsari 2"}}, {"type": "Feature", "geometry": {"type": "Point", "coordinates": [110.4198782, -7.7554645]}, "properties": {"kampus": "Sanata Dharma III", "jalan": "Jalan Jenengan Raya", "jarak_jalan_m": 6.6, "osm_node": 9180129765, "label": "Gerbang Sanata Dharma III - Jalan Jenengan Raya"}}, {"type": "Feature", "geometry": {"type": "Point", "coordinates": [110.4229584, -7.7543712]}, "properties": {"kampus": "Sanata Dharma III", "jalan": "Jalan Paingan 3", "jarak_jalan_m": 39.9, "osm_node": 9903821490, "label": "Gerbang Sanata Dharma III - Jalan Paingan 3"}}, {"type": "Feature", "geometry": {"type": "Point", "coordinates": [110.4093513, -7.763849]}, "properties": {"kampus": "UPN Veteran", "jalan": "Jalan Pintu Selatan UPN", "jarak_jalan_m": 4.3, "osm_node": 3662557460, "label": "Gerbang UPN Veteran - Jalan Pintu Selatan UPN 1"}}, {"type": "Feature", "geometry": {"type": "Point", "coordinates": [110.409365, -7.7611473]}, "properties": {"kampus": "UPN Veteran", "jalan": "Ring Road Utara", "jarak_jalan_m": 13.0, "osm_node": 5563211071, "label": "Gerbang UPN Veteran - Ring Road Utara 1"}}, {"type": "Feature", "geometry": {"type": "Point", "coordinates": [110.4085095, -7.7637001]}, "properties": {"kampus": "UPN Veteran", "jalan": "Jalan Pintu Selatan UPN", "jarak_jalan_m": 3.6, "osm_node": 7265574621, "label": "Gerbang UPN Veteran - Jalan Pintu Selatan UPN 2"}}, {"type": "Feature", "geometry": {"type": "Point", "coordinates": [110.4114426, -7.7637553]}, "properties": {"kampus": "UPN Veteran", "jalan": "Jalan Seturan Raya", "jarak_jalan_m": 8.8, "osm_node": 9169244121, "label": "Gerbang UPN Veteran - Jalan Seturan Raya"}}, {"type": "Feature", "geometry": {"type": "Point", "coordinates": [110.4081929, -7.7637284]}, "properties": {"kampus": "UPN Veteran", "jalan": "Jalan Pintu Selatan UPN", "jarak_jalan_m": 6.3, "osm_node": 9529840988, "label": "Gerbang UPN Veteran - Jalan Pintu Selatan UPN 3"}}, {"type": "Feature", "geometry": {"type": "Point", "coordinates": [110.4099173, -7.7613109]}, "properties": {"kampus": "UPN Veteran", "jalan": "Ring Road Utara", "jarak_jalan_m": 13.4, "osm_node": 12414144950, "label": "Gerbang UPN Veteran - Ring Road Utara 2"}}, {"type": "Feature", "geometry": {"type": "Point", "coordinates": [110.4076787, -7.7609494]}, "properties": {"kampus": "UPN Veteran", "jalan": "Jalan UPN", "jarak_jalan_m": 3.7, "osm_node": 13327634472, "label": "Gerbang UPN Veteran - Jalan UPN"}}, {"type": "Feature", "geometry": {"type": "Point", "coordinates": [110.4105296, -7.7640763]}, "properties": {"kampus": "UPN Veteran", "jalan": "Jalan Pintu Selatan UPN", "jarak_jalan_m": 3.3, "osm_node": 13327634485, "label": "Gerbang UPN Veteran - Jalan Pintu Selatan UPN 4"}}, {"type": "Feature", "geometry": {"type": "Point", "coordinates": [110.4087751, -7.7605603]}, "properties": {"kampus": "AMIKOM", "jalan": "Ring Road Utara", "jarak_jalan_m": 14.2, "osm_node": 7651911102, "label": "Gerbang AMIKOM - Ring Road Utara"}}, {"type": "Feature", "geometry": {"type": "Point", "coordinates": [110.4094502, -7.7599858]}, "properties": {"kampus": "AMIKOM", "jalan": "Jalan Mancasan Indah IV", "jarak_jalan_m": 0.0, "osm_node": 10575670700, "label": "Gerbang AMIKOM - Jalan Mancasan Indah IV"}}, {"type": "Feature", "geometry": {"type": "Point", "coordinates": [110.4084014, -7.758543]}, "properties": {"kampus": "AMIKOM", "jalan": "Jalan Nusa Indah", "jarak_jalan_m": 5.0, "osm_node": 10575670714, "label": "Gerbang AMIKOM - Jalan Nusa Indah 1"}}, {"type": "Feature", "geometry": {"type": "Point", "coordinates": [110.4078583, -7.7592237]}, "properties": {"kampus": "AMIKOM", "jalan": "Jalan Nusa Indah", "jarak_jalan_m": 3.7, "osm_node": 10575670724, "label": "Gerbang AMIKOM - Jalan Nusa Indah 2"}}, {"type": "Feature", "geometry": {"type": "Point", "coordinates": [110.4080436, -7.7589746]}, "properties": {"kampus": "AMIKOM", "jalan": "Jalan Nusa Indah", "jarak_jalan_m": 3.0, "osm_node": 10575674444, "label": "Gerbang AMIKOM - Jalan Nusa Indah 3"}}, {"type": "Feature", "geometry": {"type": "Point", "coordinates": [110.4147168, -7.779182]}, "properties": {"kampus": "Atma Jaya Babarsari", "jalan": "Jalan Babarsari", "jarak_jalan_m": 8.2, "osm_node": 9137151729, "label": "Gerbang Atma Jaya Babarsari - Jalan Babarsari 1"}}, {"type": "Feature", "geometry": {"type": "Point", "coordinates": [110.4149083, -7.7791213]}, "properties": {"kampus": "Atma Jaya Babarsari", "jalan": "Jalan Babarsari", "jarak_jalan_m": 11.0, "osm_node": 9137151730, "label": "Gerbang Atma Jaya Babarsari - Jalan Babarsari 2"}}, {"type": "Feature", "geometry": {"type": "Point", "coordinates": [110.414872, -7.7792795]}, "properties": {"kampus": "Atma Jaya Babarsari", "jalan": "Jalan Babarsari", "jarak_jalan_m": 10.9, "osm_node": 9137151731, "label": "Gerbang Atma Jaya Babarsari - Jalan Babarsari 3"}}, {"type": "Feature", "geometry": {"type": "Point", "coordinates": [110.4149377, -7.7788751]}, "properties": {"kampus": "Atma Jaya Babarsari", "jalan": "Jalan Babarsari", "jarak_jalan_m": 8.4, "osm_node": 9137281491, "label": "Gerbang Atma Jaya Babarsari - Jalan Babarsari 4"}}, {"type": "Feature", "geometry": {"type": "Point", "coordinates": [110.4099726, -7.7697942]}, "properties": {"kampus": "STIE YKPN", "jalan": "Jalan Seturan Raya", "jarak_jalan_m": 15.5, "osm_node": 9163989525, "label": "Gerbang STIE YKPN - Jalan Seturan Raya 1"}}, {"type": "Feature", "geometry": {"type": "Point", "coordinates": [110.4100844, -7.7692405]}, "properties": {"kampus": "STIE YKPN", "jalan": "Jalan Seturan Raya", "jarak_jalan_m": 15.0, "osm_node": 9529161910, "label": "Gerbang STIE YKPN - Jalan Seturan Raya 2"}}, {"type": "Feature", "geometry": {"type": "Point", "coordinates": [110.4101952, -7.7685909]}, "properties": {"kampus": "STIE YKPN", "jalan": "Jalan Seturan Raya", "jarak_jalan_m": 12.3, "osm_node": 9529161912, "label": "Gerbang STIE YKPN - Jalan Seturan Raya 3"}}, {"type": "Feature", "geometry": {"type": "Point", "coordinates": [110.4102587, -7.7680338]}, "properties": {"kampus": "STIE YKPN", "jalan": "Jalan Seturan Raya", "jarak_jalan_m": 6.6, "osm_node": 9529161913, "label": "Gerbang STIE YKPN - Jalan Seturan Raya 4"}}, {"type": "Feature", "geometry": {"type": "Point", "coordinates": [110.4109262, -7.7703407]}, "properties": {"kampus": "STIE YKPN", "jalan": "Jalan Punta Dewa", "jarak_jalan_m": 5.2, "osm_node": 12619433278, "label": "Gerbang STIE YKPN - Jalan Punta Dewa 1"}}, {"type": "Feature", "geometry": {"type": "Point", "coordinates": [110.4120593, -7.7698692]}, "properties": {"kampus": "STIE YKPN", "jalan": null, "jarak_jalan_m": null, "osm_node": 12850332418, "label": "Gerbang STIE YKPN"}}, {"type": "Feature", "geometry": {"type": "Point", "coordinates": [110.409903, -7.77]}, "properties": {"kampus": "STIE YKPN", "jalan": "Jalan Punta Dewa", "jarak_jalan_m": 12.5, "osm_node": 13972574566, "label": "Gerbang STIE YKPN - Jalan Punta Dewa 2"}}, {"type": "Feature", "geometry": {"type": "Point", "coordinates": [110.4243202, -7.7609543]}, "properties": {"kampus": "Instiper", "jalan": "Jalan Nangka 2", "jarak_jalan_m": 7.4, "osm_node": 9513051485, "label": "Gerbang Instiper - Jalan Nangka 2 1"}}, {"type": "Feature", "geometry": {"type": "Point", "coordinates": [110.4242261, -7.7608522]}, "properties": {"kampus": "Instiper", "jalan": "Jalan Nangka 2", "jarak_jalan_m": 3.7, "osm_node": 9885054441, "label": "Gerbang Instiper - Jalan Nangka 2 2"}}, {"type": "Feature", "geometry": {"type": "Point", "coordinates": [110.4244083, -7.7599996]}, "properties": {"kampus": "Instiper", "jalan": "Jalan Nangka 2", "jarak_jalan_m": 8.0, "osm_node": 9897211971, "label": "Gerbang Instiper - Jalan Nangka 2 3"}}, {"type": "Feature", "geometry": {"type": "Point", "coordinates": [110.4241551, -7.7613136]}, "properties": {"kampus": "Instiper", "jalan": "Jalan Nangka 2", "jarak_jalan_m": 6.0, "osm_node": 9903821497, "label": "Gerbang Instiper - Jalan Nangka 2 4"}}, {"type": "Feature", "geometry": {"type": "Point", "coordinates": [110.4243866, -7.7601664]}, "properties": {"kampus": "Instiper", "jalan": "Jalan Nangka 2", "jarak_jalan_m": 8.7, "osm_node": 9903821498, "label": "Gerbang Instiper - Jalan Nangka 2 5"}}, {"type": "Feature", "geometry": {"type": "Point", "coordinates": [110.425483, -7.7598387]}, "properties": {"kampus": "Instiper", "jalan": "Jalan Sabo", "jarak_jalan_m": 5.7, "osm_node": 9918565297, "label": "Gerbang Instiper - Jalan Sabo"}}]}