{"type": "FeatureCollection", "name": "kampus", "features": [{"type": "Feature", "geometry": {"type": "Point", "coordinates": [110.3775, -7.7713]}, "properties": {"nama": "UGM", "jumlah_gerbang": 18}}, {"type": "Feature", "geometry": {"type": "Point", "coordinates": [110.3878, -7.7756]}, "properties": {"nama": "UNY", "jumlah_gerbang": 11}}, {"type": "Feature", "geometry": {"type": "Point", "coordinates": [110.4067, -7.7601]}, "properties": {"nama": "AMIKOM", "jumlah_gerbang": 36}}, {"type": "Feature", "geometry": {"type": "Point", "coordinates": [110.4136, -7.7607]}, "properties": {"nama": "UPN Veteran", "jumlah_gerbang": 9}}, {"type": "Feature", "geometry": {"type": "Point", "coordinates": [110.4088, -7.7772]}, "properties": {"nama": "Atma Jaya Babarsari", "jumlah_gerbang": 4}}, {"type": "Feature", "geometry": {"type": "Point", "coordinates": [110.4162, -7.7935]}, "properties": {"nama": "Sanata Dharma III", "jumlah_gerbang": 31}}, {"type": "Feature", "geometry": {"type": "Point", "coordinates": [110.4213, -7.7726]}, "properties": {"nama": "Instiper", "jumlah_gerbang": 16}}, {"type": "Feature", "geometry": {"type": "Point", "coordinates": [110.4139, -7.6866]}, "properties": {"nama": "UII Kaliurang", "jumlah_gerbang": 37}}, {"type": "Feature", "geometry": {"type": "Point", "coordinates": [110.4034, -7.7581]}, "properties": {"nama": "STIE YKPN", "jumlah_gerbang": 20}}, {"type": "Feature", "geometry": {"type": "Point", "coordinates": [110.429, -7.75]}, "properties": {"nama": "Universitas Respati", "jumlah_gerbang": 6}}]}