{"type": "FeatureCollection", "name": "kos", "features": [{"type": "Feature", "geometry": {"type": "Point", "coordinates": [110.371174, -7.779525]}, "properties": {"id": "KOS-001", "nama": "Kos Contoh 1", "jenis": "Putra", "harga_median": 950000, "sumber_harga": "survei", "h3_index": "898d8cb802bffff", "jarak_halte_m": 573}}, {"type": "Feature", "geometry": {"type": "Point", "coordinates": [110.424906, -7.833284]}, "properties": {"id": "KOS-002", "nama": "Kos Contoh 2", "jenis": "Putra", "harga_median": 800000, "sumber_harga": "model", "h3_index": "898d8cba68bffff", "jarak_halte_m": 638}}, {"type": "Feature", "geometry": {"type": "Point", "coordinates": [110.376526, -7.73807]}, "properties": {"id": "KOS-003", "nama": "Kos Contoh 3", "jenis": "Campur", "harga_median": 1500000, "sumber_harga": "model", "h3_index": "898d8cb9e97ffff", "jarak_halte_m": 1467}}, {"type": "Feature", "geometry": {"type": "Point", "coordinates": [110.423744, -7.682435]}, "properties": {"id": "KOS-004", "nama": "Kos Contoh 4", "jenis": "Putri", "harga_median": 800000, "sumber_harga": "survei", "h3_index": "898d8c163a7ffff", "jarak_halte_m": 1156}}, {"type": "Feature", "geometry": {"type": "Point", "coordinates": [110.396573, -7.689221]}, "properties": {"id": "KOS-005", "nama": "Kos Contoh 5", "jenis": "Putri", "harga_median": 500000, "sumber_harga": "survei", "h3_index": "898d8c168c3ffff", "jarak_halte_m": 45}}, {"type": "Feature", "geometry": {"type": "Point", "coordinates": [110.381738, -7.793]}, "properties": {"id": "KOS-006", "nama": "Kos Contoh 6", "jenis": "Campur", "harga_median": 1575000, "sumber_harga": "survei", "h3_index": "898d8cb8093ffff", "jarak_halte_m": 274}}, {"type": "Feature", "geometry": {"type": "Point", "coordinates": [110.405074, -7.752179]}, "properties": {"id": "KOS-007", "nama": "Kos Contoh 7", "jenis": "Campur", "harga_median": 1000000, "sumber_harga": "survei", "h3_index": "898d8cb9547ffff", "jarak_halte_m": 921}}, {"type": "Feature", "geometry": {"type": "Point", "coordinates": [110.384091, -7.814353]}, "properties": {"id": "KOS-008", "nama": "Kos Contoh 8", "jenis": "Putra", "harga_median": 1275000, "sumber_harga": "model", "h3_index": "898d8cba373ffff", "jarak_halte_m": 22}}, {"type": "Feature", "geometry": {"type": "Point", "coordinates": [110.441004, -7.710012]}, "properties": {"id": "KOS-009", "nama": "Kos Contoh 9", "jenis": "Putri", "harga_median": 925000, "sumber_harga": "survei", "h3_index": "898d8c16503ffff", "jarak_halte_m": 980}}, {"type": "Feature", "geometry": {"type": "Point", "coordinates": [110.385161, -7.765596]}, "properties": {"id": "KOS-010", "nama": "Kos Contoh 10", "jenis": "Putra", "harga_median": 775000, "sumber_harga": "model", "h3_index": "898d8cb8213ffff", "jarak_halte_m": 534}}, {"type": "Feature", "geometry": {"type": "Point", "coordinates": [110.448934, -7.689205]}, "properties": {"id": "KOS-011", "nama": "Kos Contoh 11", "jenis": "Campur", "harga_median": 550000, "sumber_harga": "model", "h3_index": "898d8c16013ffff", "jarak_halte_m": 893}}, {"type": "Feature", "geometry": {"type": "Point", "coordinates": [110.448436, -7.762702]}, "properties": {"id": "KOS-012", "nama": "Kos Contoh 12", "jenis": "Putra", "harga_median": 900000, "sumber_harga": "model", "h3_index": "898d8cbb2cfffff", "jarak_halte_m": 559}}, {"type": "Feature", "geometry": {"type": "Point", "coordinates": [110.438719, -7.769332]}, "properties": {"id": "KOS-013", "nama": "Kos Contoh 13", "jenis": "Putra", "harga_median": 550000, "sumber_harga": "model", "h3_index": "898d8cbb217ffff", "jarak_halte_m": 691}}, {"type": "Feature", "geometry": {"type": "Point", "coordinates": [110.374155, -7.801133]}, "properties": {"id": "KOS-014", "nama": "Kos Contoh 14", "jenis": "Campur", "harga_median": 1150000, "sumber_harga": "model", "h3_index": "898d8cb85cfffff", "jarak_halte_m": 1467}}, {"type": "Feature", "geometry": {"type": "Point", "coordinates": [110.412373, -7.697388]}, "properties": {"id": "KOS-015", "nama": "Kos Contoh 15", "jenis": "Campur", "harga_median": 825000, "sumber_harga": "model", "h3_index": "898d8c16c53ffff", "jarak_halte_m": 776}}, {"type": "Feature", "geometry": {"type": "Point", "coordinates": [110.397178, -7.741868]}, "properties": {"id": "KOS-016", "nama": "Kos Contoh 16", "jenis": "Putri", "harga_median": 1200000, "sumber_harga": "survei", "h3_index": "898d8cb91cfffff", "jarak_halte_m": 114}}, {"type": "Feature", "geometry": {"type": "Point", "coordinates": [110.43163, -7.735335]}, "properties": {"id": "KOS-017", "nama": "Kos Contoh 17", "jenis": "Putri", "harga_median": 550000, "sumber_harga": "model", "h3_index": "898d8cb96abffff", "jarak_halte_m": 1090}}, {"type": "Feature", "geometry": {"type": "Point", "coordinates": [110.411601, -7.782601]}, "properties": {"id": "KOS-018", "nama": "Kos Contoh 18", "jenis": "Putra", "harga_median": 650000, "sumber_harga": "model", "h3_index": "898d8cbb16bffff", "jarak_halte_m": 694}}, {"type": "Feature", "geometry": {"type": "Point", "coordinates": [110.387842, -7.737305]}, "properties": {"id": "KOS-019", "nama": "Kos Contoh 19", "jenis": "Putri", "harga_median": 1075000, "sumber_harga": "model", "h3_index": "898d8cb9163ffff", "jarak_halte_m": 669}}, {"type": "Feature", "geometry": {"type": "Point", "coordinates": [110.349995, -7.788296]}, "properties": {"id": "KOS-020", "nama": "Kos Contoh 20", "jenis": "Campur", "harga_median": 500000, "sumber_harga": "survei", "h3_index": "898d8cb813bffff", "jarak_halte_m": 1035}}, {"type": "Feature", "geometry": {"type": "Point", "coordinates": [110.44693, -7.693388]}, "properties": {"id": "KOS-021", "nama": "Kos Contoh 21", "jenis": "Putra", "harga_median": 1250000, "sumber_harga": "model", "h3_index": "898d8c1608fffff", "jarak_halte_m": 150}}, {"type": "Feature", "geometry": {"type": "Point", "coordinates": [110.452596, -7.76974]}, "properties": {"id": "KOS-022", "nama": "Kos Contoh 22", "jenis": "Putra", "harga_median": 1250000, "sumber_harga": "model", "h3_index": "898d8cbb66bffff", "jarak_halte_m": 33}}, {"type": "Feature", "geometry": {"type": "Point", "coordinates": [110.440912, -7.666623]}, "properties": {"id": "KOS-023", "nama": "Kos Contoh 23", "jenis": "Putri", "harga_median": 1250000, "sumber_harga": "model", "h3_index": "898d8c1622fffff", "jarak_halte_m": 939}}, {"type": "Feature", "geometry": {"type": "Point", "coordinates": [110.432471, -7.68712]}, "properties": {"id": "KOS-024", "nama": "Kos Contoh 24", "jenis": "Putra", "harga_median": 1175000, "sumber_harga": "model", "h3_index": "898d8c1615bffff", "jarak_halte_m": 986}}, {"type": "Feature", "geometry": {"type": "Point", "coordinates": [110.386838, -7.734469]}, "properties": {"id": "KOS-025", "nama": "Kos Contoh 25", "jenis": "Campur", "harga_median": 1375000, "sumber_harga": "model", "h3_index": "898d8cb916fffff", "jarak_halte_m": 211}}, {"type": "Feature", "geometry": {"type": "Point", "coordinates": [110.335698, -7.774554]}, "properties": {"id": "KOS-026", "nama": "Kos Contoh 26", "jenis": "Putri", "harga_median": 1150000, "sumber_harga": "model", "h3_index": "898d8cb8e3bffff", "jarak_halte_m": 778}}, {"type": "Feature", "geometry": {"type": "Point", "coordinates": [110.375915, -7.740083]}, "properties": {"id": "KOS-027", "nama": "Kos Contoh 27", "jenis": "Campur", "harga_median": 950000, "sumber_harga": "survei", "h3_index": "898d8cb9c4bffff", "jarak_halte_m": 324}}, {"type": "Feature", "geometry": {"type": "Point", "coordinates": [110.413563, -7.735612]}, "properties": {"id": "KOS-028", "nama": "Kos Contoh 28", "jenis": "Campur", "harga_median": 1125000, "sumber_harga": "model", "h3_index": "898d8cb901bffff", "jarak_halte_m": 611}}, {"type": "Feature", "geometry": {"type": "Point", "coordinates": [110.432269, -7.682904]}, "properties": {"id": "KOS-029", "nama": "Kos Contoh 29", "jenis": "Putri", "harga_median": 1000000, "sumber_harga": "model", "h3_index": "898d8c16387ffff", "jarak_halte_m": 903}}, {"type": "Feature", "geometry": {"type": "Point", "coordinates": [110.408251, -7.794181]}, "properties": {"id": "KOS-030", "nama": "Kos Contoh 30", "jenis": "Campur", "harga_median": 1525000, "sumber_harga": "model", "h3_index": "898d8cbb133ffff", "jarak_halte_m": 566}}, {"type": "Feature", "geometry": {"type": "Point", "coordinates": [110.397727, -7.81255]}, "properties": {"id": "KOS-031", "nama": "Kos Contoh 31", "jenis": "Putri", "harga_median": 550000, "sumber_harga": "model", "h3_index": "898d8cba227ffff", "jarak_halte_m": 1301}}, {"type": "Feature", "geometry": {"type": "Point", "coordinates": [110.346839, -7.766815]}, "properties": {"id": "KOS-032", "nama": "Kos Contoh 32", "jenis": "Putri", "harga_median": 550000, "sumber_harga": "survei", "h3_index": "898d8cb8e4bffff", "jarak_halte_m": 1320}}, {"type": "Feature", "geometry": {"type": "Point", "coordinates": [110.393592, -7.766177]}, "properties": {"id": "KOS-033", "nama": "Kos Contoh 33", "jenis": "Campur", "harga_median": 800000, "sumber_harga": "survei", "h3_index": "898d8cb82d3ffff", "jarak_halte_m": 741}}, {"type": "Feature", "geometry": {"type": "Point", "coordinates": [110.427712, -7.667417]}, "properties": {"id": "KOS-034", "nama": "Kos Contoh 34", "jenis": "Putri", "harga_median": 1425000, "sumber_harga": "survei", "h3_index": "898d8c16363ffff", "jarak_halte_m": 352}}, {"type": "Feature", "geometry": {"type": "Point", "coordinates": [110.410176, -7.700692]}, "properties": {"id": "KOS-035", "nama": "Kos Contoh 35", "jenis": "Campur", "harga_median": 475000, "sumber_harga": "model", "h3_index": "898d8c16cc3ffff", "jarak_halte_m": 235}}, {"type": "Feature", "geometry": {"type": "Point", "coordinates": [110.406644, -7.676529]}, "properties": {"id": "KOS-036", "nama": "Kos Contoh 36", "jenis": "Putri", "harga_median": 500000, "sumber_harga": "survei", "h3_index": "898d8c16e77ffff", "jarak_halte_m": 573}}, {"type": "Feature", "geometry": {"type": "Point", "coordinates": [110.417456, -7.768603]}, "properties": {"id": "KOS-037", "nama": "Kos Contoh 37", "jenis": "Campur", "harga_median": 550000, "sumber_harga": "model", "h3_index": "898d8cbb30fffff", "jarak_halte_m": 1054}}, {"type": "Feature", "geometry": {"type": "Point", "coordinates": [110.381664, -7.803898]}, "properties": {"id": "KOS-038", "nama": "Kos Contoh 38", "jenis": "Campur", "harga_median": 1600000, "sumber_harga": "model", "h3_index": "898d8cb85dbffff", "jarak_halte_m": 601}}, {"type": "Feature", "geometry": {"type": "Point", "coordinates": [110.449159, -7.738556]}, "properties": {"id": "KOS-039", "nama": "Kos Contoh 39", "jenis": "Putra", "harga_median": 1325000, "sumber_harga": "model", "h3_index": "898d8c8c947ffff", "jarak_halte_m": 913}}, {"type": "Feature", "geometry": {"type": "Point", "coordinates": [110.38872, -7.699932]}, "properties": {"id": "KOS-040", "nama": "Kos Contoh 40", "jenis": "Putri", "harga_median": 1050000, "sumber_harga": "survei", "h3_index": "898d8c16d43ffff", "jarak_halte_m": 1317}}, {"type": "Feature", "geometry": {"type": "Point", "coordinates": [110.36727, -7.776318]}, "properties": {"id": "KOS-041", "nama": "Kos Contoh 41", "jenis": "Putri", "harga_median": 600000, "sumber_harga": "survei", "h3_index": "898d8cb8393ffff", "jarak_halte_m": 686}}, {"type": "Feature", "geometry": {"type": "Point", "coordinates": [110.438758, -7.789535]}, "properties": {"id": "KOS-042", "nama": "Kos Contoh 42", "jenis": "Putra", "harga_median": 825000, "sumber_harga": "model", "h3_index": "898d8cbb08bffff", "jarak_halte_m": 927}}, {"type": "Feature", "geometry": {"type": "Point", "coordinates": [110.360526, -7.798962]}, "properties": {"id": "KOS-043", "nama": "Kos Contoh 43", "jenis": "Putra", "harga_median": 525000, "sumber_harga": "survei", "h3_index": "898d8cb8193ffff", "jarak_halte_m": 883}}, {"type": "Feature", "geometry": {"type": "Point", "coordinates": [110.35219, -7.785992]}, "properties": {"id": "KOS-044", "nama": "Kos Contoh 44", "jenis": "Campur", "harga_median": 550000, "sumber_harga": "survei", "h3_index": "898d8cb8177ffff", "jarak_halte_m": 1350}}, {"type": "Feature", "geometry": {"type": "Point", "coordinates": [110.360088, -7.740588]}, "properties": {"id": "KOS-045", "nama": "Kos Contoh 45", "jenis": "Campur", "harga_median": 1575000, "sumber_harga": "survei", "h3_index": "898d8cb989bffff", "jarak_halte_m": 74}}, {"type": "Feature", "geometry": {"type": "Point", "coordinates": [110.422984, -7.7775]}, "properties": {"id": "KOS-046", "nama": "Kos Contoh 46", "jenis": "Putra", "harga_median": 850000, "sumber_harga": "model", "h3_index": "898d8cbb383ffff", "jarak_halte_m": 1101}}, {"type": "Feature", "geometry": {"type": "Point", "coordinates": [110.415068, -7.674211]}, "properties": {"id": "KOS-047", "nama": "Kos Contoh 47", "jenis": "Putri", "harga_median": 625000, "sumber_harga": "model", "h3_index": "898d8c16e43ffff", "jarak_halte_m": 808}}, {"type": "Feature", "geometry": {"type": "Point", "coordinates": [110.434569, -7.713908]}, "properties": {"id": "KOS-048", "nama": "Kos Contoh 48", "jenis": "Campur", "harga_median": 1050000, "sumber_harga": "model", "h3_index": "898d8c165abffff", "jarak_halte_m": 1052}}, {"type": "Feature", "geometry": {"type": "Point", "coordinates": [110.37427, -7.687682]}, "properties": {"id": "KOS-049", "nama": "Kos Contoh 49", "jenis": "Campur", "harga_median": 475000, "sumber_harga": "model", "h3_index": "898d8c16953ffff", "jarak_halte_m": 431}}, {"type": "Feature", "geometry": {"type": "Point", "coordinates": [110.424303, -7.831262]}, "properties": {"id": "KOS-050", "nama": "Kos Contoh 50", "jenis": "Campur", "harga_median": 1075000, "sumber_harga": "model", "h3_index": "898d8cba613ffff", "jarak_halte_m": 618}}, {"type": "Feature", "geometry": {"type": "Point", "coordinates": [110.419347, -7.7504]}, "properties": {"id": "KOS-051", "nama": "Kos Contoh 51", "jenis": "Putri", "harga_median": 950000, "sumber_harga": "model", "h3_index": "898d8cb943bffff", "jarak_halte_m": 53}}, {"type": "Feature", "geometry": {"type": "Point", "coordinates": [110.394809, -7.794945]}, "properties": {"id": "KOS-052", "nama": "Kos Contoh 52", "jenis": "Putri", "harga_median": 850000, "sumber_harga": "model", "h3_index": "898d8cb8457ffff", "jarak_halte_m": 1101}}, {"type": "Feature", "geometry": {"type": "Point", "coordinates": [110.456936, -7.771183]}, "properties": {"id": "KOS-053", "nama": "Kos Contoh 53", "jenis": "Putra", "harga_median": 1075000, "sumber_harga": "model", "h3_index": "898d8cbb64fffff", "jarak_halte_m": 163}}, {"type": "Feature", "geometry": {"type": "Point", "coordinates": [110.417664, -7.6946]}, "properties": {"id": "KOS-054", "nama": "Kos Contoh 54", "jenis": "Campur", "harga_median": 775000, "sumber_harga": "model", "h3_index": "898d8c1613bffff", "jarak_halte_m": 1102}}, {"type": "Feature", "geometry": {"type": "Point", "coordinates": [110.386862, -7.729361]}, "properties": {"id": "KOS-055", "nama": "Kos Contoh 55", "jenis": "Putra", "harga_median": 1450000, "sumber_harga": "model", "h3_index": "898d8cb9edbffff", "jarak_halte_m": 117}}, {"type": "Feature", "geometry": {"type": "Point", "coordinates": [110.440804, -7.815183]}, "properties": {"id": "KOS-056", "nama": "Kos Contoh 56", "jenis": "Putri", "harga_median": 550000, "sumber_harga": "model", "h3_index": "898d8c85b63ffff", "jarak_halte_m": 33}}, {"type": "Feature", "geometry": {"type": "Point", "coordinates": [110.405347, -7.809081]}, "properties": {"id": "KOS-057", "nama": "Kos Contoh 57", "jenis": "Putri", "harga_median": 1400000, "sumber_harga": "survei", "h3_index": "898d8cba273ffff", "jarak_halte_m": 59}}, {"type": "Feature", "geometry": {"type": "Point", "coordinates": [110.382096, -7.757919]}, "properties": {"id": "KOS-058", "nama": "Kos Contoh 58", "jenis": "Putri", "harga_median": 550000, "sumber_harga": "model", "h3_index": "898d8cb8263ffff", "jarak_halte_m": 59}}, {"type": "Feature", "geometry": {"type": "Point", "coordinates": [110.382709, -7.760513]}, "properties": {"id": "KOS-059", "nama": "Kos Contoh 59", "jenis": "Putri", "harga_median": 575000, "sumber_harga": "survei", "h3_index": "898d8cb820bffff", "jarak_halte_m": 243}}, {"type": "Feature", "geometry": {"type": "Point", "coordinates": [110.420513, -7.792616]}, "properties": {"id": "KOS-060", "nama": "Kos Contoh 60", "jenis": "Campur", "harga_median": 1125000, "sumber_harga": "model", "h3_index": "898d8cbb1c3ffff", "jarak_halte_m": 206}}, {"type": "Feature", "geometry": {"type": "Point", "coordinates": [110.351, -7.754646]}, "properties": {"id": "KOS-061", "nama": "Kos Contoh 61", "jenis": "Campur", "harga_median": 800000, "sumber_harga": "model", "h3_index": "898d8cb9d13ffff", "jarak_halte_m": 163}}, {"type": "Feature", "geometry": {"type": "Point", "coordinates": [110.381715, -7.738407]}, "properties": {"id": "KOS-062", "nama": "Kos Contoh 62", "jenis": "Campur", "harga_median": 1275000, "sumber_harga": "model", "h3_index": "898d8cb9e93ffff", "jarak_halte_m": 995}}, {"type": "Feature", "geometry": {"type": "Point", "coordinates": [110.431623, -7.740915]}, "properties": {"id": "KOS-063", "nama": "Kos Contoh 63", "jenis": "Campur", "harga_median": 625000, "sumber_harga": "model", "h3_index": "898d8cb944bffff", "jarak_halte_m": 375}}, {"type": "Feature", "geometry": {"type": "Point", "coordinates": [110.434502, -7.690125]}, "properties": {"id": "KOS-064", "nama": "Kos Contoh 64", "jenis": "Putri", "harga_median": 1150000, "sumber_harga": "model", "h3_index": "898d8c16027ffff", "jarak_halte_m": 1106}}, {"type": "Feature", "geometry": {"type": "Point", "coordinates": [110.409463, -7.68488]}, "properties": {"id": "KOS-065", "nama": "Kos Contoh 65", "jenis": "Putra", "harga_median": 1525000, "sumber_harga": "model", "h3_index": "898d8c16e17ffff", "jarak_halte_m": 886}}, {"type": "Feature", "geometry": {"type": "Point", "coordinates": [110.409419, -7.700295]}, "properties": {"id": "KOS-066", "nama": "Kos Contoh 66", "jenis": "Putra", "harga_median": 750000, "sumber_harga": "model", "h3_index": "898d8c16ccfffff", "jarak_halte_m": 1131}}, {"type": "Feature", "geometry": {"type": "Point", "coordinates": [110.384545, -7.715136]}, "properties": {"id": "KOS-067", "nama": "Kos Contoh 67", "jenis": "Putra", "harga_median": 750000, "sumber_harga": "model", "h3_index": "898d8c16d83ffff", "jarak_halte_m": 225}}, {"type": "Feature", "geometry": {"type": "Point", "coordinates": [110.347845, -7.787711]}, "properties": {"id": "KOS-068", "nama": "Kos Contoh 68", "jenis": "Campur", "harga_median": 800000, "sumber_harga": "survei", "h3_index": "898d8cb8123ffff", "jarak_halte_m": 851}}, {"type": "Feature", "geometry": {"type": "Point", "coordinates": [110.420927, -7.819851]}, "properties": {"id": "KOS-069", "nama": "Kos Contoh 69", "jenis": "Putra", "harga_median": 1000000, "sumber_harga": "model", "h3_index": "898d8cba663ffff", "jarak_halte_m": 1260}}, {"type": "Feature", "geometry": {"type": "Point", "coordinates": [110.404941, -7.832181]}, "properties": {"id": "KOS-070", "nama": "Kos Contoh 70", "jenis": "Campur", "harga_median": 1500000, "sumber_harga": "model", "h3_index": "898d8cba0cfffff", "jarak_halte_m": 1062}}, {"type": "Feature", "geometry": {"type": "Point", "coordinates": [110.397571, -7.699325]}, "properties": {"id": "KOS-071", "nama": "Kos Contoh 71", "jenis": "Campur", "harga_median": 1250000, "sumber_harga": "survei", "h3_index": "898d8c16c77ffff", "jarak_halte_m": 414}}, {"type": "Feature", "geometry": {"type": "Point", "coordinates": [110.404799, -7.777608]}, "properties": {"id": "KOS-072", "nama": "Kos Contoh 72", "jenis": "Putra", "harga_median": 950000, "sumber_harga": "model", "h3_index": "898d8cb86c3ffff", "jarak_halte_m": 580}}, {"type": "Feature", "geometry": {"type": "Point", "coordinates": [110.368304, -7.805198]}, "properties": {"id": "KOS-073", "nama": "Kos Contoh 73", "jenis": "Putri", "harga_median": 775000, "sumber_harga": "model", "h3_index": "898d8cb850fffff", "jarak_halte_m": 733}}, {"type": "Feature", "geometry": {"type": "Point", "coordinates": [110.429724, -7.772305]}, "properties": {"id": "KOS-074", "nama": "Kos Contoh 74", "jenis": "Putri", "harga_median": 1475000, "sumber_harga": "survei", "h3_index": "898d8cbb3c3ffff", "jarak_halte_m": 1250}}, {"type": "Feature", "geometry": {"type": "Point", "coordinates": [110.420967, -7.781592]}, "properties": {"id": "KOS-075", "nama": "Kos Contoh 75", "jenis": "Putri", "harga_median": 850000, "sumber_harga": "survei", "h3_index": "898d8cbb387ffff", "jarak_halte_m": 646}}, {"type": "Feature", "geometry": {"type": "Point", "coordinates": [110.431802, -7.715246]}, "properties": {"id": "KOS-076", "nama": "Kos Contoh 76", "jenis": "Campur", "harga_median": 1075000, "sumber_harga": "model", "h3_index": "898d8c16537ffff", "jarak_halte_m": 769}}, {"type": "Feature", "geometry": {"type": "Point", "coordinates": [110.422062, -7.673968]}, "properties": {"id": "KOS-077", "nama": "Kos Contoh 77", "jenis": "Putra", "harga_median": 725000, "sumber_harga": "survei", "h3_index": "898d8c16323ffff", "jarak_halte_m": 313}}, {"type": "Feature", "geometry": {"type": "Point", "coordinates": [110.455694, -7.778815]}, "properties": {"id": "KOS-078", "nama": "Kos Contoh 78", "jenis": "Putri", "harga_median": 1075000, "sumber_harga": "model", "h3_index": "898d8cbb603ffff", "jarak_halte_m": 339}}, {"type": "Feature", "geometry": {"type": "Point", "coordinates": [110.396061, -7.689479]}, "properties": {"id": "KOS-079", "nama": "Kos Contoh 79", "jenis": "Putra", "harga_median": 525000, "sumber_harga": "model", "h3_index": "898d8c168d7ffff", "jarak_halte_m": 1478}}, {"type": "Feature", "geometry": {"type": "Point", "coordinates": [110.437427, -7.760238]}, "properties": {"id": "KOS-080", "nama": "Kos Contoh 80", "jenis": "Putra", "harga_median": 1350000, "sumber_harga": "survei", "h3_index": "898d8cbb277ffff", "jarak_halte_m": 364}}, {"type": "Feature", "geometry": {"type": "Point", "coordinates": [110.454998, -7.762484]}, "properties": {"id": "KOS-081", "nama": "Kos Contoh 81", "jenis": "Putra", "harga_median": 550000, "sumber_harga": "model", "h3_index": "898d8c8cd33ffff", "jarak_halte_m": 842}}, {"type": "Feature", "geometry": {"type": "Point", "coordinates": [110.423712, -7.659313]}, "properties": {"id": "KOS-082", "nama": "Kos Contoh 82", "jenis": "Campur", "harga_median": 1275000, "sumber_harga": "model", "h3_index": "898d8c145cfffff", "jarak_halte_m": 42}}, {"type": "Feature", "geometry": {"type": "Point", "coordinates": [110.452257, -7.799329]}, "properties": {"id": "KOS-083", "nama": "Kos Contoh 83", "jenis": "Putri", "harga_median": 625000, "sumber_harga": "model", "h3_index": "898d8cbb41bffff", "jarak_halte_m": 1381}}, {"type": "Feature", "geometry": {"type": "Point", "coordinates": [110.408136, -7.831519]}, "properties": {"id": "KOS-084", "nama": "Kos Contoh 84", "jenis": "Putra", "harga_median": 825000, "sumber_harga": "model", "h3_index": "898d8cba0cbffff", "jarak_halte_m": 1464}}, {"type": "Feature", "geometry": {"type": "Point", "coordinates": [110.420078, -7.83323]}, "properties": {"id": "KOS-085", "nama": "Kos Contoh 85", "jenis": "Putra", "harga_median": 475000, "sumber_harga": "model", "h3_index": "898d8cba6bbffff", "jarak_halte_m": 607}}, {"type": "Feature", "geometry": {"type": "Point", "coordinates": [110.418117, -7.798737]}, "properties": {"id": "KOS-086", "nama": "Kos Contoh 86", "jenis": "Putra", "harga_median": 1250000, "sumber_harga": "model", "h3_index": "898d8cbb183ffff", "jarak_halte_m": 149}}, {"type": "Feature", "geometry": {"type": "Point", "coordinates": [110.380459, -7.735412]}, "properties": {"id": "KOS-087", "nama": "Kos Contoh 87", "jenis": "Campur", "harga_median": 1275000, "sumber_harga": "survei", "h3_index": "898d8cb9e93ffff", "jarak_halte_m": 683}}, {"type": "Feature", "geometry": {"type": "Point", "coordinates": [110.370263, -7.807735]}, "properties": {"id": "KOS-088", "nama": "Kos Contoh 88", "jenis": "Putra", "harga_median": 1275000, "sumber_harga": "model", "h3_index": "898d8cb85bbffff", "jarak_halte_m": 425}}, {"type": "Feature", "geometry": {"type": "Point", "coordinates": [110.412956, -7.655542]}, "properties": {"id": "KOS-089", "nama": "Kos Contoh 89", "jenis": "Putra", "harga_median": 1125000, "sumber_harga": "model", "h3_index": "898d8c14577ffff", "jarak_halte_m": 1207}}, {"type": "Feature", "geometry": {"type": "Point", "coordinates": [110.395903, -7.748383]}, "properties": {"id": "KOS-090", "nama": "Kos Contoh 90", "jenis": "Putra", "harga_median": 625000, "sumber_harga": "model", "h3_index": "898d8cb919bffff", "jarak_halte_m": 382}}, {"type": "Feature", "geometry": {"type": "Point", "coordinates": [110.373471, -7.804747]}, "properties": {"id": "KOS-091", "nama": "Kos Contoh 91", "jenis": "Putri", "harga_median": 1075000, "sumber_harga": "survei", "h3_index": "898d8cb851bffff", "jarak_halte_m": 649}}, {"type": "Feature", "geometry": {"type": "Point", "coordinates": [110.421047, -7.722646]}, "properties": {"id": "KOS-092", "nama": "Kos Contoh 92", "jenis": "Putra", "harga_median": 775000, "sumber_harga": "model", "h3_index": "898d8cb929bffff", "jarak_halte_m": 516}}, {"type": "Feature", "geometry": {"type": "Point", "coordinates": [110.428994, -7.708771]}, "properties": {"id": "KOS-093", "nama": "Kos Contoh 93", "jenis": "Putri", "harga_median": 1475000, "sumber_harga": "survei", "h3_index": "898d8c16523ffff", "jarak_halte_m": 748}}, {"type": "Feature", "geometry": {"type": "Point", "coordinates": [110.370491, -7.785514]}, "properties": {"id": "KOS-094", "nama": "Kos Contoh 94", "jenis": "Putra", "harga_median": 500000, "sumber_harga": "survei", "h3_index": "898d8cb8033ffff", "jarak_halte_m": 1439}}, {"type": "Feature", "geometry": {"type": "Point", "coordinates": [110.449795, -7.801672]}, "properties": {"id": "KOS-095", "nama": "Kos Contoh 95", "jenis": "Putri", "harga_median": 1525000, "sumber_harga": "model", "h3_index": "898d8cbb403ffff", "jarak_halte_m": 767}}, {"type": "Feature", "geometry": {"type": "Point", "coordinates": [110.454699, -7.754332]}, "properties": {"id": "KOS-096", "nama": "Kos Contoh 96", "jenis": "Campur", "harga_median": 1025000, "sumber_harga": "model", "h3_index": "898d8c8cd67ffff", "jarak_halte_m": 932}}, {"type": "Feature", "geometry": {"type": "Point", "coordinates": [110.415612, -7.64668]}, "properties": {"id": "KOS-097", "nama": "Kos Contoh 97", "jenis": "Putri", "harga_median": 575000, "sumber_harga": "model", "h3_index": "898d8c140a7ffff", "jarak_halte_m": 1180}}, {"type": "Feature", "geometry": {"type": "Point", "coordinates": [110.358567, -7.779321]}, "properties": {"id": "KOS-098", "nama": "Kos Contoh 98", "jenis": "Putra", "harga_median": 1175000, "sumber_harga": "model", "h3_index": "898d8cb83b3ffff", "jarak_halte_m": 456}}, {"type": "Feature", "geometry": {"type": "Point", "coordinates": [110.450019, -7.790867]}, "properties": {"id": "KOS-099", "nama": "Kos Contoh 99", "jenis": "Campur", "harga_median": 550000, "sumber_harga": "model", "h3_index": "898d8cbb6b7ffff", "jarak_halte_m": 226}}, {"type": "Feature", "geometry": {"type": "Point", "coordinates": [110.366934, -7.792189]}, "properties": {"id": "KOS-100", "nama": "Kos Contoh 100", "jenis": "Putri", "harga_median": 1100000, "sumber_harga": "model", "h3_index": "898d8cb81d3ffff", "jarak_halte_m": 850}}, {"type": "Feature", "geometry": {"type": "Point", "coordinates": [110.398272, -7.740312]}, "properties": {"id": "KOS-101", "nama": "Kos Contoh 101", "jenis": "Putra", "harga_median": 750000, "sumber_harga": "model", "h3_index": "898d8cb91cbffff", "jarak_halte_m": 244}}, {"type": "Feature", "geometry": {"type": "Point", "coordinates": [110.428094, -7.823058]}, "properties": {"id": "KOS-102", "nama": "Kos Contoh 102", "jenis": "Putra", "harga_median": 1250000, "sumber_harga": "survei", "h3_index": "898d8cba657ffff", "jarak_halte_m": 320}}, {"type": "Feature", "geometry": {"type": "Point", "coordinates": [110.417659, -7.703138]}, "properties": {"id": "KOS-103", "nama": "Kos Contoh 103", "jenis": "Campur", "harga_median": 600000, "sumber_harga": "model", "h3_index": "898d8c161b7ffff", "jarak_halte_m": 93}}, {"type": "Feature", "geometry": {"type": "Point", "coordinates": [110.377247, -7.799224]}, "properties": {"id": "KOS-104", "nama": "Kos Contoh 104", "jenis": "Putri", "harga_median": 1525000, "sumber_harga": "model", "h3_index": "898d8cb8553ffff", "jarak_halte_m": 1371}}, {"type": "Feature", "geometry": {"type": "Point", "coordinates": [110.383868, -7.66688]}, "properties": {"id": "KOS-105", "nama": "Kos Contoh 105", "jenis": "Putri", "harga_median": 1275000, "sumber_harga": "survei", "h3_index": "898d8c16a27ffff", "jarak_halte_m": 267}}, {"type": "Feature", "geometry": {"type": "Point", "coordinates": [110.427902, -7.81012]}, "properties": {"id": "KOS-106", "nama": "Kos Contoh 106", "jenis": "Campur", "harga_median": 550000, "sumber_harga": "model", "h3_index": "898d8cbb513ffff", "jarak_halte_m": 565}}, {"type": "Feature", "geometry": {"type": "Point", "coordinates": [110.443492, -7.796256]}, "properties": {"id": "KOS-107", "nama": "Kos Contoh 107", "jenis": "Campur", "harga_median": 625000, "sumber_harga": "survei", "h3_index": "898d8cbb477ffff", "jarak_halte_m": 106}}, {"type": "Feature", "geometry": {"type": "Point", "coordinates": [110.405228, -7.669253]}, "properties": {"id": "KOS-108", "nama": "Kos Contoh 108", "jenis": "Putri", "harga_median": 925000, "sumber_harga": "model", "h3_index": "898d8c16ad3ffff", "jarak_halte_m": 939}}, {"type": "Feature", "geometry": {"type": "Point", "coordinates": [110.342387, -7.769753]}, "properties": {"id": "KOS-109", "nama": "Kos Contoh 109", "jenis": "Campur", "harga_median": 1575000, "sumber_harga": "model", "h3_index": "898d8cb8e47ffff", "jarak_halte_m": 1454}}, {"type": "Feature", "geometry": {"type": "Point", "coordinates": [110.423525, -7.827031]}, "properties": {"id": "KOS-110", "nama": "Kos Contoh 110", "jenis": "Putri", "harga_median": 1350000, "sumber_harga": "survei", "h3_index": "898d8cba61bffff", "jarak_halte_m": 772}}, {"type": "Feature", "geometry": {"type": "Point", "coordinates": [110.402405, -7.723027]}, "properties": {"id": "KOS-111", "nama": "Kos Contoh 111", "jenis": "Campur", "harga_median": 1450000, "sumber_harga": "model", "h3_index": "898d8cb93c7ffff", "jarak_halte_m": 892}}, {"type": "Feature", "geometry": {"type": "Point", "coordinates": [110.445036, -7.821917]}, "properties": {"id": "KOS-112", "nama": "Kos Contoh 112", "jenis": "Campur", "harga_median": 1325000, "sumber_harga": "survei", "h3_index": "898d8c85b13ffff", "jarak_halte_m": 116}}, {"type": "Feature", "geometry": {"type": "Point", "coordinates": [110.430231, -7.724094]}, "properties": {"id": "KOS-113", "nama": "Kos Contoh 113", "jenis": "Putra", "harga_median": 1250000, "sumber_harga": "model", "h3_index": "898d8cb9663ffff", "jarak_halte_m": 23}}, {"type": "Feature", "geometry": {"type": "Point", "coordinates": [110.406248, -7.715445]}, "properties": {"id": "KOS-114", "nama": "Kos Contoh 114", "jenis": "Putri", "harga_median": 1525000, "sumber_harga": "model", "h3_index": "898d8cb9227ffff", "jarak_halte_m": 1260}}, {"type": "Feature", "geometry": {"type": "Point", "coordinates": [110.430282, -7.81689]}, "properties": {"id": "KOS-115", "nama": "Kos Contoh 115", "jenis": "Campur", "harga_median": 600000, "sumber_harga": "model", "h3_index": "898d8cbb593ffff", "jarak_halte_m": 1090}}, {"type": "Feature", "geometry": {"type": "Point", "coordinates": [110.337002, -7.769838]}, "properties": {"id": "KOS-116", "nama": "Kos Contoh 116", "jenis": "Putri", "harga_median": 1125000, "sumber_harga": "survei", "h3_index": "898d8cb8e77ffff", "jarak_halte_m": 24}}, {"type": "Feature", "geometry": {"type": "Point", "coordinates": [110.392895, -7.796199]}, "properties": {"id": "KOS-117", "nama": "Kos Contoh 117", "jenis": "Putra", "harga_median": 825000, "sumber_harga": "model", "h3_index": "898d8cb841bffff", "jarak_halte_m": 211}}, {"type": "Feature", "geometry": {"type": "Point", "coordinates": [110.365527, -7.763545]}, "properties": {"id": "KOS-118", "nama": "Kos Contoh 118", "jenis": "Putri", "harga_median": 1575000, "sumber_harga": "model", "h3_index": "898d8cb834fffff", "jarak_halte_m": 651}}, {"type": "Feature", "geometry": {"type": "Point", "coordinates": [110.406745, -7.822176]}, "properties": {"id": "KOS-119", "nama": "Kos Contoh 119", "jenis": "Campur", "harga_median": 1525000, "sumber_harga": "model", "h3_index": "898d8cba287ffff", "jarak_halte_m": 260}}, {"type": "Feature", "geometry": {"type": "Point", "coordinates": [110.350923, -7.766063]}, "properties": {"id": "KOS-120", "nama": "Kos Contoh 120", "jenis": "Campur", "harga_median": 1025000, "sumber_harga": "survei", "h3_index": "898d8cb9d97ffff", "jarak_halte_m": 796}}, {"type": "Feature", "geometry": {"type": "Point", "coordinates": [110.415679, -7.826909]}, "properties": {"id": "KOS-121", "nama": "Kos Contoh 121", "jenis": "Campur", "harga_median": 1125000, "sumber_harga": "survei", "h3_index": "898d8cba63bffff", "jarak_halte_m": 955}}, {"type": "Feature", "geometry": {"type": "Point", "coordinates": [110.387618, -7.740141]}, "properties": {"id": "KOS-122", "nama": "Kos Contoh 122", "jenis": "Campur", "harga_median": 1250000, "sumber_harga": "survei", "h3_index": "898d8cb910fffff", "jarak_halte_m": 509}}, {"type": "Feature", "geometry": {"type": "Point", "coordinates": [110.416872, -7.768162]}, "properties": {"id": "KOS-123", "nama": "Kos Contoh 123", "jenis": "Putra", "harga_median": 600000, "sumber_harga": "model", "h3_index": "898d8cbb377ffff", "jarak_halte_m": 751}}, {"type": "Feature", "geometry": {"type": "Point", "coordinates": [110.423706, -7.80301]}, "properties": {"id": "KOS-124", "nama": "Kos Contoh 124", "jenis": "Campur", "harga_median": 1375000, "sumber_harga": "model", "h3_index": "898d8cbb577ffff", "jarak_halte_m": 124}}, {"type": "Feature", "geometry": {"type": "Point", "coordinates": [110.414451, -7.804938]}, "properties": {"id": "KOS-125", "nama": "Kos Contoh 125", "jenis": "Putri", "harga_median": 1100000, "sumber_harga": "model", "h3_index": "898d8cba25bffff", "jarak_halte_m": 878}}, {"type": "Feature", "geometry": {"type": "Point", "coordinates": [110.412933, -7.781857]}, "properties": {"id": "KOS-126", "nama": "Kos Contoh 126", "jenis": "Campur", "harga_median": 1550000, "sumber_harga": "model", "h3_index": "898d8cbb16bffff", "jarak_halte_m": 138}}, {"type": "Feature", "geometry": {"type": "Point", "coordinates": [110.38608, -7.723443]}, "properties": {"id": "KOS-127", "nama": "Kos Contoh 127", "jenis": "Putra", "harga_median": 1175000, "sumber_harga": "model", "h3_index": "898d8cb9337ffff", "jarak_halte_m": 317}}, {"type": "Feature", "geometry": {"type": "Point", "coordinates": [110.44403, -7.77247]}, "properties": {"id": "KOS-128", "nama": "Kos Contoh 128", "jenis": "Putra", "harga_median": 1000000, "sumber_harga": "model", "h3_index": "898d8cbb28bffff", "jarak_halte_m": 111}}, {"type": "Feature", "geometry": {"type": "Point", "coordinates": [110.342769, -7.771761]}, "properties": {"id": "KOS-129", "nama": "Kos Contoh 129", "jenis": "Campur", "harga_median": 1375000, "sumber_harga": "survei", "h3_index": "898d8cb8e43ffff", "jarak_halte_m": 896}}, {"type": "Feature", "geometry": {"type": "Point", "coordinates": [110.409504, -7.66303]}, "properties": {"id": "KOS-130", "nama": "Kos Contoh 130", "jenis": "Putra", "harga_median": 775000, "sumber_harga": "survei", "h3_index": "898d8c14533ffff", "jarak_halte_m": 1235}}, {"type": "Feature", "geometry": {"type": "Point", "coordinates": [110.365093, -7.736577]}, "properties": {"id": "KOS-131", "nama": "Kos Contoh 131", "jenis": "Putri", "harga_median": 625000, "sumber_harga": "survei", "h3_index": "898d8cb98d3ffff", "jarak_halte_m": 1396}}, {"type": "Feature", "geometry": {"type": "Point", "coordinates": [110.413141, -7.82984]}, "properties": {"id": "KOS-132", "nama": "Kos Contoh 132", "jenis": "Putra", "harga_median": 1550000, "sumber_harga": "model", "h3_index": "898d8cba6afffff", "jarak_halte_m": 732}}, {"type": "Feature", "geometry": {"type": "Point", "coordinates": [110.398813, -7.708931]}, "properties": {"id": "KOS-133", "nama": "Kos Contoh 133", "jenis": "Putra", "harga_median": 925000, "sumber_harga": "model", "h3_index": "898d8c16ca3ffff", "jarak_halte_m": 42}}, {"type": "Feature", "geometry": {"type": "Point", "coordinates": [110.369586, -7.744681]}, "properties": {"id": "KOS-134", "nama": "Kos Contoh 134", "jenis": "Campur", "harga_median": 1025000, "sumber_harga": "model", "h3_index": "898d8cb9c0bffff", "jarak_halte_m": 57}}, {"type": "Feature", "geometry": {"type": "Point", "coordinates": [110.34919, -7.741371]}, "properties": {"id": "KOS-135", "nama": "Kos Contoh 135", "jenis": "Campur", "harga_median": 725000, "sumber_harga": "model", "h3_index": "898d8cb98bbffff", "jarak_halte_m": 326}}, {"type": "Feature", "geometry": {"type": "Point", "coordinates": [110.396124, -7.782912]}, "properties": {"id": "KOS-136", "nama": "Kos Contoh 136", "jenis": "Putra", "harga_median": 1050000, "sumber_harga": "model", "h3_index": "898d8cb86bbffff", "jarak_halte_m": 993}}, {"type": "Feature", "geometry": {"type": "Point", "coordinates": [110.3584, -7.769524]}, "properties": {"id": "KOS-137", "nama": "Kos Contoh 137", "jenis": "Putri", "harga_median": 675000, "sumber_harga": "survei", "h3_index": "898d8cb8333ffff", "jarak_halte_m": 115}}, {"type": "Feature", "geometry": {"type": "Point", "coordinates": [110.39996, -7.660098]}, "properties": {"id": "KOS-138", "nama": "Kos Contoh 138", "jenis": "Putra", "harga_median": 750000, "sumber_harga": "model", "h3_index": "898d8c16a57ffff", "jarak_halte_m": 88}}, {"type": "Feature", "geometry": {"type": "Point", "coordinates": [110.355058, -7.786295]}, "properties": {"id": "KOS-139", "nama": "Kos Contoh 139", "jenis": "Putra", "harga_median": 1050000, "sumber_harga": "model", "h3_index": "898d8cb810bffff", "jarak_halte_m": 1312}}, {"type": "Feature", "geometry": {"type": "Point", "coordinates": [110.430086, -7.719946]}, "properties": {"id": "KOS-140", "nama": "Kos Contoh 140", "jenis": "Campur", "harga_median": 900000, "sumber_harga": "model", "h3_index": "898d8cb966bffff", "jarak_halte_m": 952}}, {"type": "Feature", "geometry": {"type": "Point", "coordinates": [110.417447, -7.7925]}, "properties": {"id": "KOS-141", "nama": "Kos Contoh 141", "jenis": "Putri", "harga_median": 1400000, "sumber_harga": "model", "h3_index": "898d8cbb1c7ffff", "jarak_halte_m": 1343}}, {"type": "Feature", "geometry": {"type": "Point", "coordinates": [110.393185, -7.816987]}, "properties": {"id": "KOS-142", "nama": "Kos Contoh 142", "jenis": "Putri", "harga_median": 1475000, "sumber_harga": "survei", "h3_index": "898d8cba3cbffff", "jarak_halte_m": 1478}}, {"type": "Feature", "geometry": {"type": "Point", "coordinates": [110.381447, -7.751253]}, "properties": {"id": "KOS-143", "nama": "Kos Contoh 143", "jenis": "Putri", "harga_median": 1200000, "sumber_harga": "model", "h3_index": "898d8cb826bffff", "jarak_halte_m": 196}}, {"type": "Feature", "geometry": {"type": "Point", "coordinates": [110.468286, -7.740101]}, "properties": {"id": "KOS-144", "nama": "Kos Contoh 144", "jenis": "Putri", "harga_median": 1325000, "sumber_harga": "survei", "h3_index": "898d8c8c803ffff", "jarak_halte_m": 1007}}, {"type": "Feature", "geometry": {"type": "Point", "coordinates": [110.402547, -7.770686]}, "properties": {"id": "KOS-145", "nama": "Kos Contoh 145", "jenis": "Campur", "harga_median": 1125000, "sumber_harga": "model", "h3_index": "898d8cb864fffff", "jarak_halte_m": 653}}, {"type": "Feature", "geometry": {"type": "Point", "coordinates": [110.424886, -7.771611]}, "properties": {"id": "KOS-146", "nama": "Kos Contoh 146", "jenis": "Putra", "harga_median": 800000, "sumber_harga": "model", "h3_index": "898d8cbb3c7ffff", "jarak_halte_m": 1207}}, {"type": "Feature", "geometry": {"type": "Point", "coordinates": [110.38789, -7.718497]}, "properties": {"id": "KOS-147", "nama": "Kos Contoh 147", "jenis": "Campur", "harga_median": 1225000, "sumber_harga": "survei", "h3_index": "898d8cb932bffff", "jarak_halte_m": 698}}, {"type": "Feature", "geometry": {"type": "Point", "coordinates": [110.390626, -7.679123]}, "properties": {"id": "KOS-148", "nama": "Kos Contoh 148", "jenis": "Campur", "harga_median": 1100000, "sumber_harga": "model", "h3_index": "898d8c16847ffff", "jarak_halte_m": 1151}}, {"type": "Feature", "geometry": {"type": "Point", "coordinates": [110.418396, -7.710595]}, "properties": {"id": "KOS-149", "nama": "Kos Contoh 149", "jenis": "Putri", "harga_median": 700000, "sumber_harga": "model", "h3_index": "898d8cb920bffff", "jarak_halte_m": 1151}}, {"type": "Feature", "geometry": {"type": "Point", "coordinates": [110.440068, -7.813929]}, "properties": {"id": "KOS-150", "nama": "Kos Contoh 150", "jenis": "Campur", "harga_median": 1325000, "sumber_harga": "survei", "h3_index": "898d8c85b63ffff", "jarak_halte_m": 1179}}, {"type": "Feature", "geometry": {"type": "Point", "coordinates": [110.369413, -7.771958]}, "properties": {"id": "KOS-151", "nama": "Kos Contoh 151", "jenis": "Campur", "harga_median": 700000, "sumber_harga": "model", "h3_index": "898d8cb83d7ffff", "jarak_halte_m": 93}}, {"type": "Feature", "geometry": {"type": "Point", "coordinates": [110.395985, -7.828442]}, "properties": {"id": "KOS-152", "nama": "Kos Contoh 152", "jenis": "Putra", "harga_median": 1475000, "sumber_harga": "model", "h3_index": "898d8cba077ffff", "jarak_halte_m": 991}}, {"type": "Feature", "geometry": {"type": "Point", "coordinates": [110.437041, -7.704785]}, "properties": {"id": "KOS-153", "nama": "Kos Contoh 153", "jenis": "Putri", "harga_median": 475000, "sumber_harga": "model", "h3_index": "898d8c16573ffff", "jarak_halte_m": 1260}}, {"type": "Feature", "geometry": {"type": "Point", "coordinates": [110.405524, -7.659088]}, "properties": {"id": "KOS-154", "nama": "Kos Contoh 154", "jenis": "Putra", "harga_median": 1250000, "sumber_harga": "survei", "h3_index": "898d8c14527ffff", "jarak_halte_m": 601}}, {"type": "Feature", "geometry": {"type": "Point", "coordinates": [110.379005, -7.785668]}, "properties": {"id": "KOS-155", "nama": "Kos Contoh 155", "jenis": "Putri", "harga_median": 1275000, "sumber_harga": "survei", "h3_index": "898d8cb8013ffff", "jarak_halte_m": 1064}}, {"type": "Feature", "geometry": {"type": "Point", "coordinates": [110.434386, -7.689306]}, "properties": {"id": "KOS-156", "nama": "Kos Contoh 156", "jenis": "Putra", "harga_median": 1575000, "sumber_harga": "model", "h3_index": "898d8c16027ffff", "jarak_halte_m": 798}}, {"type": "Feature", "geometry": {"type": "Point", "coordinates": [110.35596, -7.79316]}, "properties": {"id": "KOS-157", "nama": "Kos Contoh 157", "jenis": "Campur", "harga_median": 1525000, "sumber_harga": "model", "h3_index": "898d8cb81bbffff", "jarak_halte_m": 921}}, {"type": "Feature", "geometry": {"type": "Point", "coordinates": [110.421514, -7.714305]}, "properties": {"id": "KOS-158", "nama": "Kos Contoh 158", "jenis": "Putra", "harga_median": 500000, "sumber_harga": "model", "h3_index": "898d8cb921bffff", "jarak_halte_m": 945}}, {"type": "Feature", "geometry": {"type": "Point", "coordinates": [110.412673, -7.780815]}, "properties": {"id": "KOS-159", "nama": "Kos Contoh 159", "jenis": "Putri", "harga_median": 1000000, "sumber_harga": "model", "h3_index": "898d8cbb3b7ffff", "jarak_halte_m": 216}}, {"type": "Feature", "geometry": {"type": "Point", "coordinates": [110.44533, -7.785134]}, "properties": {"id": "KOS-160", "nama": "Kos Contoh 160", "jenis": "Putri", "harga_median": 525000, "sumber_harga": "survei", "h3_index": "898d8cbb0dbffff", "jarak_halte_m": 379}}, {"type": "Feature", "geometry": {"type": "Point", "coordinates": [110.444497, -7.821211]}, "properties": {"id": "KOS-161", "nama": "Kos Contoh 161", "jenis": "Campur", "harga_median": 1075000, "sumber_harga": "model", "h3_index": "898d8c85b1bffff", "jarak_halte_m": 239}}, {"type": "Feature", "geometry": {"type": "Point", "coordinates": [110.386725, -7.704555]}, "properties": {"id": "KOS-162", "nama": "Kos Contoh 162", "jenis": "Putra", "harga_median": 525000, "sumber_harga": "survei", "h3_index": "898d8c16d57ffff", "jarak_halte_m": 844}}, {"type": "Feature", "geometry": {"type": "Point", "coordinates": [110.432398, -7.711577]}, "properties": {"id": "KOS-163", "nama": "Kos Contoh 163", "jenis": "Campur", "harga_median": 1300000, "sumber_harga": "model", "h3_index": "898d8c16533ffff", "jarak_halte_m": 1058}}, {"type": "Feature", "geometry": {"type": "Point", "coordinates": [110.417148, -7.710466]}, "properties": {"id": "KOS-164", "nama": "Kos Contoh 164", "jenis": "Campur", "harga_median": 650000, "sumber_harga": "model", "h3_index": "898d8cb9273ffff", "jarak_halte_m": 1427}}, {"type": "Feature", "geometry": {"type": "Point", "coordinates": [110.445607, -7.764976]}, "properties": {"id": "KOS-165", "nama": "Kos Contoh 165", "jenis": "Putri", "harga_median": 1425000, "sumber_harga": "survei", "h3_index": "898d8cbb21bffff", "jarak_halte_m": 1365}}, {"type": "Feature", "geometry": {"type": "Point", "coordinates": [110.455407, -7.758707]}, "properties": {"id": "KOS-166", "nama": "Kos Contoh 166", "jenis": "Putra", "harga_median": 1475000, "sumber_harga": "model", "h3_index": "898d8c8cd3bffff", "jarak_halte_m": 817}}, {"type": "Feature", "geometry": {"type": "Point", "coordinates": [110.40479, -7.719323]}, "properties": {"id": "KOS-167", "nama": "Kos Contoh 167", "jenis": "Campur", "harga_median": 1450000, "sumber_harga": "survei", "h3_index": "898d8cb93cbffff", "jarak_halte_m": 1473}}, {"type": "Feature", "geometry": {"type": "Point", "coordinates": [110.364667, -7.754757]}, "properties": {"id": "KOS-168", "nama": "Kos Contoh 168", "jenis": "Campur", "harga_median": 1450000, "sumber_harga": "model", "h3_index": "898d8cb9ca3ffff", "jarak_halte_m": 1042}}, {"type": "Feature", "geometry": {"type": "Point", "coordinates": [110.455487, -7.756691]}, "properties": {"id": "KOS-169", "nama": "Kos Contoh 169", "jenis": "Putri", "harga_median": 675000, "sumber_harga": "model", "h3_index": "898d8c8cd2bffff", "jarak_halte_m": 717}}, {"type": "Feature", "geometry": {"type": "Point", "coordinates": [110.434623, -7.783931]}, "properties": {"id": "KOS-170", "nama": "Kos Contoh 170", "jenis": "Putra", "harga_median": 1450000, "sumber_harga": "model", "h3_index": "898d8cbb00bffff", "jarak_halte_m": 1182}}, {"type": "Feature", "geometry": {"type": "Point", "coordinates": [110.376073, -7.80726]}, "properties": {"id": "KOS-171", "nama": "Kos Contoh 171", "jenis": "Campur", "harga_median": 1350000, "sumber_harga": "model", "h3_index": "898d8cb85c3ffff", "jarak_halte_m": 968}}, {"type": "Feature", "geometry": {"type": "Point", "coordinates": [110.395457, -7.707524]}, "properties": {"id": "KOS-172", "nama": "Kos Contoh 172", "jenis": "Campur", "harga_median": 775000, "sumber_harga": "survei", "h3_index": "898d8c16ddbffff", "jarak_halte_m": 75}}, {"type": "Feature", "geometry": {"type": "Point", "coordinates": [110.360438, -7.742063]}, "properties": {"id": "KOS-173", "nama": "Kos Contoh 173", "jenis": "Campur", "harga_median": 925000, "sumber_harga": "model", "h3_index": "898d8cb989bffff", "jarak_halte_m": 1061}}, {"type": "Feature", "geometry": {"type": "Point", "coordinates": [110.378732, -7.789983]}, "properties": {"id": "KOS-174", "nama": "Kos Contoh 174", "jenis": "Putri", "harga_median": 600000, "sumber_harga": "model", "h3_index": "898d8cb808fffff", "jarak_halte_m": 880}}, {"type": "Feature", "geometry": {"type": "Point", "coordinates": [110.444152, -7.781803]}, "properties": {"id": "KOS-175", "nama": "Kos Contoh 175", "jenis": "Putri", "harga_median": 1550000, "sumber_harga": "model", "h3_index": "898d8cbb627ffff", "jarak_halte_m": 1481}}, {"type": "Feature", "geometry": {"type": "Point", "coordinates": [110.3684, -7.791367]}, "properties": {"id": "KOS-176", "nama": "Kos Contoh 176", "jenis": "Putra", "harga_median": 1050000, "sumber_harga": "survei", "h3_index": "898d8cb80a7ffff", "jarak_halte_m": 151}}, {"type": "Feature", "geometry": {"type": "Point", "coordinates": [110.374954, -7.755375]}, "properties": {"id": "KOS-177", "nama": "Kos Contoh 177", "jenis": "Campur", "harga_median": 850000, "sumber_harga": "model", "h3_index": "898d8cb9c9bffff", "jarak_halte_m": 196}}, {"type": "Feature", "geometry": {"type": "Point", "coordinates": [110.41088, -7.723053]}, "properties": {"id": "KOS-178", "nama": "Kos Contoh 178", "jenis": "Putri", "harga_median": 800000, "sumber_harga": "survei", "h3_index": "898d8cb92a7ffff", "jarak_halte_m": 228}}, {"type": "Feature", "geometry": {"type": "Point", "coordinates": [110.411414, -7.832453]}, "properties": {"id": "KOS-179", "nama": "Kos Contoh 179", "jenis": "Campur", "harga_median": 1200000, "sumber_harga": "survei", "h3_index": "898d8cba0dbffff", "jarak_halte_m": 682}}, {"type": "Feature", "geometry": {"type": "Point", "coordinates": [110.376405, -7.74247]}, "properties": {"id": "KOS-180", "nama": "Kos Contoh 180", "jenis": "Putri", "harga_median": 1175000, "sumber_harga": "survei", "h3_index": "898d8cb9c5bffff", "jarak_halte_m": 437}}]}