{"type": "FeatureCollection", "name": "krl", "crs": {"type": "name", "properties": {"name": "urn:ogc:def:crs:OGC:1.3:CRS84"}}, "features": [{"type": "Feature", "geometry": {"type": "Point", "coordinates": [110.500401, -7.75663]}, "properties": {"nama": "Brambanan"}}, {"type": "Feature", "geometry": {"type": "Point", "coordinates": [110.325331, -7.790724]}, "properties": {"nama": "Patukan"}}, {"type": "Feature", "geometry": {"type": "Point", "coordinates": [110.284271, -7.796136]}, "properties": {"nama": "Rewulu"}}, {"type": "Feature", "geometry": {"type": "Point", "coordinates": [110.220257, -7.833229]}, "properties": {"nama": "Sentolo"}}, {"type": "Feature", "geometry": {"type": "Point", "coordinates": [110.549358, -7.741357]}, "properties": {"nama": "Srowot"}}, {"type": "Feature", "geometry": {"type": "Point", "coordinates": [110.602974, -7.712354]}, "properties": {"nama": "Klaten"}}, {"type": "Feature", "geometry": {"type": "Point", "coordinates": [110.436916, -7.785094]}, "properties": {"nama": "Maguwo"}}, {"type": "Feature", "geometry": {"type": "Point", "coordinates": [110.375521, -7.790292]}, "properties": {"nama": "Lempuyangan"}}, {"type": "Feature", "geometry": {"type": "Point", "coordinates": [110.363465, -7.789239]}, "properties": {"nama": "Yogyakarta"}}, {"type": "Feature", "geometry": {"type": "Point", "coordinates": [110.236529, -7.80652]}, "properties": {"nama": "Stasiun Tram Gamplong Studio"}}, {"type": "Feature", "geometry": {"type": "Point", "coordinates": [110.343568, -7.829018]}, "properties": {"nama": "Madu Candhya"}}, {"type": "Feature", "geometry": {"type": "Point", "coordinates": [110.34626, -7.832881]}, "properties": {"nama": "Madukismo"}}]}