{
"type": "FeatureCollection",
"name": "kampus_gerbang_10",
"crs": { "type": "name", "properties": { "name": "urn:ogc:def:crs:OGC:1.3:CRS84" } },
"features": [
{ "type": "Feature", "properties": { "kampus": "UGM", "osm_node": 1390691962, "entrance": null, "barrier": "gate" }, "geometry": { "type": "Point", "coordinates": [ 110.3765414, -7.7631926 ] } },
{ "type": "Feature", "properties": { "kampus": "UGM", "osm_node": 3451843530, "entrance": null, "barrier": "gate" }, "geometry": { "type": "Point", "coordinates": [ 110.3770323, -7.7632221 ] } },
{ "type": "Feature", "properties": { "kampus": "UGM", "osm_node": 3451843532, "entrance": null, "barrier": "gate" }, "geometry": { "type": "Point", "coordinates": [ 110.3774043, -7.7632804 ] } },
{ "type": "Feature", "properties": { "kampus": "UGM", "osm_node": 3874351512, "entrance": null, "barrier": "gate" }, "geometry": { "type": "Point", "coordinates": [ 110.3793871, -7.7759933 ] } },
{ "type": "Feature", "properties": { "kampus": "UGM", "osm_node": 5358348435, "entrance": null, "barrier": "gate" }, "geometry": { "type": "Point", "coordinates": [ 110.3762666, -7.7717112 ] } },
{ "type": "Feature", "properties": { "kampus": "UGM", "osm_node": 5358353613, "entrance": null, "barrier": "gate" }, "geometry": { "type": "Point", "coordinates": [ 110.3775259, -7.768181 ] } },
{ "type": "Feature", "properties": { "kampus": "UGM", "osm_node": 5377609432, "entrance": null, "barrier": "gate" }, "geometry": { "type": "Point", "coordinates": [ 110.3809215, -7.7717946 ] } },
{ "type": "Feature", "properties": { "kampus": "UGM", "osm_node": 5922737653, "entrance": null, "barrier": "gate" }, "geometry": { "type": "Point", "coordinates": [ 110.381328, -7.7667803 ] } },
{ "type": "Feature", "properties": { "kampus": "UGM", "osm_node": 5980432907, "entrance": null, "barrier": "gate" }, "geometry": { "type": "Point", "coordinates": [ 110.3755859, -7.772766 ] } },
{ "type": "Feature", "properties": { "kampus": "UGM", "osm_node": 5987527245, "entrance": null, "barrier": "gate" }, "geometry": { "type": "Point", "coordinates": [ 110.3771569, -7.7632454 ] } },
{ "type": "Feature", "properties": { "kampus": "UGM", "osm_node": 5987527247, "entrance": null, "barrier": "gate" }, "geometry": { "type": "Point", "coordinates": [ 110.3772795, -7.7632693 ] } },
{ "type": "Feature", "properties": { "kampus": "UGM", "osm_node": 6748835370, "entrance": null, "barrier": "gate" }, "geometry": { "type": "Point", "coordinates": [ 110.3745112, -7.7719426 ] } },
{ "type": "Feature", "properties": { "kampus": "UGM", "osm_node": 6934603111, "entrance": null, "barrier": "gate" }, "geometry": { "type": "Point", "coordinates": [ 110.3772121, -7.7760386 ] } },
{ "type": "Feature", "properties": { "kampus": "UGM", "osm_node": 7174126070, "entrance": null, "barrier": "gate" }, "geometry": { "type": "Point", "coordinates": [ 110.3776211, -7.7684454 ] } },
{ "type": "Feature", "properties": { "kampus": "UGM", "osm_node": 7601227234, "entrance": null, "barrier": "gate" }, "geometry": { "type": "Point", "coordinates": [ 110.3806532, -7.7743599 ] } },
{ "type": "Feature", "properties": { "kampus": "UGM", "osm_node": 7637136637, "entrance": null, "barrier": "gate" }, "geometry": { "type": "Point", "coordinates": [ 110.3859673, -7.7693457 ] } },
{ "type": "Feature", "properties": { "kampus": "UGM", "osm_node": 8437324221, "entrance": null, "barrier": "gate" }, "geometry": { "type": "Point", "coordinates": [ 110.385182, -7.7684392 ] } },
{ "type": "Feature", "properties": { "kampus": "UGM", "osm_node": 8695578597, "entrance": null, "barrier": "gate" }, "geometry": { "type": "Point", "coordinates": [ 110.377749, -7.7633609 ] } },
{ "type": "Feature", "properties": { "kampus": "UGM", "osm_node": 8837559088, "entrance": null, "barrier": "gate" }, "geometry": { "type": "Point", "coordinates": [ 110.3745165, -7.767354 ] } },
{ "type": "Feature", "properties": { "kampus": "UGM", "osm_node": 8837559091, "entrance": null, "barrier": "gate" }, "geometry": { "type": "Point", "coordinates": [ 110.3744855, -7.7674485 ] } },
{ "type": "Feature", "properties": { "kampus": "UGM", "osm_node": 8874112955, "entrance": null, "barrier": "gate" }, "geometry": { "type": "Point", "coordinates": [ 110.3781801, -7.7671068 ] } },
{ "type": "Feature", "properties": { "kampus": "UGM", "osm_node": 9157861768, "entrance": null, "barrier": "gate" }, "geometry": { "type": "Point", "coordinates": [ 110.3881333, -7.7664848 ] } },
{ "type": "Feature", "properties": { "kampus": "UGM", "osm_node": 9179338590, "entrance": null, "barrier": "gate" }, "geometry": { "type": "Point", "coordinates": [ 110.3765563, -7.770525 ] } },
{ "type": "Feature", "properties": { "kampus": "UGM", "osm_node": 9179338591, "entrance": null, "barrier": "gate" }, "geometry": { "type": "Point", "coordinates": [ 110.3759285, -7.7721225 ] } },
{ "type": "Feature", "properties": { "kampus": "UGM", "osm_node": 9179338592, "entrance": null, "barrier": "gate" }, "geometry": { "type": "Point", "coordinates": [ 110.375802, -7.7724112 ] } },
{ "type": "Feature", "properties": { "kampus": "UGM", "osm_node": 9179685508, "entrance": null, "barrier": "gate" }, "geometry": { "type": "Point", "coordinates": [ 110.3747988, -7.7712126 ] } },
{ "type": "Feature", "properties": { "kampus": "UGM", "osm_node": 9179685512, "entrance": null, "barrier": "gate" }, "geometry": { "type": "Point", "coordinates": [ 110.3797369, -7.7727095 ] } },
{ "type": "Feature", "properties": { "kampus": "UGM", "osm_node": 9192188634, "entrance": null, "barrier": "gate" }, "geometry": { "type": "Point", "coordinates": [ 110.3790437, -7.7645653 ] } },
{ "type": "Feature", "properties": { "kampus": "UGM", "osm_node": 9192188639, "entrance": null, "barrier": "gate" }, "geometry": { "type": "Point", "coordinates": [ 110.3777964, -7.7652736 ] } },
{ "type": "Feature", "properties": { "kampus": "UGM", "osm_node": 9192512901, "entrance": null, "barrier": "gate" }, "geometry": { "type": "Point", "coordinates": [ 110.3749012, -7.7640969 ] } },
{ "type": "Feature", "properties": { "kampus": "UGM", "osm_node": 9959876435, "entrance": null, "barrier": "gate" }, "geometry": { "type": "Point", "coordinates": [ 110.3806137, -7.7744416 ] } },
{ "type": "Feature", "properties": { "kampus": "UGM", "osm_node": 10165990586, "entrance": null, "barrier": "gate" }, "geometry": { "type": "Point", "coordinates": [ 110.3810965, -7.7712857 ] } },
{ "type": "Feature", "properties": { "kampus": "UGM", "osm_node": 10247270045, "entrance": null, "barrier": "gate" }, "geometry": { "type": "Point", "coordinates": [ 110.3877128, -7.7676611 ] } },
{ "type": "Feature", "properties": { "kampus": "UGM", "osm_node": 10276680279, "entrance": null, "barrier": "gate" }, "geometry": { "type": "Point", "coordinates": [ 110.3805681, -7.7766934 ] } },
{ "type": "Feature", "properties": { "kampus": "UGM", "osm_node": 10276680280, "entrance": null, "barrier": "gate" }, "geometry": { "type": "Point", "coordinates": [ 110.3779842, -7.7762534 ] } },
{ "type": "Feature", "properties": { "kampus": "UGM", "osm_node": 10276680281, "entrance": null, "barrier": "gate" }, "geometry": { "type": "Point", "coordinates": [ 110.3770506, -7.776201 ] } },
{ "type": "Feature", "properties": { "kampus": "UGM", "osm_node": 10279637017, "entrance": null, "barrier": "gate" }, "geometry": { "type": "Point", "coordinates": [ 110.3766656, -7.7716079 ] } },
{ "type": "Feature", "properties": { "kampus": "UGM", "osm_node": 10279637018, "entrance": null, "barrier": "gate" }, "geometry": { "type": "Point", "coordinates": [ 110.3767558, -7.7716365 ] } },
{ "type": "Feature", "properties": { "kampus": "UGM", "osm_node": 10307191728, "entrance": null, "barrier": "gate" }, "geometry": { "type": "Point", "coordinates": [ 110.3737137, -7.7696416 ] } },
{ "type": "Feature", "properties": { "kampus": "UGM", "osm_node": 10307191729, "entrance": null, "barrier": "gate" }, "geometry": { "type": "Point", "coordinates": [ 110.3746363, -7.7639429 ] } },
{ "type": "Feature", "properties": { "kampus": "UGM", "osm_node": 10307252509, "entrance": null, "barrier": "gate" }, "geometry": { "type": "Point", "coordinates": [ 110.3879771, -7.7672224 ] } },
{ "type": "Feature", "properties": { "kampus": "UGM", "osm_node": 10307270219, "entrance": null, "barrier": "gate" }, "geometry": { "type": "Point", "coordinates": [ 110.3731072, -7.7745947 ] } },
{ "type": "Feature", "properties": { "kampus": "UGM", "osm_node": 10307270220, "entrance": null, "barrier": "gate" }, "geometry": { "type": "Point", "coordinates": [ 110.3733488, -7.7740191 ] } },
{ "type": "Feature", "properties": { "kampus": "UGM", "osm_node": 10307270222, "entrance": null, "barrier": "gate" }, "geometry": { "type": "Point", "coordinates": [ 110.3734995, -7.7701604 ] } },
{ "type": "Feature", "properties": { "kampus": "UGM", "osm_node": 10307423530, "entrance": null, "barrier": "gate" }, "geometry": { "type": "Point", "coordinates": [ 110.3766627, -7.7749621 ] } },
{ "type": "Feature", "properties": { "kampus": "UGM", "osm_node": 10307423554, "entrance": null, "barrier": "gate" }, "geometry": { "type": "Point", "coordinates": [ 110.3781145, -7.7720386 ] } },
{ "type": "Feature", "properties": { "kampus": "UGM", "osm_node": 10307423555, "entrance": null, "barrier": "gate" }, "geometry": { "type": "Point", "coordinates": [ 110.3779997, -7.7720051 ] } },
{ "type": "Feature", "properties": { "kampus": "UGM", "osm_node": 10307427439, "entrance": null, "barrier": "gate" }, "geometry": { "type": "Point", "coordinates": [ 110.3722617, -7.7630814 ] } },
{ "type": "Feature", "properties": { "kampus": "UGM", "osm_node": 10309023291, "entrance": null, "barrier": "gate" }, "geometry": { "type": "Point", "coordinates": [ 110.3775442, -7.7762317 ] } },
{ "type": "Feature", "properties": { "kampus": "UGM", "osm_node": 10923303632, "entrance": null, "barrier": "gate" }, "geometry": { "type": "Point", "coordinates": [ 110.3791696, -7.7689115 ] } },
{ "type": "Feature", "properties": { "kampus": "UGM", "osm_node": 11031479457, "entrance": null, "barrier": "gate" }, "geometry": { "type": "Point", "coordinates": [ 110.3865886, -7.7659802 ] } },
{ "type": "Feature", "properties": { "kampus": "UGM", "osm_node": 11258996986, "entrance": null, "barrier": "gate" }, "geometry": { "type": "Point", "coordinates": [ 110.3853661, -7.7673477 ] } },
{ "type": "Feature", "properties": { "kampus": "UGM", "osm_node": 11959523801, "entrance": null, "barrier": "gate" }, "geometry": { "type": "Point", "coordinates": [ 110.3755295, -7.7723713 ] } },
{ "type": "Feature", "properties": { "kampus": "UGM", "osm_node": 12177437675, "entrance": null, "barrier": "gate" }, "geometry": { "type": "Point", "coordinates": [ 110.375674, -7.7677122 ] } },
{ "type": "Feature", "properties": { "kampus": "UGM", "osm_node": 12177437676, "entrance": null, "barrier": "gate" }, "geometry": { "type": "Point", "coordinates": [ 110.3771588, -7.7680297 ] } },
{ "type": "Feature", "properties": { "kampus": "UGM", "osm_node": 12178299998, "entrance": null, "barrier": "gate" }, "geometry": { "type": "Point", "coordinates": [ 110.376924, -7.7672494 ] } },
{ "type": "Feature", "properties": { "kampus": "UGM", "osm_node": 12179254002, "entrance": null, "barrier": "gate" }, "geometry": { "type": "Point", "coordinates": [ 110.3751432, -7.7673189 ] } },
{ "type": "Feature", "properties": { "kampus": "UGM", "osm_node": 12179254015, "entrance": null, "barrier": "gate" }, "geometry": { "type": "Point", "coordinates": [ 110.3753839, -7.7670479 ] } },
{ "type": "Feature", "properties": { "kampus": "UGM", "osm_node": 12180882974, "entrance": null, "barrier": "gate" }, "geometry": { "type": "Point", "coordinates": [ 110.3777418, -7.7675724 ] } },
{ "type": "Feature", "properties": { "kampus": "UGM", "osm_node": 12180882975, "entrance": null, "barrier": "gate" }, "geometry": { "type": "Point", "coordinates": [ 110.377562, -7.7669216 ] } },
{ "type": "Feature", "properties": { "kampus": "UGM", "osm_node": 12180882980, "entrance": null, "barrier": "gate" }, "geometry": { "type": "Point", "coordinates": [ 110.3779291, -7.7670011 ] } },
{ "type": "Feature", "properties": { "kampus": "UGM", "osm_node": 12183501919, "entrance": null, "barrier": "gate" }, "geometry": { "type": "Point", "coordinates": [ 110.376961, -7.7653636 ] } },
{ "type": "Feature", "properties": { "kampus": "UGM", "osm_node": 12184915895, "entrance": null, "barrier": "gate" }, "geometry": { "type": "Point", "coordinates": [ 110.3759058, -7.7668507 ] } },
{ "type": "Feature", "properties": { "kampus": "UGM", "osm_node": 12198582652, "entrance": null, "barrier": "gate" }, "geometry": { "type": "Point", "coordinates": [ 110.3779096, -7.7676518 ] } },
{ "type": "Feature", "properties": { "kampus": "UGM", "osm_node": 12211716192, "entrance": null, "barrier": "gate" }, "geometry": { "type": "Point", "coordinates": [ 110.3767634, -7.770026 ] } },
{ "type": "Feature", "properties": { "kampus": "UGM", "osm_node": 12317733863, "entrance": null, "barrier": "gate" }, "geometry": { "type": "Point", "coordinates": [ 110.3816285, -7.7761926 ] } },
{ "type": "Feature", "properties": { "kampus": "UGM", "osm_node": 12330528628, "entrance": null, "barrier": "gate" }, "geometry": { "type": "Point", "coordinates": [ 110.3731152, -7.7711606 ] } },
{ "type": "Feature", "properties": { "kampus": "UGM", "osm_node": 12330536950, "entrance": null, "barrier": "gate" }, "geometry": { "type": "Point", "coordinates": [ 110.3727939, -7.7719712 ] } },
{ "type": "Feature", "properties": { "kampus": "UGM", "osm_node": 12335959201, "entrance": null, "barrier": "gate" }, "geometry": { "type": "Point", "coordinates": [ 110.3819608, -7.7752494 ] } },
{ "type": "Feature", "properties": { "kampus": "UGM", "osm_node": 12842098581, "entrance": null, "barrier": "gate" }, "geometry": { "type": "Point", "coordinates": [ 110.3753314, -7.773417 ] } },
{ "type": "Feature", "properties": { "kampus": "UGM", "osm_node": 12870724252, "entrance": null, "barrier": "gate" }, "geometry": { "type": "Point", "coordinates": [ 110.3754424, -7.7731626 ] } },
{ "type": "Feature", "properties": { "kampus": "UGM", "osm_node": 12919208395, "entrance": null, "barrier": "gate" }, "geometry": { "type": "Point", "coordinates": [ 110.3794445, -7.7760602 ] } },
{ "type": "Feature", "properties": { "kampus": "UGM", "osm_node": 13049665531, "entrance": null, "barrier": "gate" }, "geometry": { "type": "Point", "coordinates": [ 110.3776259, -7.7684136 ] } },
{ "type": "Feature", "properties": { "kampus": "UGM", "osm_node": 13188176952, "entrance": null, "barrier": "gate" }, "geometry": { "type": "Point", "coordinates": [ 110.3814922, -7.770715 ] } },
{ "type": "Feature", "properties": { "kampus": "UGM", "osm_node": 13192600440, "entrance": null, "barrier": "gate" }, "geometry": { "type": "Point", "coordinates": [ 110.3815653, -7.772206 ] } },
{ "type": "Feature", "properties": { "kampus": "UGM", "osm_node": 13398137527, "entrance": null, "barrier": "gate" }, "geometry": { "type": "Point", "coordinates": [ 110.3745533, -7.7757928 ] } },
{ "type": "Feature", "properties": { "kampus": "UGM", "osm_node": 13398204992, "entrance": null, "barrier": "gate" }, "geometry": { "type": "Point", "coordinates": [ 110.3775839, -7.7762334 ] } },
{ "type": "Feature", "properties": { "kampus": "UGM", "osm_node": 13398264710, "entrance": null, "barrier": "gate" }, "geometry": { "type": "Point", "coordinates": [ 110.3768387, -7.7762024 ] } },
{ "type": "Feature", "properties": { "kampus": "UGM", "osm_node": 13398895793, "entrance": "yes", "barrier": null }, "geometry": { "type": "Point", "coordinates": [ 110.3743014, -7.7755184 ] } },
{ "type": "Feature", "properties": { "kampus": "UGM", "osm_node": 13403987173, "entrance": null, "barrier": "gate" }, "geometry": { "type": "Point", "coordinates": [ 110.3748587, -7.7746543 ] } },
{ "type": "Feature", "properties": { "kampus": "UGM", "osm_node": 13403987174, "entrance": "yes", "barrier": null }, "geometry": { "type": "Point", "coordinates": [ 110.3749273, -7.7745305 ] } },
{ "type": "Feature", "properties": { "kampus": "UGM", "osm_node": 13403987185, "entrance": null, "barrier": "gate" }, "geometry": { "type": "Point", "coordinates": [ 110.3748397, -7.774701 ] } },
{ "type": "Feature", "properties": { "kampus": "UGM", "osm_node": 13403987186, "entrance": "yes", "barrier": null }, "geometry": { "type": "Point", "coordinates": [ 110.3749534, -7.7744662 ] } },
{ "type": "Feature", "properties": { "kampus": "UGM", "osm_node": 13403987192, "entrance": null, "barrier": "gate" }, "geometry": { "type": "Point", "coordinates": [ 110.3751193, -7.7740292 ] } },
{ "type": "Feature", "properties": { "kampus": "UGM", "osm_node": 13403987197, "entrance": null, "barrier": "gate" }, "geometry": { "type": "Point", "coordinates": [ 110.375111, -7.7740489 ] } },
{ "type": "Feature", "properties": { "kampus": "UGM", "osm_node": 13403987200, "entrance": null, "barrier": "gate" }, "geometry": { "type": "Point", "coordinates": [ 110.3746211, -7.7752319 ] } },
{ "type": "Feature", "properties": { "kampus": "UGM", "osm_node": 13404003003, "entrance": null, "barrier": "gate" }, "geometry": { "type": "Point", "coordinates": [ 110.3746391, -7.7751854 ] } },
{ "type": "Feature", "properties": { "kampus": "UGM", "osm_node": 13404003008, "entrance": null, "barrier": "gate" }, "geometry": { "type": "Point", "coordinates": [ 110.3744247, -7.7735319 ] } },
{ "type": "Feature", "properties": { "kampus": "UGM", "osm_node": 13404003056, "entrance": null, "barrier": "gate" }, "geometry": { "type": "Point", "coordinates": [ 110.3752198, -7.7736855 ] } },
{ "type": "Feature", "properties": { "kampus": "UGM", "osm_node": 13404003057, "entrance": null, "barrier": "gate" }, "geometry": { "type": "Point", "coordinates": [ 110.3753071, -7.7734775 ] } },
{ "type": "Feature", "properties": { "kampus": "UGM", "osm_node": 13404003058, "entrance": null, "barrier": "gate" }, "geometry": { "type": "Point", "coordinates": [ 110.3748243, -7.7736091 ] } },
{ "type": "Feature", "properties": { "kampus": "UGM", "osm_node": 13404182202, "entrance": null, "barrier": "gate" }, "geometry": { "type": "Point", "coordinates": [ 110.3736102, -7.7733919 ] } },
{ "type": "Feature", "properties": { "kampus": "UGM", "osm_node": 13404182287, "entrance": null, "barrier": "gate" }, "geometry": { "type": "Point", "coordinates": [ 110.3728229, -7.7752778 ] } },
{ "type": "Feature", "properties": { "kampus": "UGM", "osm_node": 13404182291, "entrance": null, "barrier": "gate" }, "geometry": { "type": "Point", "coordinates": [ 110.3728167, -7.7752381 ] } },
{ "type": "Feature", "properties": { "kampus": "UGM", "osm_node": 13404182292, "entrance": null, "barrier": "gate" }, "geometry": { "type": "Point", "coordinates": [ 110.3727151, -7.775197 ] } },
{ "type": "Feature", "properties": { "kampus": "UGM", "osm_node": 13408874987, "entrance": null, "barrier": "gate" }, "geometry": { "type": "Point", "coordinates": [ 110.3785384, -7.7710986 ] } },
{ "type": "Feature", "properties": { "kampus": "UGM", "osm_node": 13409570118, "entrance": null, "barrier": "gate" }, "geometry": { "type": "Point", "coordinates": [ 110.3791768, -7.7688802 ] } },
{ "type": "Feature", "properties": { "kampus": "UGM", "osm_node": 13410572152, "entrance": null, "barrier": "gate" }, "geometry": { "type": "Point", "coordinates": [ 110.3849862, -7.7682438 ] } },
{ "type": "Feature", "properties": { "kampus": "UGM", "osm_node": 13412975365, "entrance": null, "barrier": "gate" }, "geometry": { "type": "Point", "coordinates": [ 110.3761044, -7.7650357 ] } },
{ "type": "Feature", "properties": { "kampus": "UGM", "osm_node": 13413579029, "entrance": null, "barrier": "gate" }, "geometry": { "type": "Point", "coordinates": [ 110.3721856, -7.7745324 ] } },
{ "type": "Feature", "properties": { "kampus": "UGM", "osm_node": 13413579040, "entrance": null, "barrier": "gate" }, "geometry": { "type": "Point", "coordinates": [ 110.3723027, -7.7744305 ] } },
{ "type": "Feature", "properties": { "kampus": "UGM", "osm_node": 13413579094, "entrance": null, "barrier": "gate" }, "geometry": { "type": "Point", "coordinates": [ 110.3720659, -7.7738045 ] } },
{ "type": "Feature", "properties": { "kampus": "UGM", "osm_node": 13415353263, "entrance": null, "barrier": "gate" }, "geometry": { "type": "Point", "coordinates": [ 110.3738398, -7.7686214 ] } },
{ "type": "Feature", "properties": { "kampus": "UGM", "osm_node": 13415353266, "entrance": "yes", "barrier": null }, "geometry": { "type": "Point", "coordinates": [ 110.3743984, -7.7679381 ] } },
{ "type": "Feature", "properties": { "kampus": "UGM", "osm_node": 13418514785, "entrance": null, "barrier": "gate" }, "geometry": { "type": "Point", "coordinates": [ 110.3737729, -7.7687869 ] } },
{ "type": "Feature", "properties": { "kampus": "UGM", "osm_node": 13825507502, "entrance": null, "barrier": "gate" }, "geometry": { "type": "Point", "coordinates": [ 110.3743743, -7.764133 ] } },
{ "type": "Feature", "properties": { "kampus": "UNY", "osm_node": 1998336502, "entrance": null, "barrier": "gate" }, "geometry": { "type": "Point", "coordinates": [ 110.3877763, -7.7721101 ] } },
{ "type": "Feature", "properties": { "kampus": "UNY", "osm_node": 3451960529, "entrance": "yes", "barrier": null }, "geometry": { "type": "Point", "coordinates": [ 110.3822349, -7.7756918 ] } },
{ "type": "Feature", "properties": { "kampus": "UNY", "osm_node": 3472798372, "entrance": null, "barrier": "gate" }, "geometry": { "type": "Point", "coordinates": [ 110.3828063, -7.7726142 ] } },
{ "type": "Feature", "properties": { "kampus": "UNY", "osm_node": 3472801585, "entrance": null, "barrier": "gate" }, "geometry": { "type": "Point", "coordinates": [ 110.3850366, -7.7759214 ] } },
{ "type": "Feature", "properties": { "kampus": "UNY", "osm_node": 3472801590, "entrance": "yes", "barrier": null }, "geometry": { "type": "Point", "coordinates": [ 110.3835922, -7.7762912 ] } },
{ "type": "Feature", "properties": { "kampus": "UNY", "osm_node": 3472969742, "entrance": "yes", "barrier": null }, "geometry": { "type": "Point", "coordinates": [ 110.3850859, -7.7742689 ] } },
{ "type": "Feature", "properties": { "kampus": "UNY", "osm_node": 3473158251, "entrance": null, "barrier": "gate" }, "geometry": { "type": "Point", "coordinates": [ 110.385164, -7.7750196 ] } },
{ "type": "Feature", "properties": { "kampus": "UNY", "osm_node": 3473158261, "entrance": null, "barrier": "gate" }, "geometry": { "type": "Point", "coordinates": [ 110.3890454, -7.7754163 ] } },
{ "type": "Feature", "properties": { "kampus": "UNY", "osm_node": 3473822204, "entrance": "yes", "barrier": null }, "geometry": { "type": "Point", "coordinates": [ 110.3871101, -7.7752822 ] } },
{ "type": "Feature", "properties": { "kampus": "UNY", "osm_node": 3473822211, "entrance": "yes", "barrier": null }, "geometry": { "type": "Point", "coordinates": [ 110.3873076, -7.7753685 ] } },
{ "type": "Feature", "properties": { "kampus": "UNY", "osm_node": 3473822212, "entrance": "yes", "barrier": null }, "geometry": { "type": "Point", "coordinates": [ 110.3864948, -7.7753219 ] } },
{ "type": "Feature", "properties": { "kampus": "UNY", "osm_node": 3473822216, "entrance": "yes", "barrier": null }, "geometry": { "type": "Point", "coordinates": [ 110.3869553, -7.7754303 ] } },
{ "type": "Feature", "properties": { "kampus": "UNY", "osm_node": 3473822221, "entrance": "yes", "barrier": null }, "geometry": { "type": "Point", "coordinates": [ 110.3866654, -7.7755036 ] } },
{ "type": "Feature", "properties": { "kampus": "UNY", "osm_node": 3473822240, "entrance": "yes", "barrier": null }, "geometry": { "type": "Point", "coordinates": [ 110.3876338, -7.775766 ] } },
{ "type": "Feature", "properties": { "kampus": "UNY", "osm_node": 3473955073, "entrance": null, "barrier": "gate" }, "geometry": { "type": "Point", "coordinates": [ 110.3864828, -7.7729525 ] } },
{ "type": "Feature", "properties": { "kampus": "UNY", "osm_node": 3473955077, "entrance": "yes", "barrier": null }, "geometry": { "type": "Point", "coordinates": [ 110.3865467, -7.7730657 ] } },
{ "type": "Feature", "properties": { "kampus": "UNY", "osm_node": 3473955081, "entrance": null, "barrier": "gate" }, "geometry": { "type": "Point", "coordinates": [ 110.387308, -7.7730659 ] } },
{ "type": "Feature", "properties": { "kampus": "UNY", "osm_node": 3473955196, "entrance": "yes", "barrier": null }, "geometry": { "type": "Point", "coordinates": [ 110.3865627, -7.7733534 ] } },
{ "type": "Feature", "properties": { "kampus": "UNY", "osm_node": 3473955288, "entrance": "yes", "barrier": null }, "geometry": { "type": "Point", "coordinates": [ 110.3883408, -7.775374 ] } },
{ "type": "Feature", "properties": { "kampus": "UNY", "osm_node": 3473955292, "entrance": "yes", "barrier": null }, "geometry": { "type": "Point", "coordinates": [ 110.388762, -7.7754694 ] } },
{ "type": "Feature", "properties": { "kampus": "UNY", "osm_node": 3473955294, "entrance": "yes", "barrier": null }, "geometry": { "type": "Point", "coordinates": [ 110.3886567, -7.7754239 ] } },
{ "type": "Feature", "properties": { "kampus": "UNY", "osm_node": 3473955306, "entrance": "yes", "barrier": null }, "geometry": { "type": "Point", "coordinates": [ 110.3884359, -7.7756548 ] } },
{ "type": "Feature", "properties": { "kampus": "UNY", "osm_node": 3473993554, "entrance": null, "barrier": "gate" }, "geometry": { "type": "Point", "coordinates": [ 110.3869391, -7.7730324 ] } },
{ "type": "Feature", "properties": { "kampus": "UNY", "osm_node": 3474842672, "entrance": "yes", "barrier": null }, "geometry": { "type": "Point", "coordinates": [ 110.3882174, -7.76901 ] } },
{ "type": "Feature", "properties": { "kampus": "UNY", "osm_node": 3474842691, "entrance": "yes", "barrier": null }, "geometry": { "type": "Point", "coordinates": [ 110.3866708, -7.7718645 ] } },
{ "type": "Feature", "properties": { "kampus": "UNY", "osm_node": 3474843215, "entrance": "yes", "barrier": null }, "geometry": { "type": "Point", "coordinates": [ 110.3872331, -7.7727041 ] } },
{ "type": "Feature", "properties": { "kampus": "UNY", "osm_node": 3474843223, "entrance": null, "barrier": "gate" }, "geometry": { "type": "Point", "coordinates": [ 110.3872281, -7.7729619 ] } },
{ "type": "Feature", "properties": { "kampus": "UNY", "osm_node": 3972701511, "entrance": null, "barrier": "gate" }, "geometry": { "type": "Point", "coordinates": [ 110.3829865, -7.7768376 ] } },
{ "type": "Feature", "properties": { "kampus": "UNY", "osm_node": 3972701512, "entrance": null, "barrier": "gate" }, "geometry": { "type": "Point", "coordinates": [ 110.3837881, -7.7769983 ] } },
{ "type": "Feature", "properties": { "kampus": "UNY", "osm_node": 3972701513, "entrance": null, "barrier": "gate" }, "geometry": { "type": "Point", "coordinates": [ 110.3840483, -7.7770855 ] } },
{ "type": "Feature", "properties": { "kampus": "UNY", "osm_node": 5800901152, "entrance": null, "barrier": "gate" }, "geometry": { "type": "Point", "coordinates": [ 110.3892409, -7.7753485 ] } },
{ "type": "Feature", "properties": { "kampus": "UNY", "osm_node": 5801751355, "entrance": null, "barrier": "gate" }, "geometry": { "type": "Point", "coordinates": [ 110.3866713, -7.7728029 ] } },
{ "type": "Feature", "properties": { "kampus": "UNY", "osm_node": 7637547346, "entrance": null, "barrier": "gate" }, "geometry": { "type": "Point", "coordinates": [ 110.3881739, -7.7683756 ] } },
{ "type": "Feature", "properties": { "kampus": "UNY", "osm_node": 7637547347, "entrance": null, "barrier": "gate" }, "geometry": { "type": "Point", "coordinates": [ 110.3886645, -7.7685651 ] } },
{ "type": "Feature", "properties": { "kampus": "UNY", "osm_node": 7716428999, "entrance": null, "barrier": "gate" }, "geometry": { "type": "Point", "coordinates": [ 110.382823, -7.7725602 ] } },
{ "type": "Feature", "properties": { "kampus": "UNY", "osm_node": 9179304517, "entrance": null, "barrier": "gate" }, "geometry": { "type": "Point", "coordinates": [ 110.3828619, -7.7768272 ] } },
{ "type": "Feature", "properties": { "kampus": "UNY", "osm_node": 9189434619, "entrance": null, "barrier": "gate" }, "geometry": { "type": "Point", "coordinates": [ 110.3853518, -7.7750329 ] } },
{ "type": "Feature", "properties": { "kampus": "UNY", "osm_node": 9189443686, "entrance": null, "barrier": "gate" }, "geometry": { "type": "Point", "coordinates": [ 110.3852686, -7.7736191 ] } },
{ "type": "Feature", "properties": { "kampus": "UNY", "osm_node": 10303247193, "entrance": null, "barrier": "gate" }, "geometry": { "type": "Point", "coordinates": [ 110.3888907, -7.7772636 ] } },
{ "type": "Feature", "properties": { "kampus": "UNY", "osm_node": 10304480888, "entrance": null, "barrier": "gate" }, "geometry": { "type": "Point", "coordinates": [ 110.3859667, -7.7777487 ] } },
{ "type": "Feature", "properties": { "kampus": "UNY", "osm_node": 10307634054, "entrance": null, "barrier": "gate" }, "geometry": { "type": "Point", "coordinates": [ 110.3887852, -7.7777226 ] } },
{ "type": "Feature", "properties": { "kampus": "UNY", "osm_node": 10307657739, "entrance": null, "barrier": "gate" }, "geometry": { "type": "Point", "coordinates": [ 110.3865818, -7.7729526 ] } },
{ "type": "Feature", "properties": { "kampus": "UNY", "osm_node": 11454308856, "entrance": null, "barrier": "gate" }, "geometry": { "type": "Point", "coordinates": [ 110.3846055, -7.7772758 ] } },
{ "type": "Feature", "properties": { "kampus": "UNY", "osm_node": 11957604015, "entrance": null, "barrier": "gate" }, "geometry": { "type": "Point", "coordinates": [ 110.3888823, -7.769528 ] } },
{ "type": "Feature", "properties": { "kampus": "UNY", "osm_node": 12079907778, "entrance": null, "barrier": "gate" }, "geometry": { "type": "Point", "coordinates": [ 110.3853613, -7.7738665 ] } },
{ "type": "Feature", "properties": { "kampus": "UNY", "osm_node": 12317733863, "entrance": null, "barrier": "gate" }, "geometry": { "type": "Point", "coordinates": [ 110.3816285, -7.7761926 ] } },
{ "type": "Feature", "properties": { "kampus": "UNY", "osm_node": 12335959201, "entrance": null, "barrier": "gate" }, "geometry": { "type": "Point", "coordinates": [ 110.3819608, -7.7752494 ] } },
{ "type": "Feature", "properties": { "kampus": "UNY", "osm_node": 13397271162, "entrance": null, "barrier": "gate" }, "geometry": { "type": "Point", "coordinates": [ 110.387679, -7.7773365 ] } },
{ "type": "Feature", "properties": { "kampus": "UNY", "osm_node": 13397271164, "entrance": null, "barrier": "gate" }, "geometry": { "type": "Point", "coordinates": [ 110.3878101, -7.7774151 ] } },
{ "type": "Feature", "properties": { "kampus": "UNY", "osm_node": 13397271165, "entrance": null, "barrier": "gate" }, "geometry": { "type": "Point", "coordinates": [ 110.3875265, -7.7773365 ] } },
{ "type": "Feature", "properties": { "kampus": "UNY", "osm_node": 13603988215, "entrance": null, "barrier": "gate" }, "geometry": { "type": "Point", "coordinates": [ 110.3865477, -7.7728092 ] } },
{ "type": "Feature", "properties": { "kampus": "UNY", "osm_node": 13623805071, "entrance": null, "barrier": "gate" }, "geometry": { "type": "Point", "coordinates": [ 110.3853179, -7.7746184 ] } },
{ "type": "Feature", "properties": { "kampus": "UNY", "osm_node": 13623805072, "entrance": null, "barrier": "gate" }, "geometry": { "type": "Point", "coordinates": [ 110.3853243, -7.7745361 ] } },
{ "type": "Feature", "properties": { "kampus": "UNY", "osm_node": 13634070241, "entrance": "yes", "barrier": null }, "geometry": { "type": "Point", "coordinates": [ 110.3889242, -7.7755394 ] } },
{ "type": "Feature", "properties": { "kampus": "UNY", "osm_node": 13634070242, "entrance": null, "barrier": "gate" }, "geometry": { "type": "Point", "coordinates": [ 110.3891059, -7.7750088 ] } },
{ "type": "Feature", "properties": { "kampus": "UNY", "osm_node": 13634070245, "entrance": null, "barrier": "gate" }, "geometry": { "type": "Point", "coordinates": [ 110.3891499, -7.7747867 ] } },
{ "type": "Feature", "properties": { "kampus": "UII Kaliurang", "osm_node": 5152658618, "entrance": null, "barrier": "gate" }, "geometry": { "type": "Point", "coordinates": [ 110.4120384, -7.6879552 ] } },
{ "type": "Feature", "properties": { "kampus": "UII Kaliurang", "osm_node": 5152658624, "entrance": null, "barrier": "gate" }, "geometry": { "type": "Point", "coordinates": [ 110.4091462, -7.6861851 ] } },
{ "type": "Feature", "properties": { "kampus": "UII Kaliurang", "osm_node": 6813350736, "entrance": null, "barrier": "gate" }, "geometry": { "type": "Point", "coordinates": [ 110.4097212, -7.6871497 ] } },
{ "type": "Feature", "properties": { "kampus": "UII Kaliurang", "osm_node": 6813788417, "entrance": null, "barrier": "gate" }, "geometry": { "type": "Point", "coordinates": [ 110.4119984, -7.6874118 ] } },
{ "type": "Feature", "properties": { "kampus": "UII Kaliurang", "osm_node": 6814864981, "entrance": null, "barrier": "gate" }, "geometry": { "type": "Point", "coordinates": [ 110.4138958, -7.6877844 ] } },
{ "type": "Feature", "properties": { "kampus": "UII Kaliurang", "osm_node": 6814943586, "entrance": null, "barrier": "gate" }, "geometry": { "type": "Point", "coordinates": [ 110.412276, -7.6874683 ] } },
{ "type": "Feature", "properties": { "kampus": "UII Kaliurang", "osm_node": 6831874841, "entrance": null, "barrier": "gate" }, "geometry": { "type": "Point", "coordinates": [ 110.4130754, -7.6875065 ] } },
{ "type": "Feature", "properties": { "kampus": "UII Kaliurang", "osm_node": 6831874845, "entrance": null, "barrier": "gate" }, "geometry": { "type": "Point", "coordinates": [ 110.4150159, -7.6867983 ] } },
{ "type": "Feature", "properties": { "kampus": "UII Kaliurang", "osm_node": 6831885904, "entrance": null, "barrier": "gate" }, "geometry": { "type": "Point", "coordinates": [ 110.4121999, -7.6872658 ] } },
{ "type": "Feature", "properties": { "kampus": "UII Kaliurang", "osm_node": 6831885906, "entrance": null, "barrier": "gate" }, "geometry": { "type": "Point", "coordinates": [ 110.4124595, -7.6874137 ] } },
{ "type": "Feature", "properties": { "kampus": "UII Kaliurang", "osm_node": 6831885914, "entrance": null, "barrier": "gate" }, "geometry": { "type": "Point", "coordinates": [ 110.4138505, -7.6876203 ] } },
{ "type": "Feature", "properties": { "kampus": "UII Kaliurang", "osm_node": 6832342572, "entrance": null, "barrier": "gate" }, "geometry": { "type": "Point", "coordinates": [ 110.4157043, -7.6880546 ] } },
{ "type": "Feature", "properties": { "kampus": "UII Kaliurang", "osm_node": 7305089804, "entrance": null, "barrier": "gate" }, "geometry": { "type": "Point", "coordinates": [ 110.4141452, -7.6862833 ] } },
{ "type": "Feature", "properties": { "kampus": "UII Kaliurang", "osm_node": 7305229102, "entrance": null, "barrier": "gate" }, "geometry": { "type": "Point", "coordinates": [ 110.4150052, -7.686774 ] } },
{ "type": "Feature", "properties": { "kampus": "UII Kaliurang", "osm_node": 8448758178, "entrance": null, "barrier": "gate" }, "geometry": { "type": "Point", "coordinates": [ 110.4134041, -7.6876503 ] } },
{ "type": "Feature", "properties": { "kampus": "Sanata Dharma III", "osm_node": 8852336623, "entrance": null, "barrier": "gate" }, "geometry": { "type": "Point", "coordinates": [ 110.4222898, -7.7532617 ] } },
{ "type": "Feature", "properties": { "kampus": "Sanata Dharma III", "osm_node": 8852336624, "entrance": null, "barrier": "gate" }, "geometry": { "type": "Point", "coordinates": [ 110.4218848, -7.7532112 ] } },
{ "type": "Feature", "properties": { "kampus": "Sanata Dharma III", "osm_node": 9180129765, "entrance": null, "barrier": "gate" }, "geometry": { "type": "Point", "coordinates": [ 110.4198782, -7.7554645 ] } },
{ "type": "Feature", "properties": { "kampus": "Sanata Dharma III", "osm_node": 9903821490, "entrance": null, "barrier": "gate" }, "geometry": { "type": "Point", "coordinates": [ 110.4229584, -7.7543712 ] } },
{ "type": "Feature", "properties": { "kampus": "UPN Veteran", "osm_node": 3662557460, "entrance": null, "barrier": "gate" }, "geometry": { "type": "Point", "coordinates": [ 110.4093513, -7.763849 ] } },
{ "type": "Feature", "properties": { "kampus": "UPN Veteran", "osm_node": 5563211071, "entrance": null, "barrier": "gate" }, "geometry": { "type": "Point", "coordinates": [ 110.409365, -7.7611473 ] } },
{ "type": "Feature", "properties": { "kampus": "UPN Veteran", "osm_node": 7265574621, "entrance": null, "barrier": "gate" }, "geometry": { "type": "Point", "coordinates": [ 110.4085095, -7.7637001 ] } },
{ "type": "Feature", "properties": { "kampus": "UPN Veteran", "osm_node": 9169244121, "entrance": null, "barrier": "gate" }, "geometry": { "type": "Point", "coordinates": [ 110.4114426, -7.7637553 ] } },
{ "type": "Feature", "properties": { "kampus": "UPN Veteran", "osm_node": 9529840988, "entrance": null, "barrier": "gate" }, "geometry": { "type": "Point", "coordinates": [ 110.4081929, -7.7637284 ] } },
{ "type": "Feature", "properties": { "kampus": "UPN Veteran", "osm_node": 12414144950, "entrance": null, "barrier": "gate" }, "geometry": { "type": "Point", "coordinates": [ 110.4099173, -7.7613109 ] } },
{ "type": "Feature", "properties": { "kampus": "UPN Veteran", "osm_node": 13327634472, "entrance": null, "barrier": "gate" }, "geometry": { "type": "Point", "coordinates": [ 110.4076787, -7.7609494 ] } },
{ "type": "Feature", "properties": { "kampus": "UPN Veteran", "osm_node": 13327634485, "entrance": null, "barrier": "gate" }, "geometry": { "type": "Point", "coordinates": [ 110.4105296, -7.7640763 ] } },
{ "type": "Feature", "properties": { "kampus": "AMIKOM", "osm_node": 7651911102, "entrance": null, "barrier": "gate" }, "geometry": { "type": "Point", "coordinates": [ 110.4087751, -7.7605603 ] } },
{ "type": "Feature", "properties": { "kampus": "AMIKOM", "osm_node": 10575670700, "entrance": null, "barrier": "gate" }, "geometry": { "type": "Point", "coordinates": [ 110.4094502, -7.7599858 ] } },
{ "type": "Feature", "properties": { "kampus": "AMIKOM", "osm_node": 10575670714, "entrance": null, "barrier": "gate" }, "geometry": { "type": "Point", "coordinates": [ 110.4084014, -7.758543 ] } },
{ "type": "Feature", "properties": { "kampus": "AMIKOM", "osm_node": 10575670724, "entrance": null, "barrier": "gate" }, "geometry": { "type": "Point", "coordinates": [ 110.4078583, -7.7592237 ] } },
{ "type": "Feature", "properties": { "kampus": "AMIKOM", "osm_node": 10575674444, "entrance": null, "barrier": "gate" }, "geometry": { "type": "Point", "coordinates": [ 110.4080436, -7.7589746 ] } },
{ "type": "Feature", "properties": { "kampus": "Atma Jaya Babarsari", "osm_node": 9137151729, "entrance": null, "barrier": "gate" }, "geometry": { "type": "Point", "coordinates": [ 110.4147168, -7.779182 ] } },
{ "type": "Feature", "properties": { "kampus": "Atma Jaya Babarsari", "osm_node": 9137151730, "entrance": null, "barrier": "gate" }, "geometry": { "type": "Point", "coordinates": [ 110.4149083, -7.7791213 ] } },
{ "type": "Feature", "properties": { "kampus": "Atma Jaya Babarsari", "osm_node": 9137151731, "entrance": null, "barrier": "gate" }, "geometry": { "type": "Point", "coordinates": [ 110.414872, -7.7792795 ] } },
{ "type": "Feature", "properties": { "kampus": "Atma Jaya Babarsari", "osm_node": 9137281491, "entrance": null, "barrier": "gate" }, "geometry": { "type": "Point", "coordinates": [ 110.4149377, -7.7788751 ] } },
{ "type": "Feature", "properties": { "kampus": "STIE YKPN", "osm_node": 9163989525, "entrance": null, "barrier": "gate" }, "geometry": { "type": "Point", "coordinates": [ 110.4099726, -7.7697942 ] } },
{ "type": "Feature", "properties": { "kampus": "STIE YKPN", "osm_node": 9529161910, "entrance": null, "barrier": "gate" }, "geometry": { "type": "Point", "coordinates": [ 110.4100844, -7.7692405 ] } },
{ "type": "Feature", "properties": { "kampus": "STIE YKPN", "osm_node": 9529161912, "entrance": null, "barrier": "gate" }, "geometry": { "type": "Point", "coordinates": [ 110.4101952, -7.7685909 ] } },
{ "type": "Feature", "properties": { "kampus": "STIE YKPN", "osm_node": 9529161913, "entrance": null, "barrier": "gate" }, "geometry": { "type": "Point", "coordinates": [ 110.4102587, -7.7680338 ] } },
{ "type": "Feature", "properties": { "kampus": "STIE YKPN", "osm_node": 12619433278, "entrance": null, "barrier": "gate" }, "geometry": { "type": "Point", "coordinates": [ 110.4109262, -7.7703407 ] } },
{ "type": "Feature", "properties": { "kampus": "STIE YKPN", "osm_node": 12850332418, "entrance": null, "barrier": "gate" }, "geometry": { "type": "Point", "coordinates": [ 110.4120593, -7.7698692 ] } },
{ "type": "Feature", "properties": { "kampus": "STIE YKPN", "osm_node": 13972574566, "entrance": null, "barrier": "gate" }, "geometry": { "type": "Point", "coordinates": [ 110.409903, -7.77 ] } },
{ "type": "Feature", "properties": { "kampus": "Instiper", "osm_node": 9513051485, "entrance": null, "barrier": "gate" }, "geometry": { "type": "Point", "coordinates": [ 110.4243202, -7.7609543 ] } },
{ "type": "Feature", "properties": { "kampus": "Instiper", "osm_node": 9885054441, "entrance": null, "barrier": "gate" }, "geometry": { "type": "Point", "coordinates": [ 110.4242261, -7.7608522 ] } },
{ "type": "Feature", "properties": { "kampus": "Instiper", "osm_node": 9897211971, "entrance": null, "barrier": "gate" }, "geometry": { "type": "Point", "coordinates": [ 110.4244083, -7.7599996 ] } },
{ "type": "Feature", "properties": { "kampus": "Instiper", "osm_node": 9903821497, "entrance": null, "barrier": "gate" }, "geometry": { "type": "Point", "coordinates": [ 110.4241551, -7.7613136 ] } },
{ "type": "Feature", "properties": { "kampus": "Instiper", "osm_node": 9903821498, "entrance": null, "barrier": "gate" }, "geometry": { "type": "Point", "coordinates": [ 110.4243866, -7.7601664 ] } },
{ "type": "Feature", "properties": { "kampus": "Instiper", "osm_node": 9918565297, "entrance": null, "barrier": "gate" }, "geometry": { "type": "Point", "coordinates": [ 110.425483, -7.7598387 ] } },
{ "type": "Feature", "properties": { "kampus": "UIN Sunan Kalijaga", "osm_node": 7165614043, "entrance": "yes", "barrier": "gate" }, "geometry": { "type": "Point", "coordinates": [ 110.3941935, -7.7832734 ] } },
{ "type": "Feature", "properties": { "kampus": "UIN Sunan Kalijaga", "osm_node": 10280961497, "entrance": null, "barrier": "gate" }, "geometry": { "type": "Point", "coordinates": [ 110.3950399, -7.7863938 ] } },
{ "type": "Feature", "properties": { "kampus": "UIN Sunan Kalijaga", "osm_node": 10280961498, "entrance": null, "barrier": "gate" }, "geometry": { "type": "Point", "coordinates": [ 110.394745, -7.7855153 ] } },
{ "type": "Feature", "properties": { "kampus": "UIN Sunan Kalijaga", "osm_node": 10280961499, "entrance": null, "barrier": "gate" }, "geometry": { "type": "Point", "coordinates": [ 110.3950753, -7.7854907 ] } },
{ "type": "Feature", "properties": { "kampus": "UIN Sunan Kalijaga", "osm_node": 10280961500, "entrance": null, "barrier": "gate" }, "geometry": { "type": "Point", "coordinates": [ 110.3951339, -7.7841078 ] } },
{ "type": "Feature", "properties": { "kampus": "UIN Sunan Kalijaga", "osm_node": 10289692916, "entrance": null, "barrier": "gate" }, "geometry": { "type": "Point", "coordinates": [ 110.3938474, -7.7832769 ] } },
{ "type": "Feature", "properties": { "kampus": "UIN Sunan Kalijaga", "osm_node": 12096397068, "entrance": null, "barrier": "gate" }, "geometry": { "type": "Point", "coordinates": [ 110.3929975, -7.7855618 ] } },
{ "type": "Feature", "properties": { "kampus": "UIN Sunan Kalijaga", "osm_node": 12157728694, "entrance": null, "barrier": "gate" }, "geometry": { "type": "Point", "coordinates": [ 110.3947427, -7.7862413 ] } }
]
}
