{
"type": "FeatureCollection",
"name": "kampus_gerbang",
"crs": { "type": "name", "properties": { "name": "urn:ogc:def:crs:OGC:1.3:CRS84" } },
"features": [
{ "type": "Feature", "properties": { "kampus": "UGM", "osm_node": 1390691962, "entrance": null, "barrier": "gate" }, "geometry": { "type": "Point", "coordinates": [ 110.3765414, -7.7631926 ] } },
{ "type": "Feature", "properties": { "kampus": "UGM", "osm_node": 3874351512, "entrance": null, "barrier": "gate" }, "geometry": { "type": "Point", "coordinates": [ 110.3793871, -7.7759933 ] } },
{ "type": "Feature", "properties": { "kampus": "UGM", "osm_node": 5922737653, "entrance": null, "barrier": "gate" }, "geometry": { "type": "Point", "coordinates": [ 110.381328, -7.7667803 ] } },
{ "type": "Feature", "properties": { "kampus": "UGM", "osm_node": 6934603111, "entrance": null, "barrier": "gate" }, "geometry": { "type": "Point", "coordinates": [ 110.3772121, -7.7760386 ] } },
{ "type": "Feature", "properties": { "kampus": "UGM", "osm_node": 8695578597, "entrance": null, "barrier": "gate" }, "geometry": { "type": "Point", "coordinates": [ 110.377749, -7.7633609 ] } },
{ "type": "Feature", "properties": { "kampus": "UGM", "osm_node": 8837559088, "entrance": null, "barrier": "gate" }, "geometry": { "type": "Point", "coordinates": [ 110.3745165, -7.767354 ] } },
{ "type": "Feature", "properties": { "kampus": "UGM", "osm_node": 8837559091, "entrance": null, "barrier": "gate" }, "geometry": { "type": "Point", "coordinates": [ 110.3744855, -7.7674485 ] } },
{ "type": "Feature", "properties": { "kampus": "UGM", "osm_node": 9157861768, "entrance": null, "barrier": "gate" }, "geometry": { "type": "Point", "coordinates": [ 110.3881333, -7.7664848 ] } },
{ "type": "Feature", "properties": { "kampus": "UGM", "osm_node": 9192188634, "entrance": null, "barrier": "gate" }, "geometry": { "type": "Point", "coordinates": [ 110.3790437, -7.7645653 ] } },
{ "type": "Feature", "properties": { "kampus": "UGM", "osm_node": 10247270045, "entrance": null, "barrier": "gate" }, "geometry": { "type": "Point", "coordinates": [ 110.3877128, -7.7676611 ] } },
{ "type": "Feature", "properties": { "kampus": "UGM", "osm_node": 10276680279, "entrance": null, "barrier": "gate" }, "geometry": { "type": "Point", "coordinates": [ 110.3805681, -7.7766934 ] } },
{ "type": "Feature", "properties": { "kampus": "UGM", "osm_node": 10276680280, "entrance": null, "barrier": "gate" }, "geometry": { "type": "Point", "coordinates": [ 110.3779842, -7.7762534 ] } },
{ "type": "Feature", "properties": { "kampus": "UGM", "osm_node": 10276680281, "entrance": null, "barrier": "gate" }, "geometry": { "type": "Point", "coordinates": [ 110.3770506, -7.776201 ] } },
{ "type": "Feature", "properties": { "kampus": "UGM", "osm_node": 10307191728, "entrance": null, "barrier": "gate" }, "geometry": { "type": "Point", "coordinates": [ 110.3737137, -7.7696416 ] } },
{ "type": "Feature", "properties": { "kampus": "UGM", "osm_node": 10307191729, "entrance": null, "barrier": "gate" }, "geometry": { "type": "Point", "coordinates": [ 110.3746363, -7.7639429 ] } },
{ "type": "Feature", "properties": { "kampus": "UGM", "osm_node": 10307252509, "entrance": null, "barrier": "gate" }, "geometry": { "type": "Point", "coordinates": [ 110.3879771, -7.7672224 ] } },
{ "type": "Feature", "properties": { "kampus": "UGM", "osm_node": 10307270222, "entrance": null, "barrier": "gate" }, "geometry": { "type": "Point", "coordinates": [ 110.3734995, -7.7701604 ] } },
{ "type": "Feature", "properties": { "kampus": "UGM", "osm_node": 10307427439, "entrance": null, "barrier": "gate" }, "geometry": { "type": "Point", "coordinates": [ 110.3722617, -7.7630814 ] } },
{ "type": "Feature", "properties": { "kampus": "UGM", "osm_node": 10309023291, "entrance": null, "barrier": "gate" }, "geometry": { "type": "Point", "coordinates": [ 110.3775442, -7.7762317 ] } },
{ "type": "Feature", "properties": { "kampus": "UGM", "osm_node": 11031479457, "entrance": null, "barrier": "gate" }, "geometry": { "type": "Point", "coordinates": [ 110.3865886, -7.7659802 ] } },
{ "type": "Feature", "properties": { "kampus": "UGM", "osm_node": 11258996986, "entrance": null, "barrier": "gate" }, "geometry": { "type": "Point", "coordinates": [ 110.3853661, -7.7673477 ] } },
{ "type": "Feature", "properties": { "kampus": "UGM", "osm_node": 12317733863, "entrance": null, "barrier": "gate" }, "geometry": { "type": "Point", "coordinates": [ 110.3816285, -7.7761926 ] } },
{ "type": "Feature", "properties": { "kampus": "UGM", "osm_node": 12330528628, "entrance": null, "barrier": "gate" }, "geometry": { "type": "Point", "coordinates": [ 110.3731152, -7.7711606 ] } },
{ "type": "Feature", "properties": { "kampus": "UGM", "osm_node": 12330536950, "entrance": null, "barrier": "gate" }, "geometry": { "type": "Point", "coordinates": [ 110.3727939, -7.7719712 ] } },
{ "type": "Feature", "properties": { "kampus": "UGM", "osm_node": 12335959201, "entrance": null, "barrier": "gate" }, "geometry": { "type": "Point", "coordinates": [ 110.3819608, -7.7752494 ] } },
{ "type": "Feature", "properties": { "kampus": "UGM", "osm_node": 12919208395, "entrance": null, "barrier": "gate" }, "geometry": { "type": "Point", "coordinates": [ 110.3794445, -7.7760602 ] } },
{ "type": "Feature", "properties": { "kampus": "UGM", "osm_node": 13398137527, "entrance": null, "barrier": "gate" }, "geometry": { "type": "Point", "coordinates": [ 110.3745533, -7.7757928 ] } },
{ "type": "Feature", "properties": { "kampus": "UGM", "osm_node": 13398204992, "entrance": null, "barrier": "gate" }, "geometry": { "type": "Point", "coordinates": [ 110.3775839, -7.7762334 ] } },
{ "type": "Feature", "properties": { "kampus": "UGM", "osm_node": 13398264710, "entrance": null, "barrier": "gate" }, "geometry": { "type": "Point", "coordinates": [ 110.3768387, -7.7762024 ] } },
{ "type": "Feature", "properties": { "kampus": "UGM", "osm_node": 13398895793, "entrance": "yes", "barrier": null }, "geometry": { "type": "Point", "coordinates": [ 110.3743014, -7.7755184 ] } },
{ "type": "Feature", "properties": { "kampus": "UGM", "osm_node": 13403987173, "entrance": null, "barrier": "gate" }, "geometry": { "type": "Point", "coordinates": [ 110.3748587, -7.7746543 ] } },
{ "type": "Feature", "properties": { "kampus": "UGM", "osm_node": 13403987174, "entrance": "yes", "barrier": null }, "geometry": { "type": "Point", "coordinates": [ 110.3749273, -7.7745305 ] } },
{ "type": "Feature", "properties": { "kampus": "UGM", "osm_node": 13403987185, "entrance": null, "barrier": "gate" }, "geometry": { "type": "Point", "coordinates": [ 110.3748397, -7.774701 ] } },
{ "type": "Feature", "properties": { "kampus": "UGM", "osm_node": 13403987186, "entrance": "yes", "barrier": null }, "geometry": { "type": "Point", "coordinates": [ 110.3749534, -7.7744662 ] } },
{ "type": "Feature", "properties": { "kampus": "UGM", "osm_node": 13403987200, "entrance": null, "barrier": "gate" }, "geometry": { "type": "Point", "coordinates": [ 110.3746211, -7.7752319 ] } },
{ "type": "Feature", "properties": { "kampus": "UGM", "osm_node": 13404003003, "entrance": null, "barrier": "gate" }, "geometry": { "type": "Point", "coordinates": [ 110.3746391, -7.7751854 ] } },
{ "type": "Feature", "properties": { "kampus": "UGM", "osm_node": 13404182292, "entrance": null, "barrier": "gate" }, "geometry": { "type": "Point", "coordinates": [ 110.3727151, -7.775197 ] } },
{ "type": "Feature", "properties": { "kampus": "UGM", "osm_node": 13413579094, "entrance": null, "barrier": "gate" }, "geometry": { "type": "Point", "coordinates": [ 110.3720659, -7.7738045 ] } },
{ "type": "Feature", "properties": { "kampus": "UGM", "osm_node": 13415353263, "entrance": null, "barrier": "gate" }, "geometry": { "type": "Point", "coordinates": [ 110.3738398, -7.7686214 ] } },
{ "type": "Feature", "properties": { "kampus": "UGM", "osm_node": 13415353266, "entrance": "yes", "barrier": null }, "geometry": { "type": "Point", "coordinates": [ 110.3743984, -7.7679381 ] } },
{ "type": "Feature", "properties": { "kampus": "UGM", "osm_node": 13418514785, "entrance": null, "barrier": "gate" }, "geometry": { "type": "Point", "coordinates": [ 110.3737729, -7.7687869 ] } },
{ "type": "Feature", "properties": { "kampus": "UGM", "osm_node": 13825507502, "entrance": null, "barrier": "gate" }, "geometry": { "type": "Point", "coordinates": [ 110.3743743, -7.764133 ] } },
{ "type": "Feature", "properties": { "kampus": "UNY", "osm_node": 1998336502, "entrance": null, "barrier": "gate" }, "geometry": { "type": "Point", "coordinates": [ 110.3877763, -7.7721101 ] } },
{ "type": "Feature", "properties": { "kampus": "UNY", "osm_node": 3472798372, "entrance": null, "barrier": "gate" }, "geometry": { "type": "Point", "coordinates": [ 110.3828063, -7.7726142 ] } },
{ "type": "Feature", "properties": { "kampus": "UNY", "osm_node": 3473158261, "entrance": null, "barrier": "gate" }, "geometry": { "type": "Point", "coordinates": [ 110.3890454, -7.7754163 ] } },
{ "type": "Feature", "properties": { "kampus": "UNY", "osm_node": 3474842691, "entrance": "yes", "barrier": null }, "geometry": { "type": "Point", "coordinates": [ 110.3866708, -7.7718645 ] } },
{ "type": "Feature", "properties": { "kampus": "UNY", "osm_node": 3972701511, "entrance": null, "barrier": "gate" }, "geometry": { "type": "Point", "coordinates": [ 110.3829865, -7.7768376 ] } },
{ "type": "Feature", "properties": { "kampus": "UNY", "osm_node": 3972701512, "entrance": null, "barrier": "gate" }, "geometry": { "type": "Point", "coordinates": [ 110.3837881, -7.7769983 ] } },
{ "type": "Feature", "properties": { "kampus": "UNY", "osm_node": 3972701513, "entrance": null, "barrier": "gate" }, "geometry": { "type": "Point", "coordinates": [ 110.3840483, -7.7770855 ] } },
{ "type": "Feature", "properties": { "kampus": "UNY", "osm_node": 5800901152, "entrance": null, "barrier": "gate" }, "geometry": { "type": "Point", "coordinates": [ 110.3892409, -7.7753485 ] } },
{ "type": "Feature", "properties": { "kampus": "UNY", "osm_node": 7637547346, "entrance": null, "barrier": "gate" }, "geometry": { "type": "Point", "coordinates": [ 110.3881739, -7.7683756 ] } },
{ "type": "Feature", "properties": { "kampus": "UNY", "osm_node": 7637547347, "entrance": null, "barrier": "gate" }, "geometry": { "type": "Point", "coordinates": [ 110.3886645, -7.7685651 ] } },
{ "type": "Feature", "properties": { "kampus": "UNY", "osm_node": 7716428999, "entrance": null, "barrier": "gate" }, "geometry": { "type": "Point", "coordinates": [ 110.382823, -7.7725602 ] } },
{ "type": "Feature", "properties": { "kampus": "UNY", "osm_node": 9179304517, "entrance": null, "barrier": "gate" }, "geometry": { "type": "Point", "coordinates": [ 110.3828619, -7.7768272 ] } },
{ "type": "Feature", "properties": { "kampus": "UNY", "osm_node": 10303247193, "entrance": null, "barrier": "gate" }, "geometry": { "type": "Point", "coordinates": [ 110.3888907, -7.7772636 ] } },
{ "type": "Feature", "properties": { "kampus": "UNY", "osm_node": 10304480888, "entrance": null, "barrier": "gate" }, "geometry": { "type": "Point", "coordinates": [ 110.3859667, -7.7777487 ] } },
{ "type": "Feature", "properties": { "kampus": "UNY", "osm_node": 10307634054, "entrance": null, "barrier": "gate" }, "geometry": { "type": "Point", "coordinates": [ 110.3887852, -7.7777226 ] } },
{ "type": "Feature", "properties": { "kampus": "UNY", "osm_node": 11454308856, "entrance": null, "barrier": "gate" }, "geometry": { "type": "Point", "coordinates": [ 110.3846055, -7.7772758 ] } },
{ "type": "Feature", "properties": { "kampus": "UNY", "osm_node": 11957604015, "entrance": null, "barrier": "gate" }, "geometry": { "type": "Point", "coordinates": [ 110.3888823, -7.769528 ] } },
{ "type": "Feature", "properties": { "kampus": "UNY", "osm_node": 12317733863, "entrance": null, "barrier": "gate" }, "geometry": { "type": "Point", "coordinates": [ 110.3816285, -7.7761926 ] } },
{ "type": "Feature", "properties": { "kampus": "UNY", "osm_node": 12335959201, "entrance": null, "barrier": "gate" }, "geometry": { "type": "Point", "coordinates": [ 110.3819608, -7.7752494 ] } },
{ "type": "Feature", "properties": { "kampus": "UNY", "osm_node": 13397271162, "entrance": null, "barrier": "gate" }, "geometry": { "type": "Point", "coordinates": [ 110.387679, -7.7773365 ] } },
{ "type": "Feature", "properties": { "kampus": "UNY", "osm_node": 13397271164, "entrance": null, "barrier": "gate" }, "geometry": { "type": "Point", "coordinates": [ 110.3878101, -7.7774151 ] } },
{ "type": "Feature", "properties": { "kampus": "UNY", "osm_node": 13397271165, "entrance": null, "barrier": "gate" }, "geometry": { "type": "Point", "coordinates": [ 110.3875265, -7.7773365 ] } },
{ "type": "Feature", "properties": { "kampus": "UNY", "osm_node": 13634070241, "entrance": "yes", "barrier": null }, "geometry": { "type": "Point", "coordinates": [ 110.3889242, -7.7755394 ] } },
{ "type": "Feature", "properties": { "kampus": "UNY", "osm_node": 13634070242, "entrance": null, "barrier": "gate" }, "geometry": { "type": "Point", "coordinates": [ 110.3891059, -7.7750088 ] } },
{ "type": "Feature", "properties": { "kampus": "UNY", "osm_node": 13634070245, "entrance": null, "barrier": "gate" }, "geometry": { "type": "Point", "coordinates": [ 110.3891499, -7.7747867 ] } },
{ "type": "Feature", "properties": { "kampus": "UII Kaliurang", "osm_node": 6813350736, "entrance": null, "barrier": "gate" }, "geometry": { "type": "Point", "coordinates": [ 110.4097212, -7.6871497 ] } },
{ "type": "Feature", "properties": { "kampus": "UII Kaliurang", "osm_node": 7305089804, "entrance": null, "barrier": "gate" }, "geometry": { "type": "Point", "coordinates": [ 110.4141452, -7.6862833 ] } },
{ "type": "Feature", "properties": { "kampus": "Sanata Dharma III", "osm_node": 8852336623, "entrance": null, "barrier": "gate" }, "geometry": { "type": "Point", "coordinates": [ 110.4222898, -7.7532617 ] } },
{ "type": "Feature", "properties": { "kampus": "Sanata Dharma III", "osm_node": 8852336624, "entrance": null, "barrier": "gate" }, "geometry": { "type": "Point", "coordinates": [ 110.4218848, -7.7532112 ] } },
{ "type": "Feature", "properties": { "kampus": "Sanata Dharma III", "osm_node": 9180129765, "entrance": null, "barrier": "gate" }, "geometry": { "type": "Point", "coordinates": [ 110.4198782, -7.7554645 ] } },
{ "type": "Feature", "properties": { "kampus": "Sanata Dharma III", "osm_node": 9903821490, "entrance": null, "barrier": "gate" }, "geometry": { "type": "Point", "coordinates": [ 110.4229584, -7.7543712 ] } },
{ "type": "Feature", "properties": { "kampus": "UPN Veteran", "osm_node": 3662557460, "entrance": null, "barrier": "gate" }, "geometry": { "type": "Point", "coordinates": [ 110.4093513, -7.763849 ] } },
{ "type": "Feature", "properties": { "kampus": "UPN Veteran", "osm_node": 5563211071, "entrance": null, "barrier": "gate" }, "geometry": { "type": "Point", "coordinates": [ 110.409365, -7.7611473 ] } },
{ "type": "Feature", "properties": { "kampus": "UPN Veteran", "osm_node": 7265574621, "entrance": null, "barrier": "gate" }, "geometry": { "type": "Point", "coordinates": [ 110.4085095, -7.7637001 ] } },
{ "type": "Feature", "properties": { "kampus": "UPN Veteran", "osm_node": 9169244121, "entrance": null, "barrier": "gate" }, "geometry": { "type": "Point", "coordinates": [ 110.4114426, -7.7637553 ] } },
{ "type": "Feature", "properties": { "kampus": "UPN Veteran", "osm_node": 9529840988, "entrance": null, "barrier": "gate" }, "geometry": { "type": "Point", "coordinates": [ 110.4081929, -7.7637284 ] } },
{ "type": "Feature", "properties": { "kampus": "UPN Veteran", "osm_node": 12414144950, "entrance": null, "barrier": "gate" }, "geometry": { "type": "Point", "coordinates": [ 110.4099173, -7.7613109 ] } },
{ "type": "Feature", "properties": { "kampus": "UPN Veteran", "osm_node": 13327634472, "entrance": null, "barrier": "gate" }, "geometry": { "type": "Point", "coordinates": [ 110.4076787, -7.7609494 ] } },
{ "type": "Feature", "properties": { "kampus": "UPN Veteran", "osm_node": 13327634485, "entrance": null, "barrier": "gate" }, "geometry": { "type": "Point", "coordinates": [ 110.4105296, -7.7640763 ] } },
{ "type": "Feature", "properties": { "kampus": "AMIKOM", "osm_node": 7651911102, "entrance": null, "barrier": "gate" }, "geometry": { "type": "Point", "coordinates": [ 110.4087751, -7.7605603 ] } },
{ "type": "Feature", "properties": { "kampus": "AMIKOM", "osm_node": 10575670700, "entrance": null, "barrier": "gate" }, "geometry": { "type": "Point", "coordinates": [ 110.4094502, -7.7599858 ] } },
{ "type": "Feature", "properties": { "kampus": "AMIKOM", "osm_node": 10575670714, "entrance": null, "barrier": "gate" }, "geometry": { "type": "Point", "coordinates": [ 110.4084014, -7.758543 ] } },
{ "type": "Feature", "properties": { "kampus": "AMIKOM", "osm_node": 10575670724, "entrance": null, "barrier": "gate" }, "geometry": { "type": "Point", "coordinates": [ 110.4078583, -7.7592237 ] } },
{ "type": "Feature", "properties": { "kampus": "AMIKOM", "osm_node": 10575674444, "entrance": null, "barrier": "gate" }, "geometry": { "type": "Point", "coordinates": [ 110.4080436, -7.7589746 ] } },
{ "type": "Feature", "properties": { "kampus": "Atma Jaya Babarsari", "osm_node": 9137151729, "entrance": null, "barrier": "gate" }, "geometry": { "type": "Point", "coordinates": [ 110.4147168, -7.779182 ] } },
{ "type": "Feature", "properties": { "kampus": "Atma Jaya Babarsari", "osm_node": 9137151730, "entrance": null, "barrier": "gate" }, "geometry": { "type": "Point", "coordinates": [ 110.4149083, -7.7791213 ] } },
{ "type": "Feature", "properties": { "kampus": "Atma Jaya Babarsari", "osm_node": 9137151731, "entrance": null, "barrier": "gate" }, "geometry": { "type": "Point", "coordinates": [ 110.414872, -7.7792795 ] } },
{ "type": "Feature", "properties": { "kampus": "Atma Jaya Babarsari", "osm_node": 9137281491, "entrance": null, "barrier": "gate" }, "geometry": { "type": "Point", "coordinates": [ 110.4149377, -7.7788751 ] } },
{ "type": "Feature", "properties": { "kampus": "STIE YKPN", "osm_node": 9163989525, "entrance": null, "barrier": "gate" }, "geometry": { "type": "Point", "coordinates": [ 110.4099726, -7.7697942 ] } },
{ "type": "Feature", "properties": { "kampus": "STIE YKPN", "osm_node": 9529161910, "entrance": null, "barrier": "gate" }, "geometry": { "type": "Point", "coordinates": [ 110.4100844, -7.7692405 ] } },
{ "type": "Feature", "properties": { "kampus": "STIE YKPN", "osm_node": 9529161912, "entrance": null, "barrier": "gate" }, "geometry": { "type": "Point", "coordinates": [ 110.4101952, -7.7685909 ] } },
{ "type": "Feature", "properties": { "kampus": "STIE YKPN", "osm_node": 9529161913, "entrance": null, "barrier": "gate" }, "geometry": { "type": "Point", "coordinates": [ 110.4102587, -7.7680338 ] } },
{ "type": "Feature", "properties": { "kampus": "STIE YKPN", "osm_node": 12619433278, "entrance": null, "barrier": "gate" }, "geometry": { "type": "Point", "coordinates": [ 110.4109262, -7.7703407 ] } },
{ "type": "Feature", "properties": { "kampus": "STIE YKPN", "osm_node": 12850332418, "entrance": null, "barrier": "gate" }, "geometry": { "type": "Point", "coordinates": [ 110.4120593, -7.7698692 ] } },
{ "type": "Feature", "properties": { "kampus": "STIE YKPN", "osm_node": 13972574566, "entrance": null, "barrier": "gate" }, "geometry": { "type": "Point", "coordinates": [ 110.409903, -7.77 ] } },
{ "type": "Feature", "properties": { "kampus": "Instiper", "osm_node": 9513051485, "entrance": null, "barrier": "gate" }, "geometry": { "type": "Point", "coordinates": [ 110.4243202, -7.7609543 ] } },
{ "type": "Feature", "properties": { "kampus": "Instiper", "osm_node": 9885054441, "entrance": null, "barrier": "gate" }, "geometry": { "type": "Point", "coordinates": [ 110.4242261, -7.7608522 ] } },
{ "type": "Feature", "properties": { "kampus": "Instiper", "osm_node": 9897211971, "entrance": null, "barrier": "gate" }, "geometry": { "type": "Point", "coordinates": [ 110.4244083, -7.7599996 ] } },
{ "type": "Feature", "properties": { "kampus": "Instiper", "osm_node": 9903821497, "entrance": null, "barrier": "gate" }, "geometry": { "type": "Point", "coordinates": [ 110.4241551, -7.7613136 ] } },
{ "type": "Feature", "properties": { "kampus": "Instiper", "osm_node": 9903821498, "entrance": null, "barrier": "gate" }, "geometry": { "type": "Point", "coordinates": [ 110.4243866, -7.7601664 ] } },
{ "type": "Feature", "properties": { "kampus": "Instiper", "osm_node": 9918565297, "entrance": null, "barrier": "gate" }, "geometry": { "type": "Point", "coordinates": [ 110.425483, -7.7598387 ] } }
]
}
