{"type": "FeatureCollection", "name": "study_area", "crs": {"type": "name", "properties": {"name": "urn:ogc:def:crs:OGC:1.3:CRS84"}}, "features": [{"type": "Feature", "properties": {"sumber": "dissolve dari 2.134 heksagon H3 res 9", "jumlah_heksagon": 2134, "luas_km2": 213.19}, "geometry": {"type": "Polygon", "coordinates": [[[110.34808678585695, -7.7996569072912125], [110.34637375625556, -7.799257490751956], [110.34598993578692, -7.797581194886406], [110.34427685925198, -7.797181740628042], [110.34389301735044, -7.79550538389195], [110.34217989388445, -7.795105891917573], [110.34179603054983, -7.79342947431469], [110.34008286015519, -7.793029944627365], [110.33969897538735, -7.791353466161484], [110.3410282872121, -7.790076524998163], [110.3406444072088, -7.788399993288116], [110.33893118918253, -7.788000395125662], [110.33854728774536, -7.786323802559334], [110.33683402279301, -7.7859241666916095], [110.33645009992179, -7.784247513272793], [110.33777946820106, -7.782970503338871], [110.33739555009377, -7.781293796688341], [110.3356822375088, -7.780894092354066], [110.33529829796686, -7.779217324857773], [110.33662769720848, -7.777940269315697], [110.33624376243031, -7.7762634485972], [110.33453040221158, -7.775863675800354], [110.33414644599809, -7.7741867942428335], [110.33547587620248, -7.772909693104872], [110.33509192475263, -7.771232758334655], [110.33642136043072, -7.769955634754675], [110.33603741374486, -7.768278646778296], [110.33736685489598, -7.767001500764978], [110.33698291297442, -7.7653244595889825], [110.33526950370073, -7.764924556795967], [110.3348855403423, -7.7632474547936345], [110.3362150124588, -7.761970263216927], [110.33583105386452, -7.760293108024486], [110.33716053145453, -7.759015894033238], [110.33677657762478, -7.757338685657237], [110.33810606068761, -7.75606144926011], [110.3377221116227, -7.7543841877071], [110.33905160015763, -7.753106928912778], [110.3386676558579, -7.751429614189314], [110.3399971498643, -7.750152333006487], [110.3417105626704, -7.750552389680695], [110.3430400366454, -7.749275109249508], [110.34265612331676, -7.747597749013297], [110.34398560276003, -7.746320446209508], [110.34360169419804, -7.744643032819515], [110.34493117910887, -7.743365707651806], [110.34664454707355, -7.7437658190040315], [110.34797401194102, -7.742488494608929], [110.34759013435436, -7.740811035734417], [110.34891960468619, -7.739533688991303], [110.35063292709034, -7.739933824250433], [110.35196237736938, -7.7386564782936205], [110.35157853076107, -7.736978973952714], [110.3529079865013, -7.735701605663821], [110.35462126332921, -7.736101764841357], [110.35595069900718, -7.734824397352479], [110.35766392955705, -7.735224549654197], [110.35899334516583, -7.733947182971817], [110.36070652942963, -7.734347328399799], [110.36203592496227, -7.733069962530413], [110.36165216176302, -7.731392428111764], [110.36298156274863, -7.730115039940664], [110.36469470139775, -7.730515209310023], [110.36602408229778, -7.7292378219656275], [110.3677371746414, -7.729637984469069], [110.36906653544891, -7.728360597957842], [110.370779581479, -7.728760753597435], [110.37116326602845, -7.730438264927269], [110.37287626506745, -7.730838382881133], [110.37420558022619, -7.729561020328474], [110.37382192189554, -7.7278835167037], [110.37515124249722, -7.726606131878266], [110.37686419587607, -7.727006273796417], [110.37819349636443, -7.725728889823608], [110.37780986902979, -7.724051340816581], [110.37913917495787, -7.722773934586911], [110.3808520826609, -7.723174100480868], [110.38218136846622, -7.721896695117535], [110.38389422982021, -7.722296854159624], [110.38522349549584, -7.721019449669085], [110.384839925384, -7.719341863023367], [110.38616919649365, -7.718064436299135], [110.38578563116018, -7.716386796581991], [110.38407276849216, -7.715986575859418], [110.38368918171199, -7.714308875344824], [110.38197627202952, -7.713908616937891], [110.38159266380246, -7.712230855629624], [110.37987970710797, -7.711830559541426], [110.37949607743391, -7.710152737443299], [110.37778307372982, -7.709752403676919], [110.37739942260855, -7.708074520792735], [110.37568637189727, -7.707674149351269], [110.37530269932864, -7.705996205684828], [110.37663210369513, -7.704718641188541], [110.37624843590282, -7.703040644472163], [110.37453533751986, -7.702640204522899], [110.37415164827954, -7.700962147031068], [110.37548108364653, -7.699684537219953], [110.37509739918241, -7.698006426687756], [110.3733842531266, -7.697605918234697], [110.37300054721383, -7.6959277469338225], [110.37128735415357, -7.695527200818035], [110.37090362679197, -7.693848968752289], [110.3722331187152, -7.692571290535772], [110.37184939612919, -7.690893005442233], [110.3731788934983, -7.689615305038507], [110.3727951756882, -7.687936966923748], [110.37108193428331, -7.687536321475238], [110.37069819502325, -7.685857922605419], [110.372027723394, -7.684580176923894], [110.37164398890974, -7.68290172504244], [110.37297352272684, -7.681623957192573], [110.37258979301869, -7.679945452306061], [110.37391933228145, -7.67866766229657], [110.37353560734974, -7.676989104411583], [110.3748651520575, -7.675711292251168], [110.37448143190255, -7.674032681374302], [110.37581098205462, -7.672754847071676], [110.3754272666768, -7.671076183209535], [110.37675682227248, -7.669798326773401], [110.37637311167211, -7.668119609932542], [110.37770267271071, -7.666841731371616], [110.37731896688813, -7.665162961558661], [110.37864853336899, -7.663885060881645], [110.37826483232452, -7.662206238103183], [110.37959440424693, -7.660928315318798], [110.38130765164313, -7.661329238401056], [110.3826372034336, -7.660051316604073], [110.38225353340103, -7.65837244863941], [110.38358309062987, -7.657094504751016], [110.38529629231434, -7.6574954519132055], [110.38662582940178, -7.656217509025924], [110.38624219038412, -7.654538595893268], [110.38757173290676, -7.653260630930527], [110.38928488886381, -7.653661602184139], [110.39061441123559, -7.652383638236233], [110.39023080323594, -7.650704679953782], [110.3915603310397, -7.64942669394637], [110.39327344125365, -7.649827689302893], [110.39460294889712, -7.6485497043240445], [110.39631601270797, -7.648950692915237], [110.39764550018423, -7.647672708971435], [110.39935851758396, -7.64807369079935], [110.40068798488606, -7.646795707897068], [110.40240095586663, -7.647196682963789], [110.40373040298763, -7.645918701109514], [110.40544332754101, -7.646319669417116], [110.40677275447398, -7.645041688617311], [110.40848563259215, -7.645442650167854], [110.40981503933017, -7.644164670429015], [110.41152787100503, -7.644565625224579], [110.41285725754119, -7.6432876465531825], [110.41457004276475, -7.643688594595827], [110.41495344082651, -7.645367490409727], [110.41666617896865, -7.645768400798384], [110.41799551967085, -7.644490446275643], [110.41970821134896, -7.64489134991188], [110.421037531831, -7.643613396468766], [110.42275017703702, -7.644014293354669], [110.4231335011442, -7.6456931127747145], [110.42484609925695, -7.646093972000375], [110.42617537387537, -7.6448160427172915], [110.42788792550328, -7.645216895193094], [110.42827120190164, -7.646895646037849], [110.42998370642914, -7.647296460848749], [110.43036696136852, -7.648975150952424], [110.43207941879322, -7.649375928095322], [110.43340862188349, -7.6480980460525485], [110.43512103280591, -7.648498816444513], [110.4355042400348, -7.65017743795844], [110.43721660384728, -7.650578170677734], [110.43759978961724, -7.6522567314421375], [110.43931210631735, -7.6526574264856535], [110.43969527062858, -7.654335926496743], [110.44140754021392, -7.654736583861404], [110.44179068306657, -7.65641502311536], [110.44350290553471, -7.6568156427980565], [110.44388602692898, -7.65849402129107], [110.44559820227754, -7.658894603288718], [110.44598130221358, -7.660572921016986], [110.44769343044013, -7.660973465326506], [110.44807650891812, -7.6626517222862205], [110.44978859002022, -7.663052228904491], [110.45017164704036, -7.664730425091859], [110.45188368101564, -7.665130894015836], [110.45226671657808, -7.6668090294270375], [110.4509377444196, -7.668086703766242], [110.45132078477889, -7.66976478624962], [110.45303277104257, -7.670165186542317], [110.4534157899448, -7.671843208242741], [110.45512772907914, -7.672243570833438], [110.4555107265245, -7.673921531747112], [110.45418181108967, -7.675199137920087], [110.45456481333245, -7.67687704589336], [110.45627670475623, -7.677277339844178], [110.4566596855428, -7.678955187023928], [110.4553308011592, -7.680232748100035], [110.45571378674336, -7.681910542329804], [110.45438490773631, -7.683188081385], [110.4547678981177, -7.684865822658201], [110.45647974125359, -7.685266017033098], [110.45686271017985, -7.686943697502983], [110.45553386222254, -7.688221191438781], [110.45591683594618, -7.6898988189425435], [110.454587993365, -7.6911762908385555], [110.45497097188569, -7.692853865369591], [110.45364213468127, -7.694131315217105], [110.45402511799867, -7.69580883676885], [110.45573691227003, -7.696208900639969], [110.45611987413389, -7.6978863613756685], [110.45479106797657, -7.699163766071075], [110.45517403463725, -7.700841173817924], [110.45384523385628, -7.702118556445961], [110.45213344074655, -7.701718554422878], [110.45080461967665, -7.702995938072698], [110.45118761738213, -7.704673300647104], [110.44985880169178, -7.705950662213614], [110.45024180419266, -7.707627971782424], [110.4489129938825, -7.70890531125694], [110.44929600117841, -7.710582567813582], [110.44796719624917, -7.7118598851874065], [110.44835020833978, -7.713537088725311], [110.45006199911403, -7.71393696707784], [110.4504449897539, -7.715614109781824], [110.45215673341666, -7.716013950401871], [110.45348548702233, -7.714736679233246], [110.45519718415198, -7.71513651303522], [110.45558012709483, -7.716813587087697], [110.45729177710587, -7.717213383152568], [110.45767469859805, -7.718890396362771], [110.45938630148808, -7.719290154687481], [110.45976920152978, -7.7209671070516395], [110.46148075729636, -7.721366827633112], [110.46186363588775, -7.723043719147455], [110.4635751445285, -7.723443401982639], [110.46395800166975, -7.725120232643383], [110.4626293764182, -7.726397388286611], [110.46301223835744, -7.728074165907818], [110.46472369930058, -7.728473780068621], [110.46510653979031, -7.7301504968295], [110.4668179536051, -7.730550073236382], [110.46720077264553, -7.732226729133174], [110.46891213932956, -7.732626267783076], [110.46929493692086, -7.734302862812005], [110.46796639407613, -7.735579927007479], [110.46834919646646, -7.737256468981386], [110.4700605154538, -7.737655938943862], [110.47044329639566, -7.739332420043189], [110.46911478459765, -7.74060943899371], [110.46949757033867, -7.742285867028504], [110.4712088416305, -7.742685268299612], [110.47159160592368, -7.744361635453104], [110.47026312517204, -7.745638609146355], [110.47064589426454, -7.747314923225805], [110.47235711786197, -7.747714255801617], [110.47273986550726, -7.749390508993036], [110.4714114158016, -7.750667437416714], [110.47179416824635, -7.752343637524582], [110.47046572390134, -7.753620543785117], [110.47084848114521, -7.755296690802887], [110.46952004216153, -7.756573574891591], [110.46990280420418, -7.758249668812712], [110.46857437058254, -7.759526530720925], [110.46895713742364, -7.761202571538838], [110.46762870916473, -7.76247941125787], [110.46801148080394, -7.764155398966053], [110.46668305790841, -7.7654322164872305], [110.4670658343454, -7.767108151079128], [110.46573741681395, -7.768384946393773], [110.4661201980484, -7.770060827862841], [110.46479178588174, -7.771337600962285], [110.4651745719133, -7.773013429301999], [110.46384616511207, -7.7742901801775535], [110.46422895594041, -7.775965955381365], [110.46290055450534, -7.777242684024366], [110.46328335013011, -7.778918406085745], [110.46195495406185, -7.780195112487514], [110.46233775448277, -7.7818707813999115], [110.46100936378201, -7.783147465551779], [110.46139216899871, -7.784823081308684], [110.46006378366614, -7.786099743201985], [110.46044659367828, -7.787775305796839], [110.45911821371459, -7.789051945422905], [110.45950102852187, -7.790727454849196], [110.45817265392773, -7.792004072199344], [110.45855547352977, -7.79367952845055], [110.4572271043059, -7.794956123516136], [110.45760992870237, -7.796631526585699], [110.45932109608857, -7.7970303268359356], [110.45970389904554, -7.7987056689665275], [110.45837556085021, -7.799982218598358], [110.45875836860174, -7.801657507537866], [110.45743003577621, -7.802934034866355], [110.45781284832198, -7.804609270608242], [110.45648452086697, -7.805885775624717], [110.45686733820665, -7.807560958162473], [110.45553901612278, -7.808837440858279], [110.45592183825605, -7.810512570185375], [110.45459352154403, -7.811789030551851], [110.45497634847055, -7.813464106661764], [110.45364803713106, -7.814740544690249], [110.45193687321623, -7.814341929755885], [110.45060854160327, -7.815618368586888], [110.45099139955153, -7.817293399202429], [110.44966307331428, -7.8185698156795596], [110.45004593605432, -7.820244793061291], [110.44871761519349, -7.821521187175904], [110.44700640595181, -7.82112262705947], [110.4456780648294, -7.8223990219556825], [110.44606095858703, -7.824073953814906], [110.44473262284421, -7.82535032633272], [110.44302136770916, -7.824951790144215], [110.4416930117142, -7.826228163429962], [110.44207593648638, -7.827903049748588], [110.44074758587416, -7.82917940064006], [110.43903628486143, -7.82878088836799], [110.43770791400648, -7.8300572400136925], [110.43599656653222, -7.829658720791148], [110.43466817544142, -7.830935073184633], [110.43295678151368, -7.830536547009538], [110.43162837019393, -7.831812900144289], [110.43201137841906, -7.83348775629488], [110.4306829724903, -7.834764087005075], [110.42897153272311, -7.834365584723424], [110.42764310657485, -7.835641916161222], [110.42593162037348, -7.835243406919202], [110.42554855971136, -7.833568535395541], [110.42383702647116, -7.833169988350197], [110.4225085545061, -7.834446343669989], [110.42079697484445, -7.834047789663697], [110.41946848267807, -7.835324145698885], [110.417756856603, -7.834925584729564], [110.41642834424226, -7.836201941473666], [110.41471667176177, -7.835803373539219], [110.41338813921354, -7.837079730985755], [110.41167642033564, -7.8366811560840866], [110.41129323338136, -7.835006192908081], [110.40958146748585, -7.834607580212289], [110.40825288917314, -7.83588396151794], [110.40654107689296, -7.835485341854378], [110.40615784229534, -7.833810310062499], [110.40444598300472, -7.83341165260941], [110.4031173589458, -7.834688057768476], [110.40140545328323, -7.834289393347042], [110.40102217104379, -7.832614292949036], [110.3993102183779, -7.832215590742664], [110.39892691470723, -7.830540429398737], [110.39721491504044, -7.8301416894104685], [110.3958862196863, -7.831418141579795], [110.39417417366501, -7.831019394624185], [110.39379082235419, -7.829344164688385], [110.39207872933915, -7.828945379955465], [110.39169535659705, -7.827270089082012], [110.38998321659068, -7.826871266574835], [110.38959982241715, -7.8251959147674786], [110.38788763542186, -7.824797054489093], [110.38750421981672, -7.823121641751575], [110.38579198583494, -7.822722743705029], [110.38540854879804, -7.8210472700411], [110.38369626783222, -7.8206483342294355], [110.38331280936335, -7.818972799642827], [110.3816004814159, -7.818573826069116], [110.38121700151491, -7.816898230563591], [110.37950462658826, -7.816499219230864], [110.37817573222392, -7.817775834203165], [110.37646331098382, -7.817376815911846], [110.37607978344502, -7.815701151851511], [110.37436731523289, -7.815302095805801], [110.37398376626193, -7.81362637083485], [110.37227125108018, -7.8132272770377975], [110.37094228553859, -7.814503939004531], [110.36922972406087, -7.814104838249888], [110.36884612745378, -7.812429044738454], [110.3671335190136, -7.8120299062370835], [110.36674990097434, -7.8103540518233485], [110.36503724557413, -7.809954875578314], [110.3637082088903, -7.811231584533188], [110.36199550721163, -7.810832401331577], [110.36161184153791, -7.809156478391697], [110.35989909290637, -7.808757257451032], [110.3585700106313, -7.810033990231289], [110.35685721573407, -7.809634762333521], [110.35647350242745, -7.807958770877252], [110.3547606605845, -7.807559505245055], [110.35437692584581, -7.805883452899397], [110.3526640370596, -7.805484149535824], [110.35228028088868, -7.803808036304554], [110.35056734516164, -7.803408695212673], [110.3501835675583, -7.801732521099546], [110.34847058489287, -7.801333142282437], [110.34808678585695, -7.7996569072912125]]]}}]}