{"type":"FeatureCollection","features":[{"type":"Feature","geometry":{"coordinates":[110.4448465,-7.6990058],"type":"Point"},"properties":{"NAMA":"PASAR SAPI JANGKANG","TIPE_1":"PERDAGANGAN DAN RETAIL","TIPE_2":"PASAR","TIPE_3":"PASAR TRADISIONAL","TELEPON":"","ALAMAT":"JL. CANGKRINGAN, AREA SAWAH, WIDODOMARTANI, KEC. NGEMPLAK, KABUPATEN SLEMAN, DAERAH ISTIMEWA YOGYAKARTA 55584","ID_PROV":"34","PROVINSI":"DAERAH ISTIMEWA YOGYAKARTA","ID_KABKOT":"34.04","KABKOT":"SLEMAN","ID_KEC":"34.04.11","KECAMATAN":"NGEMPLAK","ID_DESA":"34.04.11.2003","DESA":"WIDODOMARTANI","LATITUDE":-7.6990058,"LONGITUDE":110.4448465,"STATUS":"BUKA","TANGGAL PENGUMPULAN":"Q2 2025","TANGGAL UPDATE":"17/06/2025"}},{"type":"Feature","geometry":{"coordinates":[110.4323706,-7.7830666],"type":"Point"},"properties":{"NAMA":"PASAR SAMBILEGI","TIPE_1":"PERDAGANGAN DAN RETAIL","TIPE_2":"PASAR","TIPE_3":"PASAR TRADISIONAL","TELEPON":"0818-0428-8400","ALAMAT":"JL. RAYA SOLO - YOGYAKARTA, KEMBANG, MAGUWOHARJO, KEC. DEPOK, KABUPATEN SLEMAN, DAERAH ISTIMEWA YOGYAKARTA 55572","ID_PROV":"34","PROVINSI":"DAERAH ISTIMEWA YOGYAKARTA","ID_KABKOT":"34.04","KABKOT":"SLEMAN","ID_KEC":"34.04.07","KECAMATAN":"DEPOK","ID_DESA":"34.04.07.2002","DESA":"MAGUWOHARJO","LATITUDE":-7.7830666,"LONGITUDE":110.4323706,"STATUS":"BUKA","TANGGAL PENGUMPULAN":"Q2 2025","TANGGAL UPDATE":"17/06/2025"}},{"type":"Feature","geometry":{"coordinates":[110.4609685,-7.7323214],"type":"Point"},"properties":{"NAMA":"PASAR SALAKAN","TIPE_1":"PERDAGANGAN DAN RETAIL","TIPE_2":"PASAR","TIPE_3":"PASAR TRADISIONAL","TELEPON":"","ALAMAT":"SALAKAN, SELOMARTANI, KALASAN, SLEMAN REGENCY, SPECIAL REGION OF YOGYAKARTA 55571","ID_PROV":"34","PROVINSI":"DAERAH ISTIMEWA YOGYAKARTA","ID_KABKOT":"34.04","KABKOT":"SLEMAN","ID_KEC":"34.04.10","KECAMATAN":"KALASAN","ID_DESA":"34.04.10.2004","DESA":"SELOMARTANI","LATITUDE":-7.7323214,"LONGITUDE":110.4609685,"STATUS":"BUKA","TANGGAL PENGUMPULAN":"Q2 2025","TANGGAL UPDATE":"17/06/2025"}},{"type":"Feature","geometry":{"coordinates":[110.4528274,-7.7299607],"type":"Point"},"properties":{"NAMA":"PASAR SIDOREJO BARU","TIPE_1":"PERDAGANGAN DAN RETAIL","TIPE_2":"PASAR","TIPE_3":"PASAR TRADISIONAL","TELEPON":"","ALAMAT":"SIDOREJO SELOMARTANI KALASAN SLEMAN, NGRANGSANG, SELOMARTANI, KEC. KALASAN, KABUPATEN SLEMAN, DAERAH ISTIMEWA YOGYAKARTA 55571","ID_PROV":"34","PROVINSI":"DAERAH ISTIMEWA YOGYAKARTA","ID_KABKOT":"34.04","KABKOT":"SLEMAN","ID_KEC":"34.04.10","KECAMATAN":"KALASAN","ID_DESA":"34.04.10.2004","DESA":"SELOMARTANI","LATITUDE":-7.7299607,"LONGITUDE":110.4528274,"STATUS":"BUKA","TANGGAL PENGUMPULAN":"Q2 2025","TANGGAL UPDATE":"17/06/2025"}},{"type":"Feature","geometry":{"coordinates":[110.4157,-7.7081526],"type":"Point"},"properties":{"NAMA":"PASAR SETOM","TIPE_1":"PERDAGANGAN DAN RETAIL","TIPE_2":"PASAR","TIPE_3":"PASAR TRADISIONAL","TELEPON":"","ALAMAT":"JL. PASIR LUHUR JL. MENDIRO RAYA, AREA SAWAH, SUKOHARJO, KEC. NGAGLIK, KABUPATEN SLEMAN, DAERAH ISTIMEWA YOGYAKARTA 55581","ID_PROV":"34","PROVINSI":"DAERAH ISTIMEWA YOGYAKARTA","ID_KABKOT":"34.04","KABKOT":"SLEMAN","ID_KEC":"34.04.12","KECAMATAN":"NGAGLIK","ID_DESA":"34.04.12.2004","DESA":"SUKOHARJO","LATITUDE":-7.7081526,"LONGITUDE":110.4157,"STATUS":"BUKA","TANGGAL PENGUMPULAN":"Q2 2025","TANGGAL UPDATE":"17/06/2025"}},{"type":"Feature","geometry":{"coordinates":[110.323488,-7.8005894],"type":"Point"},"properties":{"NAMA":"PASAR SENTRAL UMUM AMBARKETAWANG","TIPE_1":"PERDAGANGAN DAN RETAIL","TIPE_2":"PASAR","TIPE_3":"PASAR TRADISIONAL","TELEPON":"(0274) 6499596","ALAMAT":"JL. WATES NO.KM.5, GAMPING TENGAH, AMBARKETAWANG, KEC. GAMPING, KABUPATEN SLEMAN, DAERAH ISTIMEWA YOGYAKARTA 55294","ID_PROV":"34","PROVINSI":"DAERAH ISTIMEWA YOGYAKARTA","ID_KABKOT":"34.04","KABKOT":"SLEMAN","ID_KEC":"34.04.01","KECAMATAN":"GAMPING","ID_DESA":"34.04.01.2002","DESA":"AMBARKETAWANG","LATITUDE":-7.8005894,"LONGITUDE":110.323488,"STATUS":"BUKA","TANGGAL PENGUMPULAN":"Q2 2025","TANGGAL UPDATE":"17/06/2025"}},{"type":"Feature","geometry":{"coordinates":[110.26236139999999,-7.7160431],"type":"Point"},"properties":{"NAMA":"PASAR SEMPRONG","TIPE_1":"PERDAGANGAN DAN RETAIL","TIPE_2":"PASAR","TIPE_3":"PASAR TRADISIONAL","TELEPON":"","ALAMAT":"PARAKAN WETAN, SENDANGSARI, KEC. MINGGIR, KABUPATEN SLEMAN, DAERAH ISTIMEWA YOGYAKARTA 55562","ID_PROV":"34","PROVINSI":"DAERAH ISTIMEWA YOGYAKARTA","ID_KABKOT":"34.04","KABKOT":"SLEMAN","ID_KEC":"34.04.04","KECAMATAN":"MINGGIR","ID_DESA":"34.04.04.2004","DESA":"SENDANGSARI","LATITUDE":-7.7160431,"LONGITUDE":110.2623614,"STATUS":"BUKA","TANGGAL PENGUMPULAN":"Q2 2025","TANGGAL UPDATE":"17/06/2025"}},{"type":"Feature","geometry":{"coordinates":[110.2276811,-7.7524585],"type":"Point"},"properties":{"NAMA":"PASAR SEMBUHAN","TIPE_1":"PERDAGANGAN DAN RETAIL","TIPE_2":"PASAR","TIPE_3":"PASAR TRADISIONAL","TELEPON":"","ALAMAT":"SEMBUHAN KIDUL, SENDANGMULYO, KEC. MINGGIR, KABUPATEN SLEMAN, DAERAH ISTIMEWA YOGYAKARTA 55562","ID_PROV":"34","PROVINSI":"DAERAH ISTIMEWA YOGYAKARTA","ID_KABKOT":"34.04","KABKOT":"SLEMAN","ID_KEC":"34.04.04","KECAMATAN":"MINGGIR","ID_DESA":"34.04.04.2002","DESA":"SENDANGMULYO","LATITUDE":-7.7524585,"LONGITUDE":110.2276811,"STATUS":"BUKA","TANGGAL PENGUMPULAN":"Q2 2025","TANGGAL UPDATE":"17/06/2025"}},{"type":"Feature","geometry":{"coordinates":[110.3312201,-7.7671004],"type":"Point"},"properties":{"NAMA":"PASAR PUNDUNG","TIPE_1":"PERDAGANGAN DAN RETAIL","TIPE_2":"PASAR","TIPE_3":"PASAR TRADISIONAL","TELEPON":"","ALAMAT":"JL. PUNDUNG, CAMBAHAN, NOGOTIRTO, KEC. GAMPING, KABUPATEN SLEMAN, DAERAH ISTIMEWA YOGYAKARTA 55592","ID_PROV":"34","PROVINSI":"DAERAH ISTIMEWA YOGYAKARTA","ID_KABKOT":"34.04","KABKOT":"SLEMAN","ID_KEC":"34.04.01","KECAMATAN":"GAMPING","ID_DESA":"34.04.01.2004","DESA":"NOGOTIRTO","LATITUDE":-7.7671004,"LONGITUDE":110.3312201,"STATUS":"BUKA","TANGGAL PENGUMPULAN":"Q2 2025","TANGGAL UPDATE":"17/06/2025"}},{"type":"Feature","geometry":{"coordinates":[110.4721415,-7.6548125],"type":"Point"},"properties":{"NAMA":"PASAR PUCUNG","TIPE_1":"PERDAGANGAN DAN RETAIL","TIPE_2":"PASAR","TIPE_3":"PASAR TRADISIONAL","TELEPON":"","ALAMAT":"MUDAL, ARGOMULYO, CANGKRINGAN, SLEMAN REGENCY, SPECIAL REGION OF YOGYAKARTA 55583","ID_PROV":"34","PROVINSI":"DAERAH ISTIMEWA YOGYAKARTA","ID_KABKOT":"34.04","KABKOT":"SLEMAN","ID_KEC":"34.04.17","KECAMATAN":"CANGKRINGAN","ID_DESA":"34.04.17.2001","DESA":"ARGOMULYO","LATITUDE":-7.6548125,"LONGITUDE":110.4721415,"STATUS":"BUKA","TANGGAL PENGUMPULAN":"Q2 2025","TANGGAL UPDATE":"17/06/2025"}},{"type":"Feature","geometry":{"coordinates":[110.4824139,-7.7931238],"type":"Point"},"properties":{"NAMA":"PASAR POTROJAYAN","TIPE_1":"PERDAGANGAN DAN RETAIL","TIPE_2":"PASAR","TIPE_3":"PASAR TRADISIONAL","TELEPON":"","ALAMAT":"POTROJAYAN, MADUREJO, KEC. PRAMBANAN, KABUPATEN SLEMAN, DAERAH ISTIMEWA YOGYAKARTA 55572","ID_PROV":"34","PROVINSI":"DAERAH ISTIMEWA YOGYAKARTA","ID_KABKOT":"34.04","KABKOT":"SLEMAN","ID_KEC":"34.04.09","KECAMATAN":"PRAMBANAN","ID_DESA":"34.04.09.2005","DESA":"MADUREJO","LATITUDE":-7.7931238,"LONGITUDE":110.4824139,"STATUS":"BUKA","TANGGAL PENGUMPULAN":"Q2 2025","TANGGAL UPDATE":"17/06/2025"}},{"type":"Feature","geometry":{"coordinates":[110.4891492,-7.7570122],"type":"Point"},"properties":{"NAMA":"PASAR PRAMBANAN","TIPE_1":"PERDAGANGAN DAN RETAIL","TIPE_2":"PASAR","TIPE_3":"PASAR TRADISIONAL","TELEPON":"","ALAMAT":"JALAN RAYA PIYUNGAN, KLURAK BARU, BOKOHARJO, KEC. PRAMBANAN, KABUPATEN SLEMAN, DAERAH ISTIMEWA YOGYAKARTA 55572","ID_PROV":"34","PROVINSI":"DAERAH ISTIMEWA YOGYAKARTA","ID_KABKOT":"34.04","KABKOT":"SLEMAN","ID_KEC":"34.04.09","KECAMATAN":"PRAMBANAN","ID_DESA":"34.04.09.2006","DESA":"BOKOHARJO","LATITUDE":-7.7570122,"LONGITUDE":110.4891492,"STATUS":"BUKA","TANGGAL PENGUMPULAN":"Q2 2025","TANGGAL UPDATE":"17/06/2025"}},{"type":"Feature","geometry":{"coordinates":[110.3873675,-7.7100537],"type":"Point"},"properties":{"NAMA":"PASAR REJODANI","TIPE_1":"PERDAGANGAN DAN RETAIL","TIPE_2":"PASAR","TIPE_3":"PASAR TRADISIONAL","TELEPON":"","ALAMAT":"JL. REJODANI, REJODANI2, SARIHARJO, KEC. NGAGLIK, KABUPATEN SLEMAN, DAERAH ISTIMEWA YOGYAKARTA 55581","ID_PROV":"34","PROVINSI":"DAERAH ISTIMEWA YOGYAKARTA","ID_KABKOT":"34.04","KABKOT":"SLEMAN","ID_KEC":"34.04.12","KECAMATAN":"NGAGLIK","ID_DESA":"34.04.12.2001","DESA":"SARIHARJO","LATITUDE":-7.7100537,"LONGITUDE":110.3873675,"STATUS":"BUKA","TANGGAL PENGUMPULAN":"Q2 2025","TANGGAL UPDATE":"17/06/2025"}},{"type":"Feature","geometry":{"coordinates":[110.4197361,-7.6650556],"type":"Point"},"properties":{"NAMA":"PASAR PAKEM","TIPE_1":"PERDAGANGAN DAN RETAIL","TIPE_2":"PASAR","TIPE_3":"PASAR TRADISIONAL","TELEPON":"","ALAMAT":"JL. KALIURANG NO.KM.17, PAKEMGEDE, PAKEMBINANGUN, KEC. PAKEM, KABUPATEN SLEMAN, DAERAH ISTIMEWA YOGYAKARTA 55582","ID_PROV":"34","PROVINSI":"DAERAH ISTIMEWA YOGYAKARTA","ID_KABKOT":"34.04","KABKOT":"SLEMAN","ID_KEC":"34.04.16","KECAMATAN":"PAKEM","ID_DESA":"34.04.16.2004","DESA":"PAKEMBINANGUN","LATITUDE":-7.6650556,"LONGITUDE":110.4197361,"STATUS":"BUKA","TANGGAL PENGUMPULAN":"Q2 2025","TANGGAL UPDATE":"17/06/2025"}},{"type":"Feature","geometry":{"coordinates":[110.4381561,-7.8272636],"type":"Point"},"properties":{"NAMA":"PASAR PAHING TEGALSARI","TIPE_1":"PERDAGANGAN DAN RETAIL","TIPE_2":"PASAR","TIPE_3":"PASAR TRADISIONAL","TELEPON":"","ALAMAT":"DAWUKAN, SENDANGTIRTO, KEC. BERBAH, KABUPATEN SLEMAN, DAERAH ISTIMEWA YOGYAKARTA 55573","ID_PROV":"34","PROVINSI":"DAERAH ISTIMEWA YOGYAKARTA","ID_KABKOT":"34.04","KABKOT":"SLEMAN","ID_KEC":"34.04.08","KECAMATAN":"BERBAH","ID_DESA":"34.04.08.2001","DESA":"SENDANGTIRTO","LATITUDE":-7.8272636,"LONGITUDE":110.4381561,"STATUS":"BUKA","TANGGAL PENGUMPULAN":"Q2 2025","TANGGAL UPDATE":"17/06/2025"}},{"type":"Feature","geometry":{"coordinates":[110.4206985,-7.666878],"type":"Point"},"properties":{"NAMA":"PASAR PAGI TERMINAL","TIPE_1":"PERDAGANGAN DAN RETAIL","TIPE_2":"PASAR","TIPE_3":"PASAR TRADISIONAL","TELEPON":"","ALAMAT":"AREA SAWAH, PAKEMBINANGUN, KEC. PAKEM, KABUPATEN SLEMAN, DAERAH ISTIMEWA YOGYAKARTA 55582","ID_PROV":"34","PROVINSI":"DAERAH ISTIMEWA YOGYAKARTA","ID_KABKOT":"34.04","KABKOT":"SLEMAN","ID_KEC":"34.04.16","KECAMATAN":"PAKEM","ID_DESA":"34.04.16.2004","DESA":"PAKEMBINANGUN","LATITUDE":-7.666878,"LONGITUDE":110.4206985,"STATUS":"BUKA","TANGGAL PENGUMPULAN":"Q2 2025","TANGGAL UPDATE":"17/06/2025"}},{"type":"Feature","geometry":{"coordinates":[110.4585576,-7.7655902],"type":"Point"},"properties":{"NAMA":"PASAR PAGI KHOIRUNISSA","TIPE_1":"PERDAGANGAN DAN RETAIL","TIPE_2":"PASAR","TIPE_3":"PASAR TRADISIONAL","TELEPON":"","ALAMAT":"TEMANGGAL II, PURWOMARTANI, KEC. KALASAN, KABUPATEN SLEMAN, DAERAH ISTIMEWA YOGYAKARTA 55571","ID_PROV":"34","PROVINSI":"DAERAH ISTIMEWA YOGYAKARTA","ID_KABKOT":"34.04","KABKOT":"SLEMAN","ID_KEC":"34.04.10","KECAMATAN":"KALASAN","ID_DESA":"34.04.10.2001","DESA":"PURWOMARTANI","LATITUDE":-7.7655902,"LONGITUDE":110.4585576,"STATUS":"BUKA","TANGGAL PENGUMPULAN":"Q2 2025","TANGGAL UPDATE":"17/06/2025"}},{"type":"Feature","geometry":{"coordinates":[110.4872321,-7.8013332],"type":"Point"},"properties":{"NAMA":"PASAR PAGI DINGINAN","TIPE_1":"PERDAGANGAN DAN RETAIL","TIPE_2":"PASAR","TIPE_3":"PASAR TRADISIONAL","TELEPON":"","ALAMAT":"DINGINAN, SUMBERHARJO, KEC. PRAMBANAN, KABUPATEN SLEMAN, DAERAH ISTIMEWA YOGYAKARTA 55572","ID_PROV":"34","PROVINSI":"DAERAH ISTIMEWA YOGYAKARTA","ID_KABKOT":"34.04","KABKOT":"SLEMAN","ID_KEC":"34.04.09","KECAMATAN":"PRAMBANAN","ID_DESA":"34.04.09.2001","DESA":"SUMBERHARJO","LATITUDE":-7.8013332,"LONGITUDE":110.4872321,"STATUS":"BUKA","TANGGAL PENGUMPULAN":"Q2 2025","TANGGAL UPDATE":"17/06/2025"}},{"type":"Feature","geometry":{"coordinates":[110.3234649,-7.8017004],"type":"Point"},"properties":{"NAMA":"PASAR PAGI GAMPING","TIPE_1":"PERDAGANGAN DAN RETAIL","TIPE_2":"PASAR","TIPE_3":"PASAR TRADISIONAL","TELEPON":"","ALAMAT":"GAMPING TENGAH, AMBARKETAWANG, KEC. GAMPING, KABUPATEN SLEMAN, DAERAH ISTIMEWA YOGYAKARTA 55294","ID_PROV":"34","PROVINSI":"DAERAH ISTIMEWA YOGYAKARTA","ID_KABKOT":"34.04","KABKOT":"SLEMAN","ID_KEC":"34.04.01","KECAMATAN":"GAMPING","ID_DESA":"34.04.01.2002","DESA":"AMBARKETAWANG","LATITUDE":-7.8017004,"LONGITUDE":110.3234649,"STATUS":"BUKA","TANGGAL PENGUMPULAN":"Q2 2025","TANGGAL UPDATE":"17/06/2025"}},{"type":"Feature","geometry":{"coordinates":[110.3848093,-7.6659266],"type":"Point"},"properties":{"NAMA":"PASAR PERJUANGAN SROWOLAN","TIPE_1":"PERDAGANGAN DAN RETAIL","TIPE_2":"PASAR","TIPE_3":"PASAR TRADISIONAL","TELEPON":"(0274) 8399779","ALAMAT":"JL. PALAGAN TENTARA PELAJAR NO.116, KARANGGENENG, PURWOBINANGUN, KEC. PAKEM, KABUPATEN SLEMAN, DAERAH ISTIMEWA YOGYAKARTA 55582","ID_PROV":"34","PROVINSI":"DAERAH ISTIMEWA YOGYAKARTA","ID_KABKOT":"34.04","KABKOT":"SLEMAN","ID_KEC":"34.04.16","KECAMATAN":"PAKEM","ID_DESA":"34.04.16.2001","DESA":"PURWOBINANGUN","LATITUDE":-7.6659266,"LONGITUDE":110.3848093,"STATUS":"BUKA","TANGGAL PENGUMPULAN":"Q2 2025","TANGGAL UPDATE":"17/06/2025"}},{"type":"Feature","geometry":{"coordinates":[110.4173596,-7.7019393],"type":"Point"},"properties":{"NAMA":"PASAR PASIR LUHUR","TIPE_1":"PERDAGANGAN DAN RETAIL","TIPE_2":"PASAR","TIPE_3":"PASAR TRADISIONAL","TELEPON":"","ALAMAT":"JL. PASIR LUHUR, BESI, SUKOHARJO, NGAGLIK, SLEMAN REGENCY, SPECIAL REGION OF YOGYAKARTA 55581","ID_PROV":"34","PROVINSI":"DAERAH ISTIMEWA YOGYAKARTA","ID_KABKOT":"34.04","KABKOT":"SLEMAN","ID_KEC":"34.04.12","KECAMATAN":"NGAGLIK","ID_DESA":"34.04.12.2004","DESA":"SUKOHARJO","LATITUDE":-7.7019393,"LONGITUDE":110.4173596,"STATUS":"BUKA","TANGGAL PENGUMPULAN":"Q2 2025","TANGGAL UPDATE":"17/06/2025"}},{"type":"Feature","geometry":{"coordinates":[110.4406539,-7.6760402],"type":"Point"},"properties":{"NAMA":"PASAR MINGGU PAGI KAMPOENG SORGUM KALISORO","TIPE_1":"PERDAGANGAN DAN RETAIL","TIPE_2":"PASAR","TIPE_3":"PASAR TRADISIONAL","TELEPON":"","ALAMAT":"TJ. KALISORO, UMBULMARTANI, KEC. NGEMPLAK, KABUPATEN SLEMAN, DAERAH ISTIMEWA YOGYAKARTA 55584","ID_PROV":"34","PROVINSI":"DAERAH ISTIMEWA YOGYAKARTA","ID_KABKOT":"34.04","KABKOT":"SLEMAN","ID_KEC":"34.04.11","KECAMATAN":"NGEMPLAK","ID_DESA":"34.04.11.2005","DESA":"UMBULMARTANI","LATITUDE":-7.6760402,"LONGITUDE":110.4406539,"STATUS":"BUKA","TANGGAL PENGUMPULAN":"Q2 2025","TANGGAL UPDATE":"17/06/2025"}},{"type":"Feature","geometry":{"coordinates":[110.3904148,-7.6255796],"type":"Point"},"properties":{"NAMA":"PASAR NGGOWO GIRIKERTO","TIPE_1":"PERDAGANGAN DAN RETAIL","TIPE_2":"PASAR","TIPE_3":"PASAR TRADISIONAL","TELEPON":"","ALAMAT":"BANGUNMULYO, GIRIKERTO, TURI, SLEMAN REGENCY, SPECIAL REGION OF YOGYAKARTA 55551","ID_PROV":"34","PROVINSI":"DAERAH ISTIMEWA YOGYAKARTA","ID_KABKOT":"34.04","KABKOT":"SLEMAN","ID_KEC":"34.04.15","KECAMATAN":"TURI","ID_DESA":"34.04.15.2003","DESA":"GIRIKERTO","LATITUDE":-7.6255796,"LONGITUDE":110.3904148,"STATUS":"BUKA","TANGGAL PENGUMPULAN":"Q2 2025","TANGGAL UPDATE":"17/06/2025"}},{"type":"Feature","geometry":{"coordinates":[110.25164369999999,-7.7584063],"type":"Point"},"properties":{"NAMA":"PASAR NGIJON","TIPE_1":"PERDAGANGAN DAN RETAIL","TIPE_2":"PASAR","TIPE_3":"PASAR TRADISIONAL","TELEPON":"","ALAMAT":"NGIJON, SUMBERAGUNG, KEC. MOYUDAN, KABUPATEN SLEMAN, DAERAH ISTIMEWA YOGYAKARTA 55563","ID_PROV":"34","PROVINSI":"DAERAH ISTIMEWA YOGYAKARTA","ID_KABKOT":"34.04","KABKOT":"SLEMAN","ID_KEC":"34.04.03","KECAMATAN":"MOYUDAN","ID_DESA":"34.04.03.2003","DESA":"SUMBERAGUNG","LATITUDE":-7.7584063,"LONGITUDE":110.2516437,"STATUS":"BUKA","TANGGAL PENGUMPULAN":"Q2 2025","TANGGAL UPDATE":"17/06/2025"}},{"type":"Feature","geometry":{"coordinates":[110.298274,-7.7081867],"type":"Point"},"properties":{"NAMA":"PASAR NGINO","TIPE_1":"PERDAGANGAN DAN RETAIL","TIPE_2":"PASAR","TIPE_3":"PASAR TRADISIONAL","TELEPON":"","ALAMAT":"NGINO, MARGOAGUNG, KEC. SEYEGAN, KABUPATEN SLEMAN, DAERAH ISTIMEWA YOGYAKARTA 55561","ID_PROV":"34","PROVINSI":"DAERAH ISTIMEWA YOGYAKARTA","ID_KABKOT":"34.04","KABKOT":"SLEMAN","ID_KEC":"34.04.05","KECAMATAN":"SEYEGAN","ID_DESA":"34.04.05.2005","DESA":"MARGOAGUNG","LATITUDE":-7.7081867,"LONGITUDE":110.298274,"STATUS":"BUKA","TANGGAL PENGUMPULAN":"Q2 2025","TANGGAL UPDATE":"17/06/2025"}},{"type":"Feature","geometry":{"coordinates":[110.3773658,-7.6516649],"type":"Point"},"properties":{"NAMA":"PASAR NEW LELANG MANDIRI","TIPE_1":"PERDAGANGAN DAN RETAIL","TIPE_2":"PASAR","TIPE_3":"PASAR TRADISIONAL","TELEPON":"","ALAMAT":"PS. TURI DONOKERTO, TURI, DONOKERTO, KEC. TURI, KABUPATEN SLEMAN, DAERAH ISTIMEWA YOGYAKARTA 55551","ID_PROV":"34","PROVINSI":"DAERAH ISTIMEWA YOGYAKARTA","ID_KABKOT":"34.04","KABKOT":"SLEMAN","ID_KEC":"34.04.15","KECAMATAN":"TURI","ID_DESA":"34.04.15.2002","DESA":"DONOKERTO","LATITUDE":-7.6516649,"LONGITUDE":110.3773658,"STATUS":"BUKA","TANGGAL PENGUMPULAN":"Q2 2025","TANGGAL UPDATE":"17/06/2025"}},{"type":"Feature","geometry":{"coordinates":[110.3553013,-7.6532078],"type":"Point"},"properties":{"NAMA":"PASAR NGABLAK TURI","TIPE_1":"PERDAGANGAN DAN RETAIL","TIPE_2":"PASAR","TIPE_3":"PASAR TRADISIONAL","TELEPON":"","ALAMAT":"KEC. SLEMAN, KABUPATEN SLEMAN, DAERAH ISTIMEWA YOGYAKARTA 55552","ID_PROV":"34","PROVINSI":"DAERAH ISTIMEWA YOGYAKARTA","ID_KABKOT":"34.04","KABKOT":"SLEMAN","ID_KEC":"34.04.15","KECAMATAN":"TURI","ID_DESA":"34.04.15.2001","DESA":"BANGUNKERTO","LATITUDE":-7.6532078,"LONGITUDE":110.3553013,"STATUS":"BUKA","TANGGAL PENGUMPULAN":"Q2 2025","TANGGAL UPDATE":"17/06/2025"}},{"type":"Feature","geometry":{"coordinates":[110.3555464,-7.6532583],"type":"Point"},"properties":{"NAMA":"PASAR NGABLAK TURI","TIPE_1":"PERDAGANGAN DAN RETAIL","TIPE_2":"PASAR","TIPE_3":"PASAR TRADISIONAL","TELEPON":"","ALAMAT":"KARANGWUNI, , SLEMAN, SLEMAN REGENCY, SPECIAL REGION OF YOGYAKARTA 55552","ID_PROV":"34","PROVINSI":"DAERAH ISTIMEWA YOGYAKARTA","ID_KABKOT":"34.04","KABKOT":"SLEMAN","ID_KEC":"34.04.15","KECAMATAN":"TURI","ID_DESA":"34.04.15.2001","DESA":"BANGUNKERTO","LATITUDE":-7.6532583,"LONGITUDE":110.3555464,"STATUS":"BUKA","TANGGAL PENGUMPULAN":"Q2 2025","TANGGAL UPDATE":"17/06/2025"}},{"type":"Feature","geometry":{"coordinates":[110.3492952,-7.7191329],"type":"Point"},"properties":{"NAMA":"PASAR NDELIK PURI MATARAM","TIPE_1":"PERDAGANGAN DAN RETAIL","TIPE_2":"PASAR","TIPE_3":"PASAR TRADISIONAL","TELEPON":"","ALAMAT":"PANGLIKAN, TRIDADI, KEC. SLEMAN, KABUPATEN SLEMAN, DAERAH ISTIMEWA YOGYAKARTA 55511","ID_PROV":"34","PROVINSI":"DAERAH ISTIMEWA YOGYAKARTA","ID_KABKOT":"34.04","KABKOT":"SLEMAN","ID_KEC":"34.04.13","KECAMATAN":"SLEMAN","ID_DESA":"34.04.13.2003","DESA":"TRIDADI","LATITUDE":-7.7191329,"LONGITUDE":110.3492952,"STATUS":"BUKA","TANGGAL PENGUMPULAN":"Q2 2025","TANGGAL UPDATE":"17/06/2025"}},{"type":"Feature","geometry":{"coordinates":[110.4290513,-7.6422301],"type":"Point"},"properties":{"NAMA":"PASAR NDOERENG PENTINGSARI","TIPE_1":"PERDAGANGAN DAN RETAIL","TIPE_2":"PASAR","TIPE_3":"PASAR TRADISIONAL","TELEPON":"0856-3927-865","ALAMAT":"PENTINGSARI, UMBULHARJO, KEC. CANGKRINGAN, KABUPATEN SLEMAN, DAERAH ISTIMEWA YOGYAKARTA 55583","ID_PROV":"34","PROVINSI":"DAERAH ISTIMEWA YOGYAKARTA","ID_KABKOT":"34.04","KABKOT":"SLEMAN","ID_KEC":"34.04.17","KECAMATAN":"CANGKRINGAN","ID_DESA":"34.04.17.2005","DESA":"UMBULHARJO","LATITUDE":-7.6422301,"LONGITUDE":110.4290513,"STATUS":"BUKA","TANGGAL PENGUMPULAN":"Q2 2025","TANGGAL UPDATE":"17/06/2025"}},{"type":"Feature","geometry":{"coordinates":[110.40975,-7.7722222],"type":"Point"},"properties":{"NAMA":"PASAR MITRA TANI BOGOR","TIPE_1":"PERDAGANGAN DAN RETAIL","TIPE_2":"PASAR","TIPE_3":"PASAR TRADISIONAL","TELEPON":"","ALAMAT":"JL. SELOKAN MATARAM JL. RAYA KLEDOKAN NO.3C, KLEDOKAN, CATURTUNGGAL, KEC. DEPOK, KABUPATEN SLEMAN, DAERAH ISTIMEWA YOGYAKARTA 55281","ID_PROV":"34","PROVINSI":"DAERAH ISTIMEWA YOGYAKARTA","ID_KABKOT":"34.04","KABKOT":"SLEMAN","ID_KEC":"34.04.07","KECAMATAN":"DEPOK","ID_DESA":"34.04.07.2001","DESA":"CATURTUNGGAL","LATITUDE":-7.7722222,"LONGITUDE":110.40975,"STATUS":"BUKA","TANGGAL PENGUMPULAN":"Q2 2025","TANGGAL UPDATE":"17/06/2025"}},{"type":"Feature","geometry":{"coordinates":[110.3628336,-7.7613449],"type":"Point"},"properties":{"NAMA":"PASAR KUTU","TIPE_1":"PERDAGANGAN DAN RETAIL","TIPE_2":"PASAR","TIPE_3":"PASAR TRADISIONAL","TELEPON":"","ALAMAT":"JL. WIJAYA KUSUMA, KUTU DUKUH, SINDUADI, MLATI, SLEMAN REGENCY, SPECIAL REGION OF YOGYAKARTA 55284","ID_PROV":"34","PROVINSI":"DAERAH ISTIMEWA YOGYAKARTA","ID_KABKOT":"34.04","KABKOT":"SLEMAN","ID_KEC":"34.04.06","KECAMATAN":"MLATI","ID_DESA":"34.04.06.2001","DESA":"SINDUADI","LATITUDE":-7.7613449,"LONGITUDE":110.3628336,"STATUS":"BUKA","TANGGAL PENGUMPULAN":"Q2 2025","TANGGAL UPDATE":"17/06/2025"}},{"type":"Feature","geometry":{"coordinates":[110.3618412,-7.7612025],"type":"Point"},"properties":{"NAMA":"PASAR KUTU","TIPE_1":"PERDAGANGAN DAN RETAIL","TIPE_2":"PASAR","TIPE_3":"PASAR TRADISIONAL","TELEPON":"","ALAMAT":"JL. MAGELANG, KUTU ASEM, SINDUADI, KEC. MLATI, KABUPATEN SLEMAN, DAERAH ISTIMEWA YOGYAKARTA","ID_PROV":"34","PROVINSI":"DAERAH ISTIMEWA YOGYAKARTA","ID_KABKOT":"34.04","KABKOT":"SLEMAN","ID_KEC":"34.04.06","KECAMATAN":"MLATI","ID_DESA":"34.04.06.2001","DESA":"SINDUADI","LATITUDE":-7.7612025,"LONGITUDE":110.3618412,"STATUS":"BUKA","TANGGAL PENGUMPULAN":"Q2 2025","TANGGAL UPDATE":"17/06/2025"}},{"type":"Feature","geometry":{"coordinates":[110.33658349999999,-7.6470166],"type":"Point"},"properties":{"NAMA":"PASAR KUMANDHANG PASAR SENINE WONG SLEMAN","TIPE_1":"PERDAGANGAN DAN RETAIL","TIPE_2":"PASAR","TIPE_3":"PASAR TRADISIONAL","TELEPON":"0822-2094-2217","ALAMAT":"JL. TEMPEL - TURI, LOJAJAR, MARGOREJO, KEC. TEMPEL, KABUPATEN SLEMAN, DAERAH ISTIMEWA YOGYAKARTA 55552","ID_PROV":"34","PROVINSI":"DAERAH ISTIMEWA YOGYAKARTA","ID_KABKOT":"34.04","KABKOT":"SLEMAN","ID_KEC":"34.04.14","KECAMATAN":"TEMPEL","ID_DESA":"34.04.14.2006","DESA":"MARGOREJO","LATITUDE":-7.6470166,"LONGITUDE":110.3365835,"STATUS":"BUKA","TANGGAL PENGUMPULAN":"Q2 2025","TANGGAL UPDATE":"17/06/2025"}},{"type":"Feature","geometry":{"coordinates":[110.3003122,-7.7843203],"type":"Point"},"properties":{"NAMA":"PASAR KOWEN SIDOKARTO","TIPE_1":"PERDAGANGAN DAN RETAIL","TIPE_2":"PASAR","TIPE_3":"PASAR TRADISIONAL","TELEPON":"","ALAMAT":"REWULU, AREA SAWAH, SIDOKARTO, KEC. GODEAN, KABUPATEN SLEMAN, DAERAH ISTIMEWA YOGYAKARTA 55264","ID_PROV":"34","PROVINSI":"DAERAH ISTIMEWA YOGYAKARTA","ID_KABKOT":"34.04","KABKOT":"SLEMAN","ID_KEC":"34.04.02","KECAMATAN":"GODEAN","ID_DESA":"34.04.02.2005","DESA":"SIDOKARTO","LATITUDE":-7.7843203,"LONGITUDE":110.3003122,"STATUS":"BUKA","TANGGAL PENGUMPULAN":"Q2 2025","TANGGAL UPDATE":"17/06/2025"}},{"type":"Feature","geometry":{"coordinates":[110.5007833,-7.7997497],"type":"Point"},"properties":{"NAMA":"PASAR MALAM MINI","TIPE_1":"PERDAGANGAN DAN RETAIL","TIPE_2":"PASAR","TIPE_3":"PASAR TRADISIONAL","TELEPON":"0822-2406-5323","ALAMAT":"SAWO, SUMBERHARJO, KEC. PRAMBANAN, KABUPATEN SLEMAN, DAERAH ISTIMEWA YOGYAKARTA 55572","ID_PROV":"34","PROVINSI":"DAERAH ISTIMEWA YOGYAKARTA","ID_KABKOT":"34.04","KABKOT":"SLEMAN","ID_KEC":"34.04.09","KECAMATAN":"PRAMBANAN","ID_DESA":"34.04.09.2001","DESA":"SUMBERHARJO","LATITUDE":-7.7997497,"LONGITUDE":110.5007833,"STATUS":"BUKA","TANGGAL PENGUMPULAN":"Q2 2025","TANGGAL UPDATE":"17/06/2025"}},{"type":"Feature","geometry":{"coordinates":[110.4324009,-7.7613524],"type":"Point"},"properties":{"NAMA":"PASAR MAGUWOHARJO","TIPE_1":"PERDAGANGAN DAN RETAIL","TIPE_2":"PASAR","TIPE_3":"PASAR TRADISIONAL","TELEPON":"","ALAMAT":"DENOKAN, MAGUWOHARJO, KEC. DEPOK, KABUPATEN SLEMAN, DAERAH ISTIMEWA YOGYAKARTA 55282","ID_PROV":"34","PROVINSI":"DAERAH ISTIMEWA YOGYAKARTA","ID_KABKOT":"34.04","KABKOT":"SLEMAN","ID_KEC":"34.04.07","KECAMATAN":"DEPOK","ID_DESA":"34.04.07.2002","DESA":"MAGUWOHARJO","LATITUDE":-7.7613524,"LONGITUDE":110.4324009,"STATUS":"BUKA","TANGGAL PENGUMPULAN":"Q2 2025","TANGGAL UPDATE":"17/06/2025"}},{"type":"Feature","geometry":{"coordinates":[110.3065793,-7.7708728],"type":"Point"},"properties":{"NAMA":"PASAR KAMPUNG","TIPE_1":"PERDAGANGAN DAN RETAIL","TIPE_2":"PASAR","TIPE_3":"PASAR TRADISIONAL","TELEPON":"0813-6700-8622","ALAMAT":"KLAJURAN, SIDOKARTO, KEC. GODEAN, KABUPATEN SLEMAN, DIY 55264, KM NO.5 6, KABUPATEN SLEMAN, DAERAH ISTIMEWA YOGYAKARTA 55241","ID_PROV":"34","PROVINSI":"DAERAH ISTIMEWA YOGYAKARTA","ID_KABKOT":"34.04","KABKOT":"SLEMAN","ID_KEC":"34.04.02","KECAMATAN":"GODEAN","ID_DESA":"34.04.02.2005","DESA":"SIDOKARTO","LATITUDE":-7.7708728,"LONGITUDE":110.3065793,"STATUS":"BUKA","TANGGAL PENGUMPULAN":"Q2 2025","TANGGAL UPDATE":"17/06/2025"}},{"type":"Feature","geometry":{"coordinates":[110.4301421,-7.7694583],"type":"Point"},"properties":{"NAMA":"PASAR KALI LEDEK","TIPE_1":"PERDAGANGAN DAN RETAIL","TIPE_2":"PASAR","TIPE_3":"PASAR TRADISIONAL","TELEPON":"","ALAMAT":"GG. MEGUWO NO.RT 01/45, SANGGRAHAN, MAGUWOHARJO, KEC. DEPOK, KABUPATEN SLEMAN, DAERAH ISTIMEWA YOGYAKARTA 55281","ID_PROV":"34","PROVINSI":"DAERAH ISTIMEWA YOGYAKARTA","ID_KABKOT":"34.04","KABKOT":"SLEMAN","ID_KEC":"34.04.07","KECAMATAN":"DEPOK","ID_DESA":"34.04.07.2002","DESA":"MAGUWOHARJO","LATITUDE":-7.7694583,"LONGITUDE":110.4301421,"STATUS":"BUKA","TANGGAL PENGUMPULAN":"Q2 2025","TANGGAL UPDATE":"17/06/2025"}},{"type":"Feature","geometry":{"coordinates":[110.4688825,-7.7698882],"type":"Point"},"properties":{"NAMA":"PASAR KALASAN","TIPE_1":"PERDAGANGAN DAN RETAIL","TIPE_2":"PASAR","TIPE_3":"PASAR TRADISIONAL","TELEPON":"","ALAMAT":"TIRTO MARTANI, KALASAN, GLONDONG, TIRTOMARTANI, SLEMAN, KABUPATEN SLEMAN, DAERAH ISTIMEWA YOGYAKARTA 55571","ID_PROV":"34","PROVINSI":"DAERAH ISTIMEWA YOGYAKARTA","ID_KABKOT":"34.04","KABKOT":"SLEMAN","ID_KEC":"34.04.10","KECAMATAN":"KALASAN","ID_DESA":"34.04.10.2002","DESA":"TIRTOMARTANI","LATITUDE":-7.7698882,"LONGITUDE":110.4688825,"STATUS":"BUKA","TANGGAL PENGUMPULAN":"Q2 2025","TANGGAL UPDATE":"17/06/2025"}},{"type":"Feature","geometry":{"coordinates":[110.389008,-7.745312],"type":"Point"},"properties":{"NAMA":"PASAR KOLOMBO","TIPE_1":"PERDAGANGAN DAN RETAIL","TIPE_2":"PASAR","TIPE_3":"PASAR TRADISIONAL","TELEPON":"","ALAMAT":"JL. KALIURANG NO.KM 7, KENTUNGAN, CONDONGCATUR, KEC. DEPOK, KABUPATEN SLEMAN, DAERAH ISTIMEWA YOGYAKARTA 55281","ID_PROV":"34","PROVINSI":"DAERAH ISTIMEWA YOGYAKARTA","ID_KABKOT":"34.04","KABKOT":"SLEMAN","ID_KEC":"34.04.07","KECAMATAN":"DEPOK","ID_DESA":"34.04.07.2003","DESA":"CONDONGCATUR","LATITUDE":-7.745312,"LONGITUDE":110.389008,"STATUS":"BUKA","TANGGAL PENGUMPULAN":"Q2 2025","TANGGAL UPDATE":"17/06/2025"}},{"type":"Feature","geometry":{"coordinates":[110.388203,-7.7380175],"type":"Point"},"properties":{"NAMA":"PASAR KOMPLEK BANTENG","TIPE_1":"PERDAGANGAN DAN RETAIL","TIPE_2":"PASAR","TIPE_3":"PASAR TRADISIONAL","TELEPON":"","ALAMAT":"JL. BANTENG BARU RAYA NO.3, BANTENG, SINDUHARJO, NGAGLIK, SLEMAN REGENCY, SPECIAL REGION OF YOGYAKARTA 55281","ID_PROV":"34","PROVINSI":"DAERAH ISTIMEWA YOGYAKARTA","ID_KABKOT":"34.04","KABKOT":"SLEMAN","ID_KEC":"34.04.12","KECAMATAN":"NGAGLIK","ID_DESA":"34.04.12.2003","DESA":"SINDUHARJO","LATITUDE":-7.7380175,"LONGITUDE":110.388203,"STATUS":"BUKA","TANGGAL PENGUMPULAN":"Q2 2025","TANGGAL UPDATE":"17/06/2025"}},{"type":"Feature","geometry":{"coordinates":[110.4497171,-7.7468453],"type":"Point"},"properties":{"NAMA":"PASAR KOMPERTA","TIPE_1":"PERDAGANGAN DAN RETAIL","TIPE_2":"PASAR","TIPE_3":"PASAR TRADISIONAL","TELEPON":"","ALAMAT":"BROMONILAN, PURWOMARTANI, KEC. KALASAN, KABUPATEN SLEMAN, DAERAH ISTIMEWA YOGYAKARTA 55571","ID_PROV":"34","PROVINSI":"DAERAH ISTIMEWA YOGYAKARTA","ID_KABKOT":"34.04","KABKOT":"SLEMAN","ID_KEC":"34.04.10","KECAMATAN":"KALASAN","ID_DESA":"34.04.10.2001","DESA":"PURWOMARTANI","LATITUDE":-7.7468453,"LONGITUDE":110.4497171,"STATUS":"BUKA","TANGGAL PENGUMPULAN":"Q2 2025","TANGGAL UPDATE":"17/06/2025"}},{"type":"Feature","geometry":{"coordinates":[110.292897,-7.7573658],"type":"Point"},"properties":{"NAMA":"PASAR KLITIKKAN TGP","TIPE_1":"PERDAGANGAN DAN RETAIL","TIPE_2":"PASAR","TIPE_3":"PASAR TRADISIONAL","TELEPON":"","ALAMAT":"JL. GODEAN - SEYEGAN, KLACI III, MARGOLUWIH, KEC. SEYEGAN, KABUPATEN SLEMAN, DAERAH ISTIMEWA YOGYAKARTA 55264","ID_PROV":"34","PROVINSI":"DAERAH ISTIMEWA YOGYAKARTA","ID_KABKOT":"34.04","KABKOT":"SLEMAN","ID_KEC":"34.04.05","KECAMATAN":"SEYEGAN","ID_DESA":"34.04.05.2001","DESA":"MARGOLUWIH","LATITUDE":-7.7573658,"LONGITUDE":110.292897,"STATUS":"BUKA","TANGGAL PENGUMPULAN":"Q2 2025","TANGGAL UPDATE":"17/06/2025"}},{"type":"Feature","geometry":{"coordinates":[110.3375836,-7.6469284],"type":"Point"},"properties":{"NAMA":"PASAR KLANGENAN","TIPE_1":"PERDAGANGAN DAN RETAIL","TIPE_2":"PASAR","TIPE_3":"PASAR TRADISIONAL","TELEPON":"0818-0404-6530","ALAMAT":"JL. TEMPEL - TURI, LOJAJAR, MARGOREJO, KEC. TEMPEL, KABUPATEN SLEMAN, DAERAH ISTIMEWA YOGYAKARTA 55552","ID_PROV":"34","PROVINSI":"DAERAH ISTIMEWA YOGYAKARTA","ID_KABKOT":"34.04","KABKOT":"SLEMAN","ID_KEC":"34.04.14","KECAMATAN":"TEMPEL","ID_DESA":"34.04.14.2006","DESA":"MARGOREJO","LATITUDE":-7.6469284,"LONGITUDE":110.3375836,"STATUS":"BUKA","TANGGAL PENGUMPULAN":"Q2 2025","TANGGAL UPDATE":"17/06/2025"}},{"type":"Feature","geometry":{"coordinates":[110.2707572,-7.7485793],"type":"Point"},"properties":{"NAMA":"PASAR KLEWONAN","TIPE_1":"PERDAGANGAN DAN RETAIL","TIPE_2":"PASAR","TIPE_3":"PASAR TRADISIONAL","TELEPON":"","ALAMAT":"KLIWONAN, SIDOREJO, GODEAN, SLEMAN REGENCY, SPECIAL REGION OF YOGYAKARTA 55264","ID_PROV":"34","PROVINSI":"DAERAH ISTIMEWA YOGYAKARTA","ID_KABKOT":"34.04","KABKOT":"SLEMAN","ID_KEC":"34.04.02","KECAMATAN":"GODEAN","ID_DESA":"34.04.02.2001","DESA":"SIDOREJO","LATITUDE":-7.7485793,"LONGITUDE":110.2707572,"STATUS":"BUKA","TANGGAL PENGUMPULAN":"Q2 2025","TANGGAL UPDATE":"17/06/2025"}},{"type":"Feature","geometry":{"coordinates":[110.29353239999999,-7.7664579],"type":"Point"},"properties":{"NAMA":"PASAR KLITHIKAN GODEAN TERMURAH","TIPE_1":"PERDAGANGAN DAN RETAIL","TIPE_2":"PASAR","TIPE_3":"PASAR TRADISIONAL","TELEPON":"","ALAMAT":"JL. PRAMUKA, AREA SAWAH, SIDOAGUNG, KEC. GODEAN, KABUPATEN SLEMAN, DAERAH ISTIMEWA YOGYAKARTA 55264","ID_PROV":"34","PROVINSI":"DAERAH ISTIMEWA YOGYAKARTA","ID_KABKOT":"34.04","KABKOT":"SLEMAN","ID_KEC":"34.04.02","KECAMATAN":"GODEAN","ID_DESA":"34.04.02.2004","DESA":"SIDOAGUNG","LATITUDE":-7.7664579,"LONGITUDE":110.2935324,"STATUS":"BUKA","TANGGAL PENGUMPULAN":"Q2 2025","TANGGAL UPDATE":"17/06/2025"}},{"type":"Feature","geometry":{"coordinates":[110.3465952,-7.7037603],"type":"Point"},"properties":{"NAMA":"PASAR KLITHIKAN DAN UNGGAS SLEMAN INTEGRATED","TIPE_1":"PERDAGANGAN DAN RETAIL","TIPE_2":"PASAR","TIPE_3":"PASAR TRADISIONAL","TELEPON":"","ALAMAT":"GG. BOUGENVILE, KALAH IJO 1, TRIHARJO, KEC. SLEMAN, KABUPATEN SLEMAN, DAERAH ISTIMEWA YOGYAKARTA 55514","ID_PROV":"34","PROVINSI":"DAERAH ISTIMEWA YOGYAKARTA","ID_KABKOT":"34.04","KABKOT":"SLEMAN","ID_KEC":"34.04.13","KECAMATAN":"SLEMAN","ID_DESA":"34.04.13.2002","DESA":"TRIHARJO","LATITUDE":-7.7037603,"LONGITUDE":110.3465952,"STATUS":"BUKA","TANGGAL PENGUMPULAN":"Q2 2025","TANGGAL UPDATE":"17/06/2025"}},{"type":"Feature","geometry":{"coordinates":[110.30902719999999,-7.7792906],"type":"Point"},"properties":{"NAMA":"PASAR KETHIP SEBARAN","TIPE_1":"PERDAGANGAN DAN RETAIL","TIPE_2":"PASAR","TIPE_3":"PASAR TRADISIONAL","TELEPON":"","ALAMAT":"SEBARAN RT01/RW24, AREA SAWAH, SIDOARUM, KEC. GODEAN, KABUPATEN SLEMAN, DAERAH ISTIMEWA YOGYAKARTA 55264","ID_PROV":"34","PROVINSI":"DAERAH ISTIMEWA YOGYAKARTA","ID_KABKOT":"34.04","KABKOT":"SLEMAN","ID_KEC":"34.04.02","KECAMATAN":"GODEAN","ID_DESA":"34.04.02.2006","DESA":"SIDOARUM","LATITUDE":-7.7792906,"LONGITUDE":110.3090272,"STATUS":"BUKA","TANGGAL PENGUMPULAN":"Q2 2025","TANGGAL UPDATE":"17/06/2025"}},{"type":"Feature","geometry":{"coordinates":[110.5019223,-7.806631],"type":"Point"},"properties":{"NAMA":"PASAR KENARAN","TIPE_1":"PERDAGANGAN DAN RETAIL","TIPE_2":"PASAR","TIPE_3":"PASAR TRADISIONAL","TELEPON":"","ALAMAT":"KENARAN, SUMBERHARJO, PRAMBANAN, SLEMAN REGENCY, SPECIAL REGION OF YOGYAKARTA 55572","ID_PROV":"34","PROVINSI":"DAERAH ISTIMEWA YOGYAKARTA","ID_KABKOT":"34.04","KABKOT":"SLEMAN","ID_KEC":"34.04.09","KECAMATAN":"PRAMBANAN","ID_DESA":"34.04.09.2001","DESA":"SUMBERHARJO","LATITUDE":-7.806631,"LONGITUDE":110.5019223,"STATUS":"BUKA","TANGGAL PENGUMPULAN":"Q2 2025","TANGGAL UPDATE":"17/06/2025"}},{"type":"Feature","geometry":{"coordinates":[110.2366699,-7.7890061],"type":"Point"},"properties":{"NAMA":"PASAR KEMBANGAN","TIPE_1":"PERDAGANGAN DAN RETAIL","TIPE_2":"PASAR","TIPE_3":"PASAR TRADISIONAL","TELEPON":"","ALAMAT":"KEMBANGAN I, SUMBERRAHAYU, KEC. MOYUDAN, KABUPATEN SLEMAN, DAERAH ISTIMEWA YOGYAKARTA 55563","ID_PROV":"34","PROVINSI":"DAERAH ISTIMEWA YOGYAKARTA","ID_KABKOT":"34.04","KABKOT":"SLEMAN","ID_KEC":"34.04.03","KECAMATAN":"MOYUDAN","ID_DESA":"34.04.03.2001","DESA":"SUMBERRAHAYU","LATITUDE":-7.7890061,"LONGITUDE":110.2366699,"STATUS":"BUKA","TANGGAL PENGUMPULAN":"Q2 2025","TANGGAL UPDATE":"17/06/2025"}},{"type":"Feature","geometry":{"coordinates":[110.2333607,-7.7256195],"type":"Point"},"properties":{"NAMA":"PASAR KEBONAGUNG ","TIPE_1":"PERDAGANGAN DAN RETAIL","TIPE_2":"PASAR","TIPE_3":"PASAR TRADISIONAL","TELEPON":"","ALAMAT":"KLIRAN, SENDANGAGUNG, KEC. MINGGIR, KABUPATEN SLEMAN, DAERAH ISTIMEWA YOGYAKARTA 55562","ID_PROV":"34","PROVINSI":"DAERAH ISTIMEWA YOGYAKARTA","ID_KABKOT":"34.04","KABKOT":"SLEMAN","ID_KEC":"34.04.04","KECAMATAN":"MINGGIR","ID_DESA":"34.04.04.2003","DESA":"SENDANGAGUNG","LATITUDE":-7.7256195,"LONGITUDE":110.2333607,"STATUS":"BUKA","TANGGAL PENGUMPULAN":"Q2 2025","TANGGAL UPDATE":"17/06/2025"}},{"type":"Feature","geometry":{"coordinates":[110.32281289999999,-7.7999255],"type":"Point"},"properties":{"NAMA":"PASAR INDUK BUAH DAN SAYUR GAMPING","TIPE_1":"PERDAGANGAN DAN RETAIL","TIPE_2":"PASAR","TIPE_3":"PASAR TRADISIONAL","TELEPON":"","ALAMAT":"PASAR, GG. GEMAH RIPAH BLK. G, PATUKAN, AMBARKETAWANG, GAMPING, SLEMAN REGENCY, SPECIAL REGION OF YOGYAKARTA 55253","ID_PROV":"34","PROVINSI":"DAERAH ISTIMEWA YOGYAKARTA","ID_KABKOT":"34.04","KABKOT":"SLEMAN","ID_KEC":"34.04.01","KECAMATAN":"GAMPING","ID_DESA":"34.04.01.2002","DESA":"AMBARKETAWANG","LATITUDE":-7.7999255,"LONGITUDE":110.3228129,"STATUS":"BUKA","TANGGAL PENGUMPULAN":"Q2 2025","TANGGAL UPDATE":"17/06/2025"}},{"type":"Feature","geometry":{"coordinates":[110.4363786,-7.7681945],"type":"Point"},"properties":{"NAMA":"PASAR IKAN SIMBAH","TIPE_1":"PERDAGANGAN DAN RETAIL","TIPE_2":"PASAR","TIPE_3":"PASAR TRADISIONAL","TELEPON":"0896-8634-1170","ALAMAT":"BEDREG SEMBEGO, RT.09/RW.41, MEGUWO, MAGUWOHARJO, YOGYAKARTA, KABUPATEN SLEMAN, DAERAH ISTIMEWA YOGYAKARTA 55282","ID_PROV":"34","PROVINSI":"DAERAH ISTIMEWA YOGYAKARTA","ID_KABKOT":"34.04","KABKOT":"SLEMAN","ID_KEC":"34.04.07","KECAMATAN":"DEPOK","ID_DESA":"34.04.07.2002","DESA":"MAGUWOHARJO","LATITUDE":-7.7681945,"LONGITUDE":110.4363786,"STATUS":"BUKA","TANGGAL PENGUMPULAN":"Q2 2025","TANGGAL UPDATE":"17/06/2025"}},{"type":"Feature","geometry":{"coordinates":[110.3183885,-7.7537206],"type":"Point"},"properties":{"NAMA":"PASAR IKAN SIDOMOYO","TIPE_1":"PERDAGANGAN DAN RETAIL","TIPE_2":"PASAR","TIPE_3":"PASAR TRADISIONAL","TELEPON":"0851-0087-3971","ALAMAT":"NGRENAK, AREA SAWAH, SIDOMOYO, KEC. GODEAN, KABUPATEN SLEMAN, DAERAH ISTIMEWA YOGYAKARTA 55264","ID_PROV":"34","PROVINSI":"DAERAH ISTIMEWA YOGYAKARTA","ID_KABKOT":"34.04","KABKOT":"SLEMAN","ID_KEC":"34.04.02","KECAMATAN":"GODEAN","ID_DESA":"34.04.02.2007","DESA":"SIDOMOYO","LATITUDE":-7.7537206,"LONGITUDE":110.3183885,"STATUS":"BUKA","TANGGAL PENGUMPULAN":"Q2 2025","TANGGAL UPDATE":"17/06/2025"}},{"type":"Feature","geometry":{"coordinates":[110.3466774,-7.7016046],"type":"Point"},"properties":{"NAMA":"PASAR IKAN SLEMAN","TIPE_1":"PERDAGANGAN DAN RETAIL","TIPE_2":"PASAR","TIPE_3":"PASAR TRADISIONAL","TELEPON":"","ALAMAT":"PS. SLEMAN, JL. SERSAN KUSDIYO NO.18, KALAH IJO 1, TRIHARJO, KEC. SLEMAN, KABUPATEN SLEMAN, DAERAH ISTIMEWA YOGYAKARTA 55514","ID_PROV":"34","PROVINSI":"DAERAH ISTIMEWA YOGYAKARTA","ID_KABKOT":"34.04","KABKOT":"SLEMAN","ID_KEC":"34.04.13","KECAMATAN":"SLEMAN","ID_DESA":"34.04.13.2002","DESA":"TRIHARJO","LATITUDE":-7.7016046,"LONGITUDE":110.3466774,"STATUS":"BUKA","TANGGAL PENGUMPULAN":"Q2 2025","TANGGAL UPDATE":"17/06/2025"}},{"type":"Feature","geometry":{"coordinates":[110.3424954,-7.773636],"type":"Point"},"properties":{"NAMA":"PASAR IKAN NOGOTIRTO","TIPE_1":"PERDAGANGAN DAN RETAIL","TIPE_2":"PASAR","TIPE_3":"PASAR TRADISIONAL","TELEPON":"0858-6887-9406","ALAMAT":"JL. KABUPATEN NO.99, AREA SAWAH, NOGOTIRTO, GAMPING, SLEMAN REGENCY, SPECIAL REGION OF YOGYAKARTA 55291","ID_PROV":"34","PROVINSI":"DAERAH ISTIMEWA YOGYAKARTA","ID_KABKOT":"34.04","KABKOT":"SLEMAN","ID_KEC":"34.04.01","KECAMATAN":"GAMPING","ID_DESA":"34.04.01.2004","DESA":"NOGOTIRTO","LATITUDE":-7.773636,"LONGITUDE":110.3424954,"STATUS":"BUKA","TANGGAL PENGUMPULAN":"Q2 2025","TANGGAL UPDATE":"17/06/2025"}},{"type":"Feature","geometry":{"coordinates":[110.3815843,-7.6392753],"type":"Point"},"properties":{"NAMA":"PASAR IKAN MINA TARUNA","TIPE_1":"PERDAGANGAN DAN RETAIL","TIPE_2":"PASAR","TIPE_3":"PASAR TRADISIONAL","TELEPON":"0813-9293-6100","ALAMAT":"GARONGAN, WONOKERTO KEMBANG, KEMBANG, WONO KERTO, KEC. TURI, KABUPATEN SLEMAN, DAERAH ISTIMEWA YOGYAKARTA 55551","ID_PROV":"34","PROVINSI":"DAERAH ISTIMEWA YOGYAKARTA","ID_KABKOT":"34.04","KABKOT":"SLEMAN","ID_KEC":"34.04.15","KECAMATAN":"TURI","ID_DESA":"34.04.15.2004","DESA":"WONOKERTO","LATITUDE":-7.6392753,"LONGITUDE":110.3815843,"STATUS":"BUKA","TANGGAL PENGUMPULAN":"Q2 2025","TANGGAL UPDATE":"17/06/2025"}},{"type":"Feature","geometry":{"coordinates":[110.4141506,-7.7681056],"type":"Point"},"properties":{"NAMA":"PASAR IKAN MINADADI","TIPE_1":"PERDAGANGAN DAN RETAIL","TIPE_2":"PASAR","TIPE_3":"PASAR TRADISIONAL","TELEPON":"0857-1393-1425","ALAMAT":"KLEDOKAN, CATURTUNGGAL, KEC. DEPOK, KABUPATEN SLEMAN, DAERAH ISTIMEWA YOGYAKARTA 55281","ID_PROV":"34","PROVINSI":"DAERAH ISTIMEWA YOGYAKARTA","ID_KABKOT":"34.04","KABKOT":"SLEMAN","ID_KEC":"34.04.07","KECAMATAN":"DEPOK","ID_DESA":"34.04.07.2001","DESA":"CATURTUNGGAL","LATITUDE":-7.7681056,"LONGITUDE":110.4141506,"STATUS":"BUKA","TANGGAL PENGUMPULAN":"Q2 2025","TANGGAL UPDATE":"17/06/2025"}},{"type":"Feature","geometry":{"coordinates":[110.4611466,-7.6802589],"type":"Point"},"properties":{"NAMA":"PASAR IKAN KRIDO BARUNO","TIPE_1":"PERDAGANGAN DAN RETAIL","TIPE_2":"PASAR","TIPE_3":"PASAR TRADISIONAL","TELEPON":"","ALAMAT":"JL. CANGKRINGAN, CANGKRINGAN, BIMOMARTANI, KEC. NGEMPLAK, KABUPATEN SLEMAN, DAERAH ISTIMEWA YOGYAKARTA 55584","ID_PROV":"34","PROVINSI":"DAERAH ISTIMEWA YOGYAKARTA","ID_KABKOT":"34.04","KABKOT":"SLEMAN","ID_KEC":"34.04.17","KECAMATAN":"CANGKRINGAN","ID_DESA":"34.04.17.2001","DESA":"ARGOMULYO","LATITUDE":-7.6802589,"LONGITUDE":110.4611466,"STATUS":"BUKA","TANGGAL PENGUMPULAN":"Q2 2025","TANGGAL UPDATE":"17/06/2025"}},{"type":"Feature","geometry":{"coordinates":[110.28619649999999,-7.7619878],"type":"Point"},"properties":{"NAMA":"PASAR IKAN HOLIXIS MUNENGAN GODEAN","TIPE_1":"PERDAGANGAN DAN RETAIL","TIPE_2":"PASAR","TIPE_3":"PASAR TRADISIONAL","TELEPON":"0857-0760-8699","ALAMAT":"NGABANGAN, SIDOLUHUR, KEC. GODEAN, KABUPATEN SLEMAN, DAERAH ISTIMEWA YOGYAKARTA 55264","ID_PROV":"34","PROVINSI":"DAERAH ISTIMEWA YOGYAKARTA","ID_KABKOT":"34.04","KABKOT":"SLEMAN","ID_KEC":"34.04.02","KECAMATAN":"GODEAN","ID_DESA":"34.04.02.2002","DESA":"SIDOLUHUR","LATITUDE":-7.7619878,"LONGITUDE":110.2861965,"STATUS":"BUKA","TANGGAL PENGUMPULAN":"Q2 2025","TANGGAL UPDATE":"17/06/2025"}},{"type":"Feature","geometry":{"coordinates":[110.4058829,-7.6289593],"type":"Point"},"properties":{"NAMA":"PASAR IKAN KARANGNILA","TIPE_1":"PERDAGANGAN DAN RETAIL","TIPE_2":"PASAR","TIPE_3":"PASAR TRADISIONAL","TELEPON":"0813-9205-0338","ALAMAT":"KARANGNONGKO, PURWOBINANGUN, RT04/RW10, KABUPATEN SLEMAN, DAERAH ISTIMEWA YOGYAKARTA 55582","ID_PROV":"34","PROVINSI":"DAERAH ISTIMEWA YOGYAKARTA","ID_KABKOT":"34.04","KABKOT":"SLEMAN","ID_KEC":"34.04.16","KECAMATAN":"PAKEM","ID_DESA":"34.04.16.2001","DESA":"PURWOBINANGUN","LATITUDE":-7.6289593,"LONGITUDE":110.4058829,"STATUS":"BUKA","TANGGAL PENGUMPULAN":"Q2 2025","TANGGAL UPDATE":"17/06/2025"}},{"type":"Feature","geometry":{"coordinates":[110.38156,-7.63933],"type":"Point"},"properties":{"NAMA":"PASAR IKAN GARONGAN ","TIPE_1":"PERDAGANGAN DAN RETAIL","TIPE_2":"PASAR","TIPE_3":"PASAR TRADISIONAL","TELEPON":"0813-9293-6100","ALAMAT":"JL. DUSUN GARONGAN, KEMBANG, WONO KERTO, KEC. TURI, KABUPATEN SLEMAN, DAERAH ISTIMEWA YOGYAKARTA 55551","ID_PROV":"34","PROVINSI":"DAERAH ISTIMEWA YOGYAKARTA","ID_KABKOT":"34.04","KABKOT":"SLEMAN","ID_KEC":"34.04.15","KECAMATAN":"TURI","ID_DESA":"34.04.15.2004","DESA":"WONOKERTO","LATITUDE":-7.63933,"LONGITUDE":110.38156,"STATUS":"BUKA","TANGGAL PENGUMPULAN":"Q2 2025","TANGGAL UPDATE":"17/06/2025"}},{"type":"Feature","geometry":{"coordinates":[110.4595625,-7.6821548],"type":"Point"},"properties":{"NAMA":"PASAR JARJO  PASAR PAHING ","TIPE_1":"PERDAGANGAN DAN RETAIL","TIPE_2":"PASAR","TIPE_3":"PASAR TRADISIONAL","TELEPON":"","ALAMAT":"BANJAR HARJO, BIMOMARTANI, KEC. NGEMPLAK, KABUPATEN SLEMAN, DAERAH ISTIMEWA YOGYAKARTA 55584","ID_PROV":"34","PROVINSI":"DAERAH ISTIMEWA YOGYAKARTA","ID_KABKOT":"34.04","KABKOT":"SLEMAN","ID_KEC":"34.04.11","KECAMATAN":"NGEMPLAK","ID_DESA":"34.04.11.2002","DESA":"BIMOMARTANI","LATITUDE":-7.6821548,"LONGITUDE":110.4595625,"STATUS":"BUKA","TANGGAL PENGUMPULAN":"Q2 2025","TANGGAL UPDATE":"17/06/2025"}},{"type":"Feature","geometry":{"coordinates":[110.4760587,-7.6943163],"type":"Point"},"properties":{"NAMA":"PASAR JAMBON SINDUMARTANI","TIPE_1":"PERDAGANGAN DAN RETAIL","TIPE_2":"PASAR","TIPE_3":"PASAR TRADISIONAL","TELEPON":"","ALAMAT":"JAMBON LOR SINDUMARTANI NGEMPLAK SLEMAN, YOGYAKARTA, DAERAH ISTIMEWA YOGYAKARTA","ID_PROV":"34","PROVINSI":"DAERAH ISTIMEWA YOGYAKARTA","ID_KABKOT":"34.04","KABKOT":"SLEMAN","ID_KEC":"34.04.11","KECAMATAN":"NGEMPLAK","ID_DESA":"34.04.11.2001","DESA":"SINDUMARTANI","LATITUDE":-7.6943163,"LONGITUDE":110.4760587,"STATUS":"BUKA","TANGGAL PENGUMPULAN":"Q2 2025","TANGGAL UPDATE":"17/06/2025"}},{"type":"Feature","geometry":{"coordinates":[110.446964,-7.7008093],"type":"Point"},"properties":{"NAMA":"PASAR JANGKANG","TIPE_1":"PERDAGANGAN DAN RETAIL","TIPE_2":"PASAR","TIPE_3":"PASAR TRADISIONAL","TELEPON":"","ALAMAT":"JANGKANG, WIDODOMARTANI, KEC. NGEMPLAK, KABUPATEN SLEMAN, DAERAH ISTIMEWA YOGYAKARTA 55584","ID_PROV":"34","PROVINSI":"DAERAH ISTIMEWA YOGYAKARTA","ID_KABKOT":"34.04","KABKOT":"SLEMAN","ID_KEC":"34.04.11","KECAMATAN":"NGEMPLAK","ID_DESA":"34.04.11.2003","DESA":"WIDODOMARTANI","LATITUDE":-7.7008093,"LONGITUDE":110.446964,"STATUS":"BUKA","TANGGAL PENGUMPULAN":"Q2 2025","TANGGAL UPDATE":"17/06/2025"}},{"type":"Feature","geometry":{"coordinates":[110.2986782,-7.6803882],"type":"Point"},"properties":{"NAMA":"PASAR GENDOL ","TIPE_1":"PERDAGANGAN DAN RETAIL","TIPE_2":"PASAR","TIPE_3":"PASAR TRADISIONAL","TELEPON":"","ALAMAT":"JALAN TEMPEL - DEKSO, SUMBEREJO, TEMPEL, GENDOL, SUMBEREJO, KEC. SLEMAN, KABUPATEN SLEMAN, DAERAH ISTIMEWA YOGYAKARTA 55552","ID_PROV":"34","PROVINSI":"DAERAH ISTIMEWA YOGYAKARTA","ID_KABKOT":"34.04","KABKOT":"SLEMAN","ID_KEC":"34.04.14","KECAMATAN":"TEMPEL","ID_DESA":"34.04.14.2003","DESA":"SUMBERREJO","LATITUDE":-7.6803882,"LONGITUDE":110.2986782,"STATUS":"BUKA","TANGGAL PENGUMPULAN":"Q2 2025","TANGGAL UPDATE":"17/06/2025"}},{"type":"Feature","geometry":{"coordinates":[110.3236906,-7.8008245],"type":"Point"},"properties":{"NAMA":"PASAR GAMPING SLEMAN","TIPE_1":"PERDAGANGAN DAN RETAIL","TIPE_2":"PASAR","TIPE_3":"PASAR TRADISIONAL","TELEPON":"","ALAMAT":"JALAN RAYA WATES-JOGJAKARTA NO.KM 4.5, GAMPING TENGAH, AMBARKETAWANG, KEC. GAMPING, KABUPATEN SLEMAN, DAERAH ISTIMEWA YOGYAKARTA 55294","ID_PROV":"34","PROVINSI":"DAERAH ISTIMEWA YOGYAKARTA","ID_KABKOT":"34.04","KABKOT":"SLEMAN","ID_KEC":"34.04.01","KECAMATAN":"GAMPING","ID_DESA":"34.04.01.2002","DESA":"AMBARKETAWANG","LATITUDE":-7.8008245,"LONGITUDE":110.3236906,"STATUS":"BUKA","TANGGAL PENGUMPULAN":"Q2 2025","TANGGAL UPDATE":"17/06/2025"}},{"type":"Feature","geometry":{"coordinates":[110.32274969999999,-7.7906411],"type":"Point"},"properties":{"NAMA":"PASAR IKAN DWI DANI","TIPE_1":"PERDAGANGAN DAN RETAIL","TIPE_2":"PASAR","TIPE_3":"PASAR TRADISIONAL","TELEPON":"0822-4549-9079","ALAMAT":"JL. SIDOARUM-GAMPING NO.2, MEJING WETAN, AMBARKETAWANG, KEC. GAMPING, KABUPATEN SLEMAN, DAERAH ISTIMEWA YOGYAKARTA 55294","ID_PROV":"34","PROVINSI":"DAERAH ISTIMEWA YOGYAKARTA","ID_KABKOT":"34.04","KABKOT":"SLEMAN","ID_KEC":"34.04.01","KECAMATAN":"GAMPING","ID_DESA":"34.04.01.2002","DESA":"AMBARKETAWANG","LATITUDE":-7.7906411,"LONGITUDE":110.3227497,"STATUS":"BUKA","TANGGAL PENGUMPULAN":"Q2 2025","TANGGAL UPDATE":"17/06/2025"}},{"type":"Feature","geometry":{"coordinates":[110.4879007,-7.7575913],"type":"Point"},"properties":{"NAMA":"PASAR HEWAN PELEMSARI","TIPE_1":"PERDAGANGAN DAN RETAIL","TIPE_2":"PASAR","TIPE_3":"PASAR TRADISIONAL","TELEPON":"","ALAMAT":"JL. OPAK VIII, JOBOHAN, BOKOHARJO, PRAMBANAN, SLEMAN REGENCY, SPECIAL REGION OF YOGYAKARTA 55572","ID_PROV":"34","PROVINSI":"DAERAH ISTIMEWA YOGYAKARTA","ID_KABKOT":"34.04","KABKOT":"SLEMAN","ID_KEC":"34.04.09","KECAMATAN":"PRAMBANAN","ID_DESA":"34.04.09.2006","DESA":"BOKOHARJO","LATITUDE":-7.7575913,"LONGITUDE":110.4879007,"STATUS":"BUKA","TANGGAL PENGUMPULAN":"Q2 2025","TANGGAL UPDATE":"17/06/2025"}},{"type":"Feature","geometry":{"coordinates":[110.47906409999999,-7.7732101],"type":"Point"},"properties":{"NAMA":"PASAR HEWAN PELEMSARI","TIPE_1":"PERDAGANGAN DAN RETAIL","TIPE_2":"PASAR","TIPE_3":"PASAR TRADISIONAL","TELEPON":"","ALAMAT":"JL. OPAK VIII, JOBOHAN, BOKOHARJO, PRAMBANAN, SLEMAN REGENCY, SPECIAL REGION OF YOGYAKARTA 55572","ID_PROV":"34","PROVINSI":"DAERAH ISTIMEWA YOGYAKARTA","ID_KABKOT":"34.04","KABKOT":"SLEMAN","ID_KEC":"34.04.09","KECAMATAN":"PRAMBANAN","ID_DESA":"34.04.09.2006","DESA":"BOKOHARJO","LATITUDE":-7.7732101,"LONGITUDE":110.4790641,"STATUS":"BUKA","TANGGAL PENGUMPULAN":"Q2 2025","TANGGAL UPDATE":"17/06/2025"}},{"type":"Feature","geometry":{"coordinates":[110.4221907,-7.6670722],"type":"Point"},"properties":{"NAMA":"PASAR HEWAN PAKEM","TIPE_1":"PERDAGANGAN DAN RETAIL","TIPE_2":"PASAR","TIPE_3":"PASAR TRADISIONAL","TELEPON":"","ALAMAT":"JL. CANGKRINGAN NO.05, AREA SAWAH, PAKEMBINANGUN, KEC. PAKEM, KABUPATEN SLEMAN, DAERAH ISTIMEWA YOGYAKARTA 55582","ID_PROV":"34","PROVINSI":"DAERAH ISTIMEWA YOGYAKARTA","ID_KABKOT":"34.04","KABKOT":"SLEMAN","ID_KEC":"34.04.16","KECAMATAN":"PAKEM","ID_DESA":"34.04.16.2004","DESA":"PAKEMBINANGUN","LATITUDE":-7.6670722,"LONGITUDE":110.4221907,"STATUS":"BUKA","TANGGAL PENGUMPULAN":"Q2 2025","TANGGAL UPDATE":"17/06/2025"}},{"type":"Feature","geometry":{"coordinates":[110.2919683,-7.7662978],"type":"Point"},"properties":{"NAMA":"PASAR HEWAN DAN HOBIES GODEAN","TIPE_1":"PERDAGANGAN DAN RETAIL","TIPE_2":"PASAR","TIPE_3":"PASAR TRADISIONAL","TELEPON":"","ALAMAT":"PS. GODEAN, JL. NGAPAK - KENTHENG NO.9, GODEAN, SIDOLUHUR, KEC. GODEAN, KABUPATEN SLEMAN, DAERAH ISTIMEWA YOGYAKARTA 55264","ID_PROV":"34","PROVINSI":"DAERAH ISTIMEWA YOGYAKARTA","ID_KABKOT":"34.04","KABKOT":"SLEMAN","ID_KEC":"34.04.02","KECAMATAN":"GODEAN","ID_DESA":"34.04.02.2004","DESA":"SIDOAGUNG","LATITUDE":-7.7662978,"LONGITUDE":110.2919683,"STATUS":"BUKA","TANGGAL PENGUMPULAN":"Q2 2025","TANGGAL UPDATE":"17/06/2025"}},{"type":"Feature","geometry":{"coordinates":[110.300996,-7.7827201],"type":"Point"},"properties":{"NAMA":"PASAR HEWAN & PON BARU","TIPE_1":"PERDAGANGAN DAN RETAIL","TIPE_2":"PASAR","TIPE_3":"PASAR TRADISIONAL","TELEPON":"","ALAMAT":"AREA SAWAH, SIDOKARTO, KEC. GODEAN, KABUPATEN SLEMAN, DAERAH ISTIMEWA YOGYAKARTA 55264","ID_PROV":"34","PROVINSI":"DAERAH ISTIMEWA YOGYAKARTA","ID_KABKOT":"34.04","KABKOT":"SLEMAN","ID_KEC":"34.04.02","KECAMATAN":"GODEAN","ID_DESA":"34.04.02.2005","DESA":"SIDOKARTO","LATITUDE":-7.7827201,"LONGITUDE":110.300996,"STATUS":"BUKA","TANGGAL PENGUMPULAN":"Q2 2025","TANGGAL UPDATE":"17/06/2025"}},{"type":"Feature","geometry":{"coordinates":[110.3088646,-7.8136633],"type":"Point"},"properties":{"NAMA":"PASAR HEWAN AMBARKETAWANG GAMPING","TIPE_1":"PERDAGANGAN DAN RETAIL","TIPE_2":"PASAR","TIPE_3":"PASAR TRADISIONAL","TELEPON":"0858-6884-4900","ALAMAT":"MANCASAN, AMBARKETAWANG, GAMPING, SLEMAN REGENCY, SPECIAL REGION OF YOGYAKARTA 55294","ID_PROV":"34","PROVINSI":"DAERAH ISTIMEWA YOGYAKARTA","ID_KABKOT":"34.04","KABKOT":"SLEMAN","ID_KEC":"34.04.01","KECAMATAN":"GAMPING","ID_DESA":"34.04.01.2002","DESA":"AMBARKETAWANG","LATITUDE":-7.8136633,"LONGITUDE":110.3088646,"STATUS":"BUKA","TANGGAL PENGUMPULAN":"Q2 2025","TANGGAL UPDATE":"17/06/2025"}},{"type":"Feature","geometry":{"coordinates":[110.2903872,-7.7661788],"type":"Point"},"properties":{"NAMA":"PASAR GOODEAN","TIPE_1":"PERDAGANGAN DAN RETAIL","TIPE_2":"PASAR","TIPE_3":"PASAR TRADISIONAL","TELEPON":"","ALAMAT":"JL. SUPARJO, NGABANGAN, SIDOLUHUR, KEC. GODEAN, KABUPATEN SLEMAN, DAERAH ISTIMEWA YOGYAKARTA 55264","ID_PROV":"34","PROVINSI":"DAERAH ISTIMEWA YOGYAKARTA","ID_KABKOT":"34.04","KABKOT":"SLEMAN","ID_KEC":"34.04.02","KECAMATAN":"GODEAN","ID_DESA":"34.04.02.2004","DESA":"SIDOAGUNG","LATITUDE":-7.7661788,"LONGITUDE":110.2903872,"STATUS":"BUKA","TANGGAL PENGUMPULAN":"Q2 2025","TANGGAL UPDATE":"17/06/2025"}},{"type":"Feature","geometry":{"coordinates":[110.4000935,-7.7806851],"type":"Point"},"properties":{"NAMA":"PASAR GOWOK PASAR CATURTUNGGAL","TIPE_1":"PERDAGANGAN DAN RETAIL","TIPE_2":"PASAR","TIPE_3":"PASAR TRADISIONAL","TELEPON":"(0274) 2807282","ALAMAT":"JALAN NOLOGATEN NO.326 RT 09 RW 03 PADUKUHAN, NOLOGATEN, CATURTUNGGAL, KEC. DEPOK, KABUPATEN SLEMAN, DAERAH ISTIMEWA YOGYAKARTA 55281","ID_PROV":"34","PROVINSI":"DAERAH ISTIMEWA YOGYAKARTA","ID_KABKOT":"34.04","KABKOT":"SLEMAN","ID_KEC":"34.04.07","KECAMATAN":"DEPOK","ID_DESA":"34.04.07.2001","DESA":"CATURTUNGGAL","LATITUDE":-7.7806851,"LONGITUDE":110.4000935,"STATUS":"BUKA","TANGGAL PENGUMPULAN":"Q2 2025","TANGGAL UPDATE":"17/06/2025"}},{"type":"Feature","geometry":{"coordinates":[110.2760226,-7.7616785],"type":"Point"},"properties":{"NAMA":"PASAR GODEAN RELOKASI","TIPE_1":"PERDAGANGAN DAN RETAIL","TIPE_2":"PASAR","TIPE_3":"PASAR TRADISIONAL","TELEPON":"","ALAMAT":"JL. NGAPAK - KENTHENG, SEMARANGAN, SIDOKARTO, GODEAN, SLEMAN REGENCY, SPECIAL REGION OF YOGYAKARTA 55264","ID_PROV":"34","PROVINSI":"DAERAH ISTIMEWA YOGYAKARTA","ID_KABKOT":"34.04","KABKOT":"SLEMAN","ID_KEC":"34.04.02","KECAMATAN":"GODEAN","ID_DESA":"34.04.02.2002","DESA":"SIDOLUHUR","LATITUDE":-7.7616785,"LONGITUDE":110.2760226,"STATUS":"BUKA","TANGGAL PENGUMPULAN":"Q2 2025","TANGGAL UPDATE":"17/06/2025"}},{"type":"Feature","geometry":{"coordinates":[110.2908374,-7.7662612],"type":"Point"},"properties":{"NAMA":"PASAR GODEAN","TIPE_1":"PERDAGANGAN DAN RETAIL","TIPE_2":"PASAR","TIPE_3":"PASAR TRADISIONAL","TELEPON":"","ALAMAT":"JL. NGAPAK - KENTHENG NO.10, RW.38, GODEAN, SIDOAGUNG, KEC. GODEAN, KABUPATEN SLEMAN, DAERAH ISTIMEWA YOGYAKARTA 55264","ID_PROV":"34","PROVINSI":"DAERAH ISTIMEWA YOGYAKARTA","ID_KABKOT":"34.04","KABKOT":"SLEMAN","ID_KEC":"34.04.02","KECAMATAN":"GODEAN","ID_DESA":"34.04.02.2004","DESA":"SIDOAGUNG","LATITUDE":-7.7662612,"LONGITUDE":110.2908374,"STATUS":"BUKA","TANGGAL PENGUMPULAN":"Q2 2025","TANGGAL UPDATE":"17/06/2025"}},{"type":"Feature","geometry":{"coordinates":[110.4561158,-7.6437574],"type":"Point"},"properties":{"NAMA":"PASAR COKRO KEMBANG","TIPE_1":"PERDAGANGAN DAN RETAIL","TIPE_2":"PASAR","TIPE_3":"PASAR TRADISIONAL","TELEPON":"","ALAMAT":"DUWET, WUKIRSARI, KEC. CANGKRINGAN, KABUPATEN SLEMAN, DAERAH ISTIMEWA YOGYAKARTA 55583","ID_PROV":"34","PROVINSI":"DAERAH ISTIMEWA YOGYAKARTA","ID_KABKOT":"34.04","KABKOT":"SLEMAN","ID_KEC":"34.04.17","KECAMATAN":"CANGKRINGAN","ID_DESA":"34.04.17.2002","DESA":"WUKIRSARI","LATITUDE":-7.6437574,"LONGITUDE":110.4561158,"STATUS":"BUKA","TANGGAL PENGUMPULAN":"Q2 2025","TANGGAL UPDATE":"17/06/2025"}},{"type":"Feature","geometry":{"coordinates":[110.23731439999999,-7.8054005],"type":"Point"},"properties":{"NAMA":"PASAR DESA GAMPLONG","TIPE_1":"PERDAGANGAN DAN RETAIL","TIPE_2":"PASAR","TIPE_3":"PASAR TRADISIONAL","TELEPON":"","ALAMAT":"DUKUH, SUMBERRAHAYU, MOYUDAN, SLEMAN REGENCY, SPECIAL REGION OF YOGYAKARTA 55563","ID_PROV":"34","PROVINSI":"DAERAH ISTIMEWA YOGYAKARTA","ID_KABKOT":"34.04","KABKOT":"SLEMAN","ID_KEC":"34.04.03","KECAMATAN":"MOYUDAN","ID_DESA":"34.04.03.2001","DESA":"SUMBERRAHAYU","LATITUDE":-7.8054005,"LONGITUDE":110.2373144,"STATUS":"BUKA","TANGGAL PENGUMPULAN":"Q2 2025","TANGGAL UPDATE":"17/06/2025"}},{"type":"Feature","geometry":{"coordinates":[110.4002077,-7.7807378],"type":"Point"},"properties":{"NAMA":"PASAR DESA CATURTUNGGAL","TIPE_1":"PERDAGANGAN DAN RETAIL","TIPE_2":"PASAR","TIPE_3":"PASAR TRADISIONAL","TELEPON":"","ALAMAT":"NO., JL. WALESDADI SULIPTO NO.317, TEMPEL, CATURTUNGGAL, KEC. DEPOK, KABUPATEN SLEMAN, DAERAH ISTIMEWA YOGYAKARTA 55281","ID_PROV":"34","PROVINSI":"DAERAH ISTIMEWA YOGYAKARTA","ID_KABKOT":"34.04","KABKOT":"SLEMAN","ID_KEC":"34.04.07","KECAMATAN":"DEPOK","ID_DESA":"34.04.07.2001","DESA":"CATURTUNGGAL","LATITUDE":-7.7807378,"LONGITUDE":110.4002077,"STATUS":"BUKA","TANGGAL PENGUMPULAN":"Q2 2025","TANGGAL UPDATE":"17/06/2025"}},{"type":"Feature","geometry":{"coordinates":[110.2994866,-7.7839446],"type":"Point"},"properties":{"NAMA":"PASAR BIBIS","TIPE_1":"PERDAGANGAN DAN RETAIL","TIPE_2":"PASAR","TIPE_3":"PASAR TRADISIONAL","TELEPON":"","ALAMAT":"PASAR REWULU KULON, JL. GODEAN, GODEAN, SIDOMULYO, SLEMAN, JL. BIBIS, REWULU KULON, SIDOKARTO, KEC. GODEAN, KABUPATEN SLEMAN, DAERAH ISTIMEWA YOGYAKARTA 55264","ID_PROV":"34","PROVINSI":"DAERAH ISTIMEWA YOGYAKARTA","ID_KABKOT":"34.04","KABKOT":"SLEMAN","ID_KEC":"34.04.02","KECAMATAN":"GODEAN","ID_DESA":"34.04.02.2005","DESA":"SIDOKARTO","LATITUDE":-7.7839446,"LONGITUDE":110.2994866,"STATUS":"BUKA","TANGGAL PENGUMPULAN":"Q2 2025","TANGGAL UPDATE":"17/06/2025"}},{"type":"Feature","geometry":{"coordinates":[110.3313549,-7.7305736],"type":"Point"},"properties":{"NAMA":"PASAR CEBONGAN","TIPE_1":"PERDAGANGAN DAN RETAIL","TIPE_2":"PASAR","TIPE_3":"PASAR TRADISIONAL","TELEPON":"","ALAMAT":"JL. PURBAYA, GABAHAN, SUMBERADI, KEC. MLATI, KABUPATEN SLEMAN, DAERAH ISTIMEWA YOGYAKARTA 55288","ID_PROV":"34","PROVINSI":"DAERAH ISTIMEWA YOGYAKARTA","ID_KABKOT":"34.04","KABKOT":"SLEMAN","ID_KEC":"34.04.06","KECAMATAN":"MLATI","ID_DESA":"34.04.06.2005","DESA":"SUMBERADI","LATITUDE":-7.7305736,"LONGITUDE":110.3313549,"STATUS":"BUKA","TANGGAL PENGUMPULAN":"Q2 2025","TANGGAL UPDATE":"17/06/2025"}},{"type":"Feature","geometry":{"coordinates":[110.4433203,-7.7829035],"type":"Point"},"properties":{"NAMA":"PASAR CANDISAMBISARI","TIPE_1":"PERDAGANGAN DAN RETAIL","TIPE_2":"PASAR","TIPE_3":"PASAR TRADISIONAL","TELEPON":"","ALAMAT":"JUWANGEN, PURWOMARTANI, KEC. KALASAN, KABUPATEN SLEMAN, DAERAH ISTIMEWA YOGYAKARTA","ID_PROV":"34","PROVINSI":"DAERAH ISTIMEWA YOGYAKARTA","ID_KABKOT":"34.04","KABKOT":"SLEMAN","ID_KEC":"34.04.10","KECAMATAN":"KALASAN","ID_DESA":"34.04.10.2001","DESA":"PURWOMARTANI","LATITUDE":-7.7829035,"LONGITUDE":110.4433203,"STATUS":"BUKA","TANGGAL PENGUMPULAN":"Q2 2025","TANGGAL UPDATE":"17/06/2025"}},{"type":"Feature","geometry":{"coordinates":[110.4222496,-7.6674814],"type":"Point"},"properties":{"NAMA":"PASAR BURUNG PAKEM","TIPE_1":"PERDAGANGAN DAN RETAIL","TIPE_2":"PASAR","TIPE_3":"PASAR TRADISIONAL","TELEPON":"","ALAMAT":"AREA SAWAH, PAKEMBINANGUN, KEC. PAKEM, KABUPATEN SLEMAN, DAERAH ISTIMEWA YOGYAKARTA 55582","ID_PROV":"34","PROVINSI":"DAERAH ISTIMEWA YOGYAKARTA","ID_KABKOT":"34.04","KABKOT":"SLEMAN","ID_KEC":"34.04.16","KECAMATAN":"PAKEM","ID_DESA":"34.04.16.2004","DESA":"PAKEMBINANGUN","LATITUDE":-7.6674814,"LONGITUDE":110.4222496,"STATUS":"BUKA","TANGGAL PENGUMPULAN":"Q2 2025","TANGGAL UPDATE":"17/06/2025"}},{"type":"Feature","geometry":{"coordinates":[110.338855,-7.7791265],"type":"Point"},"properties":{"NAMA":"PASAR BURUNG TLAGAREJA","TIPE_1":"PERDAGANGAN DAN RETAIL","TIPE_2":"PASAR","TIPE_3":"PASAR TRADISIONAL","TELEPON":"","ALAMAT":"KOMPLEK PASAR TLAGAREJA, JALAN GODEAN KM. 5, MODINAN, BANYURADEN, GAMPING, AREA SAWAH, BANYURADEN, KEC. GAMPING, KABUPATEN SLEMAN, DAERAH ISTIMEWA YOGYAKARTA 55293","ID_PROV":"34","PROVINSI":"DAERAH ISTIMEWA YOGYAKARTA","ID_KABKOT":"34.04","KABKOT":"SLEMAN","ID_KEC":"34.04.01","KECAMATAN":"GAMPING","ID_DESA":"34.04.01.2003","DESA":"BANYURADEN","LATITUDE":-7.7791265,"LONGITUDE":110.338855,"STATUS":"BUKA","TANGGAL PENGUMPULAN":"Q2 2025","TANGGAL UPDATE":"17/06/2025"}},{"type":"Feature","geometry":{"coordinates":[110.43177879999999,-7.7671505],"type":"Point"},"properties":{"NAMA":"PASAR BUNGA DAN TANAMAN HIAS LOTTEMART","TIPE_1":"PERDAGANGAN DAN RETAIL","TIPE_2":"PASAR","TIPE_3":"PASAR TRADISIONAL","TELEPON":"","ALAMAT":"JL. RING ROAD UTARA, MEGUWO, MAGUWOHARJO, DEPOK, SLEMAN REGENCY, SPECIAL REGION OF YOGYAKARTA 55281","ID_PROV":"34","PROVINSI":"DAERAH ISTIMEWA YOGYAKARTA","ID_KABKOT":"34.04","KABKOT":"SLEMAN","ID_KEC":"34.04.07","KECAMATAN":"DEPOK","ID_DESA":"34.04.07.2002","DESA":"MAGUWOHARJO","LATITUDE":-7.7671505,"LONGITUDE":110.4317788,"STATUS":"BUKA","TANGGAL PENGUMPULAN":"Q2 2025","TANGGAL UPDATE":"17/06/2025"}},{"type":"Feature","geometry":{"coordinates":[110.4623716,-7.6641695],"type":"Point"},"properties":{"NAMA":"PASAR BRONGGANG","TIPE_1":"PERDAGANGAN DAN RETAIL","TIPE_2":"PASAR","TIPE_3":"PASAR TRADISIONAL","TELEPON":"","ALAMAT":"JL. CANGKRINGAN, KUWANG, ARGOMULYO, KEC. CANGKRINGAN, KABUPATEN SLEMAN, DAERAH ISTIMEWA YOGYAKARTA 55583","ID_PROV":"34","PROVINSI":"DAERAH ISTIMEWA YOGYAKARTA","ID_KABKOT":"34.04","KABKOT":"SLEMAN","ID_KEC":"34.04.17","KECAMATAN":"CANGKRINGAN","ID_DESA":"34.04.17.2001","DESA":"ARGOMULYO","LATITUDE":-7.6641695,"LONGITUDE":110.4623716,"STATUS":"BUKA","TANGGAL PENGUMPULAN":"Q2 2025","TANGGAL UPDATE":"17/06/2025"}},{"type":"Feature","geometry":{"coordinates":[110.4855714,-7.7693818],"type":"Point"},"properties":{"NAMA":"PASAR AYAM PRAMBANAN","TIPE_1":"PERDAGANGAN DAN RETAIL","TIPE_2":"PASAR","TIPE_3":"PASAR TRADISIONAL","TELEPON":"","ALAMAT":"JL. RAYA PIYUNGAN - PRAMBANAN, RINGIN SARI, BOKOHARJO, KEC. PRAMBANAN, KABUPATEN SLEMAN, DAERAH ISTIMEWA YOGYAKARTA 55572","ID_PROV":"34","PROVINSI":"DAERAH ISTIMEWA YOGYAKARTA","ID_KABKOT":"34.04","KABKOT":"SLEMAN","ID_KEC":"34.04.09","KECAMATAN":"PRAMBANAN","ID_DESA":"34.04.09.2006","DESA":"BOKOHARJO","LATITUDE":-7.7693818,"LONGITUDE":110.4855714,"STATUS":"BUKA","TANGGAL PENGUMPULAN":"Q2 2025","TANGGAL UPDATE":"17/06/2025"}},{"type":"Feature","geometry":{"coordinates":[110.3749755,-7.6153249],"type":"Point"},"properties":{"NAMA":"PASAR BALERANTE SEMPU WONOKERTO TURI","TIPE_1":"PERDAGANGAN DAN RETAIL","TIPE_2":"PASAR","TIPE_3":"PASAR TRADISIONAL","TELEPON":"","ALAMAT":"SEMPU,WONOKERTO,, JL. BALERANTE, SEMPU, WONO KERTO, KEC. TURI, KABUPATEN SLEMAN, DAERAH ISTIMEWA YOGYAKARTA 55551","ID_PROV":"34","PROVINSI":"DAERAH ISTIMEWA YOGYAKARTA","ID_KABKOT":"34.04","KABKOT":"SLEMAN","ID_KEC":"34.04.15","KECAMATAN":"TURI","ID_DESA":"34.04.15.2004","DESA":"WONOKERTO","LATITUDE":-7.6153249,"LONGITUDE":110.3749755,"STATUS":"BUKA","TANGGAL PENGUMPULAN":"Q2 2025","TANGGAL UPDATE":"17/06/2025"}},{"type":"Feature","geometry":{"coordinates":[110.4500685,-7.6417333],"type":"Point"},"properties":{"NAMA":"PASAR BAMBU","TIPE_1":"PERDAGANGAN DAN RETAIL","TIPE_2":"PASAR","TIPE_3":"PASAR TRADISIONAL","TELEPON":"","ALAMAT":"GONDANG, WUKIRSARI, KEC. CANGKRINGAN, KABUPATEN SLEMAN, DAERAH ISTIMEWA YOGYAKARTA 55583","ID_PROV":"34","PROVINSI":"DAERAH ISTIMEWA YOGYAKARTA","ID_KABKOT":"34.04","KABKOT":"SLEMAN","ID_KEC":"34.04.17","KECAMATAN":"CANGKRINGAN","ID_DESA":"34.04.17.2002","DESA":"WUKIRSARI","LATITUDE":-7.6417333,"LONGITUDE":110.4500685,"STATUS":"BUKA","TANGGAL PENGUMPULAN":"Q2 2025","TANGGAL UPDATE":"17/06/2025"}},{"type":"Feature","geometry":{"coordinates":[110.2711745,-7.7166481],"type":"Point"},"properties":{"NAMA":"PASAR BALANGAN","TIPE_1":"PERDAGANGAN DAN RETAIL","TIPE_2":"PASAR","TIPE_3":"PASAR TRADISIONAL","TELEPON":"","ALAMAT":"SUNGGUNGAN, SENDANGREJO, KEC. MINGGIR, KABUPATEN SLEMAN, DAERAH ISTIMEWA YOGYAKARTA 55562","ID_PROV":"34","PROVINSI":"DAERAH ISTIMEWA YOGYAKARTA","ID_KABKOT":"34.04","KABKOT":"SLEMAN","ID_KEC":"34.04.04","KECAMATAN":"MINGGIR","ID_DESA":"34.04.04.2005","DESA":"SENDANGREJO","LATITUDE":-7.7166481,"LONGITUDE":110.2711745,"STATUS":"BUKA","TANGGAL PENGUMPULAN":"Q2 2025","TANGGAL UPDATE":"17/06/2025"}},{"type":"Feature","geometry":{"coordinates":[110.2959457,-7.8063689],"type":"Point"},"properties":{"NAMA":"PASAR BALECATUR","TIPE_1":"PERDAGANGAN DAN RETAIL","TIPE_2":"PASAR","TIPE_3":"PASAR TRADISIONAL","TELEPON":"","ALAMAT":"JL. WATES KM 8.5, NGARAN, BALECATUR, GAMPING, SLEMAN REGENCY, SPECIAL REGION OF YOGYAKARTA 55295","ID_PROV":"34","PROVINSI":"DAERAH ISTIMEWA YOGYAKARTA","ID_KABKOT":"34.04","KABKOT":"SLEMAN","ID_KEC":"34.04.01","KECAMATAN":"GAMPING","ID_DESA":"34.04.01.2001","DESA":"BALECATUR","LATITUDE":-7.8063689,"LONGITUDE":110.2959457,"STATUS":"BUKA","TANGGAL PENGUMPULAN":"Q2 2025","TANGGAL UPDATE":"17/06/2025"}},{"type":"Feature","geometry":{"coordinates":[110.3374606,-7.7802642],"type":"Point"},"properties":{"NAMA":"PASAR TRADISIONAL TELOGOREJO","TIPE_1":"PERDAGANGAN DAN RETAIL","TIPE_2":"PASAR","TIPE_3":"PASAR TRADISIONAL","TELEPON":"0882-3304-3615","ALAMAT":"PATRAN, BANYURADEN, KEC. GAMPING, KABUPATEN SLEMAN, DAERAH ISTIMEWA YOGYAKARTA 55293","ID_PROV":"34","PROVINSI":"DAERAH ISTIMEWA YOGYAKARTA","ID_KABKOT":"34.04","KABKOT":"SLEMAN","ID_KEC":"34.04.01","KECAMATAN":"GAMPING","ID_DESA":"34.04.01.2003","DESA":"BANYURADEN","LATITUDE":-7.7802642,"LONGITUDE":110.3374606,"STATUS":"BUKA","TANGGAL PENGUMPULAN":"Q2 2025","TANGGAL UPDATE":"17/06/2025"}},{"type":"Feature","geometry":{"coordinates":[110.3483467,-7.7022924],"type":"Point"},"properties":{"NAMA":"PASAR TRADISIONAL SLEMAN BARU","TIPE_1":"PERDAGANGAN DAN RETAIL","TIPE_2":"PASAR","TIPE_3":"PASAR TRADISIONAL","TELEPON":"","ALAMAT":"WADAS, TRIDADI, KEC. SLEMAN, KABUPATEN SLEMAN, DAERAH ISTIMEWA YOGYAKARTA 55514","ID_PROV":"34","PROVINSI":"DAERAH ISTIMEWA YOGYAKARTA","ID_KABKOT":"34.04","KABKOT":"SLEMAN","ID_KEC":"34.04.13","KECAMATAN":"SLEMAN","ID_DESA":"34.04.13.2003","DESA":"TRIDADI","LATITUDE":-7.7022924,"LONGITUDE":110.3483467,"STATUS":"BUKA","TANGGAL PENGUMPULAN":"Q2 2025","TANGGAL UPDATE":"17/06/2025"}},{"type":"Feature","geometry":{"coordinates":[110.4892304,-7.744546],"type":"Point"},"properties":{"NAMA":"PASAR RAKYAT KALI LONDO","TIPE_1":"PERDAGANGAN DAN RETAIL","TIPE_2":"PASAR","TIPE_3":"PASAR TRADISIONAL","TELEPON":"","ALAMAT":"PULIR REJO, BOKOHARJO, KEC. PRAMBANAN, KABUPATEN SLEMAN, DAERAH ISTIMEWA YOGYAKARTA 55572","ID_PROV":"34","PROVINSI":"DAERAH ISTIMEWA YOGYAKARTA","ID_KABKOT":"34.04","KABKOT":"SLEMAN","ID_KEC":"34.04.09","KECAMATAN":"PRAMBANAN","ID_DESA":"34.04.09.2006","DESA":"BOKOHARJO","LATITUDE":-7.744546,"LONGITUDE":110.4892304,"STATUS":"BUKA","TANGGAL PENGUMPULAN":"Q2 2025","TANGGAL UPDATE":"17/06/2025"}},{"type":"Feature","geometry":{"coordinates":[110.3392644,-7.7556685],"type":"Point"},"properties":{"NAMA":"PASAR TRADISIONAL JAMBON TRIHANGGO","TIPE_1":"PERDAGANGAN DAN RETAIL","TIPE_2":"PASAR","TIPE_3":"PASAR TRADISIONAL","TELEPON":"(0274) 869229","ALAMAT":"JL. JAMBON TRIHANGGO NO.35, BEDOG, TRIHANGGO, KEC. GAMPING, KABUPATEN SLEMAN, DAERAH ISTIMEWA YOGYAKARTA 55291","ID_PROV":"34","PROVINSI":"DAERAH ISTIMEWA YOGYAKARTA","ID_KABKOT":"34.04","KABKOT":"SLEMAN","ID_KEC":"34.04.01","KECAMATAN":"GAMPING","ID_DESA":"34.04.01.2005","DESA":"TRIHANGGO","LATITUDE":-7.7556685,"LONGITUDE":110.3392644,"STATUS":"BUKA","TANGGAL PENGUMPULAN":"Q2 2025","TANGGAL UPDATE":"17/06/2025"}},{"type":"Feature","geometry":{"coordinates":[110.4878809,-7.7576299],"type":"Point"},"properties":{"NAMA":"PASAR UNGGAS PRAMBANAN","TIPE_1":"PERDAGANGAN DAN RETAIL","TIPE_2":"PASAR","TIPE_3":"PASAR TRADISIONAL","TELEPON":"","ALAMAT":"JL. RAYA PIYUNGAN - PRAMBANAN NO.8, KLURAK BARU, BOKOHARJO, KEC. PRAMBANAN, KABUPATEN SLEMAN, DAERAH ISTIMEWA YOGYAKARTA 55572","ID_PROV":"34","PROVINSI":"DAERAH ISTIMEWA YOGYAKARTA","ID_KABKOT":"34.04","KABKOT":"SLEMAN","ID_KEC":"34.04.09","KECAMATAN":"PRAMBANAN","ID_DESA":"34.04.09.2006","DESA":"BOKOHARJO","LATITUDE":-7.7576299,"LONGITUDE":110.4878809,"STATUS":"BUKA","TANGGAL PENGUMPULAN":"Q2 2025","TANGGAL UPDATE":"17/06/2025"}},{"type":"Feature","geometry":{"coordinates":[110.4194044,-7.6846711],"type":"Point"},"properties":{"NAMA":"PASAR UMBUL","TIPE_1":"PERDAGANGAN DAN RETAIL","TIPE_2":"PASAR","TIPE_3":"PASAR TRADISIONAL","TELEPON":"","ALAMAT":"JL. DEGOLAN, NGEMPLAK, UMBULMARTANI, NGEMPLAK, SLEMAN REGENCY, SPECIAL REGION OF YOGYAKARTA 55584","ID_PROV":"34","PROVINSI":"DAERAH ISTIMEWA YOGYAKARTA","ID_KABKOT":"34.04","KABKOT":"SLEMAN","ID_KEC":"34.04.11","KECAMATAN":"NGEMPLAK","ID_DESA":"34.04.11.2005","DESA":"UMBULMARTANI","LATITUDE":-7.6846711,"LONGITUDE":110.4194044,"STATUS":"BUKA","TANGGAL PENGUMPULAN":"Q2 2025","TANGGAL UPDATE":"17/06/2025"}},{"type":"Feature","geometry":{"coordinates":[110.2598006,-7.7598985],"type":"Point"},"properties":{"NAMA":"PASAR UMKM SUMBERAGUNG","TIPE_1":"PERDAGANGAN DAN RETAIL","TIPE_2":"PASAR","TIPE_3":"PASAR TRADISIONAL","TELEPON":"","ALAMAT":"GEDONGAN, SUMBERAGUNG, KEC. MOYUDAN, KABUPATEN SLEMAN, DAERAH ISTIMEWA YOGYAKARTA","ID_PROV":"34","PROVINSI":"DAERAH ISTIMEWA YOGYAKARTA","ID_KABKOT":"34.04","KABKOT":"SLEMAN","ID_KEC":"34.04.03","KECAMATAN":"MOYUDAN","ID_DESA":"34.04.03.2003","DESA":"SUMBERAGUNG","LATITUDE":-7.7598985,"LONGITUDE":110.2598006,"STATUS":"BUKA","TANGGAL PENGUMPULAN":"Q2 2025","TANGGAL UPDATE":"17/06/2025"}},{"type":"Feature","geometry":{"coordinates":[110.3771716,-7.6519495],"type":"Point"},"properties":{"NAMA":"PASAR TURI","TIPE_1":"PERDAGANGAN DAN RETAIL","TIPE_2":"PASAR","TIPE_3":"PASAR TRADISIONAL","TELEPON":"","ALAMAT":"TURI, DONOKERTO, KEC. TURI, KABUPATEN SLEMAN, DAERAH ISTIMEWA YOGYAKARTA 55551","ID_PROV":"34","PROVINSI":"DAERAH ISTIMEWA YOGYAKARTA","ID_KABKOT":"34.04","KABKOT":"SLEMAN","ID_KEC":"34.04.15","KECAMATAN":"TURI","ID_DESA":"34.04.15.2002","DESA":"DONOKERTO","LATITUDE":-7.6519495,"LONGITUDE":110.3771716,"STATUS":"BUKA","TANGGAL PENGUMPULAN":"Q2 2025","TANGGAL UPDATE":"17/06/2025"}},{"type":"Feature","geometry":{"coordinates":[110.4812961,-7.7365358],"type":"Point"},"properties":{"NAMA":"PASAR TULUNG","TIPE_1":"PERDAGANGAN DAN RETAIL","TIPE_2":"PASAR","TIPE_3":"PASAR TRADISIONAL","TELEPON":"","ALAMAT":"SENTONO, TAMANMARTANI, KEC. KALASAN, KABUPATEN SLEMAN, DAERAH ISTIMEWA YOGYAKARTA","ID_PROV":"34","PROVINSI":"DAERAH ISTIMEWA YOGYAKARTA","ID_KABKOT":"34.04","KABKOT":"SLEMAN","ID_KEC":"34.04.10","KECAMATAN":"KALASAN","ID_DESA":"34.04.10.2003","DESA":"TAMANMARTANI","LATITUDE":-7.7365358,"LONGITUDE":110.4812961,"STATUS":"BUKA","TANGGAL PENGUMPULAN":"Q2 2025","TANGGAL UPDATE":"17/06/2025"}},{"type":"Feature","geometry":{"coordinates":[110.276767,-7.761237],"type":"Point"},"properties":{"NAMA":"PASAR TRANSIT GODEAN","TIPE_1":"PERDAGANGAN DAN RETAIL","TIPE_2":"PASAR","TIPE_3":"PASAR TRADISIONAL","TELEPON":"","ALAMAT":"JL. NGAPAK - KENTHENG NO.12, AREA SAWAH, SIDOLUHUR, KEC. GODEAN, KABUPATEN SLEMAN, DAERAH ISTIMEWA YOGYAKARTA 55264","ID_PROV":"34","PROVINSI":"DAERAH ISTIMEWA YOGYAKARTA","ID_KABKOT":"34.04","KABKOT":"SLEMAN","ID_KEC":"34.04.02","KECAMATAN":"GODEAN","ID_DESA":"34.04.02.2002","DESA":"SIDOLUHUR","LATITUDE":-7.761237,"LONGITUDE":110.276767,"STATUS":"BUKA","TANGGAL PENGUMPULAN":"Q2 2025","TANGGAL UPDATE":"17/06/2025"}},{"type":"Feature","geometry":{"coordinates":[110.4328564,-7.7216197],"type":"Point"},"properties":{"NAMA":"PASAR WONOSARI SLEMAN","TIPE_1":"PERDAGANGAN DAN RETAIL","TIPE_2":"PASAR","TIPE_3":"PASAR TRADISIONAL","TELEPON":"","ALAMAT":"JL. SAREN NO.18, WONOSARI, WEDOMARTANI, KEC. NGEMPLAK, KABUPATEN SLEMAN, DAERAH ISTIMEWA YOGYAKARTA 55584","ID_PROV":"34","PROVINSI":"DAERAH ISTIMEWA YOGYAKARTA","ID_KABKOT":"34.04","KABKOT":"SLEMAN","ID_KEC":"34.04.11","KECAMATAN":"NGEMPLAK","ID_DESA":"34.04.11.2004","DESA":"WEDOMARTANI","LATITUDE":-7.7216197,"LONGITUDE":110.4328564,"STATUS":"BUKA","TANGGAL PENGUMPULAN":"Q2 2025","TANGGAL UPDATE":"17/06/2025"}},{"type":"Feature","geometry":{"coordinates":[110.4021923,-7.7825469],"type":"Point"},"properties":{"NAMA":"PASAR WIGUNA JOGJA","TIPE_1":"PERDAGANGAN DAN RETAIL","TIPE_2":"PASAR","TIPE_3":"PASAR TRADISIONAL","TELEPON":"0882-2646-9020","ALAMAT":"JL. LAKSDA ADISUCIPTO, AMBARUKMO, CATURTUNGGAL, DEPOK, SLEMAN REGENCY, SPECIAL REGION OF YOGYAKARTA 55281","ID_PROV":"34","PROVINSI":"DAERAH ISTIMEWA YOGYAKARTA","ID_KABKOT":"34.04","KABKOT":"SLEMAN","ID_KEC":"34.04.07","KECAMATAN":"DEPOK","ID_DESA":"34.04.07.2001","DESA":"CATURTUNGGAL","LATITUDE":-7.7825469,"LONGITUDE":110.4021923,"STATUS":"BUKA","TANGGAL PENGUMPULAN":"Q2 2025","TANGGAL UPDATE":"17/06/2025"}},{"type":"Feature","geometry":{"coordinates":[110.3227496,-7.7906412],"type":"Point"},"properties":{"NAMA":"PASAR TIBAN SORE PALANG KERETA PATUKAN, GAMPING, SLEMAN","TIPE_1":"PERDAGANGAN DAN RETAIL","TIPE_2":"PASAR","TIPE_3":"PASAR TRADISIONAL","TELEPON":"","ALAMAT":"JL. SIDOARUM-GAMPING NO.2, MEJING WETAN, AMBARKETAWANG, KEC. GAMPING, KABUPATEN SLEMAN, DAERAH ISTIMEWA YOGYAKARTA 55294","ID_PROV":"34","PROVINSI":"DAERAH ISTIMEWA YOGYAKARTA","ID_KABKOT":"34.04","KABKOT":"SLEMAN","ID_KEC":"34.04.01","KECAMATAN":"GAMPING","ID_DESA":"34.04.01.2002","DESA":"AMBARKETAWANG","LATITUDE":-7.7906412,"LONGITUDE":110.3227496,"STATUS":"BUKA","TANGGAL PENGUMPULAN":"Q2 2025","TANGGAL UPDATE":"17/06/2025"}},{"type":"Feature","geometry":{"coordinates":[110.4014875,-7.6705508],"type":"Point"},"properties":{"NAMA":"PASAR TIBAN DUSUN SAMBEREMBE","TIPE_1":"PERDAGANGAN DAN RETAIL","TIPE_2":"PASAR","TIPE_3":"PASAR TRADISIONAL","TELEPON":"","ALAMAT":"SAMBEREMBE, CANDIBINANGUN, KEC. PAKEM, KABUPATEN SLEMAN, DAERAH ISTIMEWA YOGYAKARTA 55582","ID_PROV":"34","PROVINSI":"DAERAH ISTIMEWA YOGYAKARTA","ID_KABKOT":"34.04","KABKOT":"SLEMAN","ID_KEC":"34.04.16","KECAMATAN":"PAKEM","ID_DESA":"34.04.16.2002","DESA":"CANDIBINANGUN","LATITUDE":-7.6705508,"LONGITUDE":110.4014875,"STATUS":"BUKA","TANGGAL PENGUMPULAN":"Q2 2025","TANGGAL UPDATE":"17/06/2025"}},{"type":"Feature","geometry":{"coordinates":[110.4323548,-7.7608925],"type":"Point"},"properties":{"NAMA":"PASAR STAN MAGUWOHARJO","TIPE_1":"PERDAGANGAN DAN RETAIL","TIPE_2":"PASAR","TIPE_3":"PASAR TRADISIONAL","TELEPON":"","ALAMAT":"JL. RAYA TAJEM, DENOKAN, MAGUWOHARJO, KEC. DEPOK, KABUPATEN SLEMAN, DAERAH ISTIMEWA YOGYAKARTA 55281","ID_PROV":"34","PROVINSI":"DAERAH ISTIMEWA YOGYAKARTA","ID_KABKOT":"34.04","KABKOT":"SLEMAN","ID_KEC":"34.04.07","KECAMATAN":"DEPOK","ID_DESA":"34.04.07.2002","DESA":"MAGUWOHARJO","LATITUDE":-7.7608925,"LONGITUDE":110.4323548,"STATUS":"BUKA","TANGGAL PENGUMPULAN":"Q2 2025","TANGGAL UPDATE":"17/06/2025"}},{"type":"Feature","geometry":{"coordinates":[110.4350575,-7.7310837],"type":"Point"},"properties":{"NAMA":"PASAR SRAWUNG UMKM NGEMPLAK","TIPE_1":"PERDAGANGAN DAN RETAIL","TIPE_2":"PASAR","TIPE_3":"PASAR TRADISIONAL","TELEPON":"0812-2602-6748","ALAMAT":"LAPANGAN, POKOH, WEDOMARTANI, KEC. NGEMPLAK, KABUPATEN SLEMAN, DAERAH ISTIMEWA YOGYAKARTA 55584","ID_PROV":"34","PROVINSI":"DAERAH ISTIMEWA YOGYAKARTA","ID_KABKOT":"34.04","KABKOT":"SLEMAN","ID_KEC":"34.04.11","KECAMATAN":"NGEMPLAK","ID_DESA":"34.04.11.2004","DESA":"WEDOMARTANI","LATITUDE":-7.7310837,"LONGITUDE":110.4350575,"STATUS":"BUKA","TANGGAL PENGUMPULAN":"Q2 2025","TANGGAL UPDATE":"17/06/2025"}},{"type":"Feature","geometry":{"coordinates":[110.2918456,-7.7148232],"type":"Point"},"properties":{"NAMA":"PASAR SRIKATON","TIPE_1":"PERDAGANGAN DAN RETAIL","TIPE_2":"PASAR","TIPE_3":"PASAR TRADISIONAL","TELEPON":"","ALAMAT":"PS. SRIKATON, AREA SAWAH/KEBUN, MARGOAGUNG, KEC. SEYEGAN, KABUPATEN SLEMAN, DAERAH ISTIMEWA YOGYAKARTA 55561","ID_PROV":"34","PROVINSI":"DAERAH ISTIMEWA YOGYAKARTA","ID_KABKOT":"34.04","KABKOT":"SLEMAN","ID_KEC":"34.04.05","KECAMATAN":"SEYEGAN","ID_DESA":"34.04.05.2005","DESA":"MARGOAGUNG","LATITUDE":-7.7148232,"LONGITUDE":110.2918456,"STATUS":"BUKA","TANGGAL PENGUMPULAN":"Q2 2025","TANGGAL UPDATE":"17/06/2025"}},{"type":"Feature","geometry":{"coordinates":[110.34669009999999,-7.701385],"type":"Point"},"properties":{"NAMA":"PASAR SORE RAMADHAN","TIPE_1":"PERDAGANGAN DAN RETAIL","TIPE_2":"PASAR","TIPE_3":"PASAR TRADISIONAL","TELEPON":"0898-3777-778","ALAMAT":"JL. LETKOL SUBADRI NO.1, RT.KALAKIJO 1/RW.2, KALAH IJO 1, TRIHARJO, KEC. SLEMAN, KABUPATEN SLEMAN, DAERAH ISTIMEWA YOGYAKARTA 55514","ID_PROV":"34","PROVINSI":"DAERAH ISTIMEWA YOGYAKARTA","ID_KABKOT":"34.04","KABKOT":"SLEMAN","ID_KEC":"34.04.13","KECAMATAN":"SLEMAN","ID_DESA":"34.04.13.2002","DESA":"TRIHARJO","LATITUDE":-7.701385,"LONGITUDE":110.3466901,"STATUS":"BUKA","TANGGAL PENGUMPULAN":"Q2 2025","TANGGAL UPDATE":"17/06/2025"}},{"type":"Feature","geometry":{"coordinates":[110.2900586,-7.6762165],"type":"Point"},"properties":{"NAMA":"PASAR SORE SABODAM PAKUNDEN","TIPE_1":"PERDAGANGAN DAN RETAIL","TIPE_2":"PASAR","TIPE_3":"PASAR TRADISIONAL","TELEPON":"","ALAMAT":"AREA WISATA SABODAM, AREA SAWAH, PAKUNDEN, KEC. TEMPEL, KABUPATEN SLEMAN, DAERAH ISTIMEWA YOGYAKARTA 56485","ID_PROV":"34","PROVINSI":"DAERAH ISTIMEWA YOGYAKARTA","ID_KABKOT":"34.04","KABKOT":"SLEMAN","ID_KEC":"34.04.14","KECAMATAN":"TEMPEL","ID_DESA":"34.04.14.2003","DESA":"SUMBERREJO","LATITUDE":-7.6762165,"LONGITUDE":110.2900586,"STATUS":"BUKA","TANGGAL PENGUMPULAN":"Q2 2025","TANGGAL UPDATE":"17/06/2025"}},{"type":"Feature","geometry":{"coordinates":[110.4940825,-7.7935231],"type":"Point"},"properties":{"NAMA":"PASAR SOROGEDUG","TIPE_1":"PERDAGANGAN DAN RETAIL","TIPE_2":"PASAR","TIPE_3":"PASAR TRADISIONAL","TELEPON":"","ALAMAT":"JL. KENARI, SEREGEDUG LOR, MADUREJO, KEC. PRAMBANAN, KABUPATEN SLEMAN, DAERAH ISTIMEWA YOGYAKARTA 55572","ID_PROV":"34","PROVINSI":"DAERAH ISTIMEWA YOGYAKARTA","ID_KABKOT":"34.04","KABKOT":"SLEMAN","ID_KEC":"34.04.09","KECAMATAN":"PRAMBANAN","ID_DESA":"34.04.09.2005","DESA":"MADUREJO","LATITUDE":-7.7935231,"LONGITUDE":110.4940825,"STATUS":"BUKA","TANGGAL PENGUMPULAN":"Q2 2025","TANGGAL UPDATE":"17/06/2025"}},{"type":"Feature","geometry":{"coordinates":[110.32374449999999,-7.7970936],"type":"Point"},"properties":{"NAMA":"PASAR SORE GAMPING","TIPE_1":"PERDAGANGAN DAN RETAIL","TIPE_2":"PASAR","TIPE_3":"PASAR TRADISIONAL","TELEPON":"","ALAMAT":"PATUKAN, AMBARKETAWANG, GAMPING, SLEMAN REGENCY, SPECIAL REGION OF YOGYAKARTA 55294","ID_PROV":"34","PROVINSI":"DAERAH ISTIMEWA YOGYAKARTA","ID_KABKOT":"34.04","KABKOT":"SLEMAN","ID_KEC":"34.04.01","KECAMATAN":"GAMPING","ID_DESA":"34.04.01.2002","DESA":"AMBARKETAWANG","LATITUDE":-7.7970936,"LONGITUDE":110.3237445,"STATUS":"BUKA","TANGGAL PENGUMPULAN":"Q2 2025","TANGGAL UPDATE":"17/06/2025"}},{"type":"Feature","geometry":{"coordinates":[110.4256308,-7.6378235],"type":"Point"},"properties":{"NAMA":"PASAR SOMPILAN","TIPE_1":"PERDAGANGAN DAN RETAIL","TIPE_2":"PASAR","TIPE_3":"PASAR TRADISIONAL","TELEPON":"","ALAMAT":"SAWUNGAN, HARGOBINANGUN, KEC. PAKEM, KABUPATEN SLEMAN, DAERAH ISTIMEWA YOGYAKARTA 55582","ID_PROV":"34","PROVINSI":"DAERAH ISTIMEWA YOGYAKARTA","ID_KABKOT":"34.04","KABKOT":"SLEMAN","ID_KEC":"34.04.16","KECAMATAN":"PAKEM","ID_DESA":"34.04.16.2005","DESA":"HARGOBINANGUN","LATITUDE":-7.6378235,"LONGITUDE":110.4256308,"STATUS":"BUKA","TANGGAL PENGUMPULAN":"Q2 2025","TANGGAL UPDATE":"17/06/2025"}},{"type":"Feature","geometry":{"coordinates":[110.4683755,-7.7262437],"type":"Point"},"properties":{"NAMA":"PASAR SOR PRING","TIPE_1":"PERDAGANGAN DAN RETAIL","TIPE_2":"PASAR","TIPE_3":"PASAR TRADISIONAL","TELEPON":"","ALAMAT":"KLEDOAN, SELOMARTANI, KEC. KALASAN, KABUPATEN SLEMAN, DAERAH ISTIMEWA YOGYAKARTA 55571","ID_PROV":"34","PROVINSI":"DAERAH ISTIMEWA YOGYAKARTA","ID_KABKOT":"34.04","KABKOT":"SLEMAN","ID_KEC":"34.04.10","KECAMATAN":"KALASAN","ID_DESA":"34.04.10.2004","DESA":"SELOMARTANI","LATITUDE":-7.7262437,"LONGITUDE":110.4683755,"STATUS":"BUKA","TANGGAL PENGUMPULAN":"Q2 2025","TANGGAL UPDATE":"17/06/2025"}},{"type":"Feature","geometry":{"coordinates":[110.3475545,-7.7014889],"type":"Point"},"properties":{"NAMA":"PASAR SLEMAN","TIPE_1":"PERDAGANGAN DAN RETAIL","TIPE_2":"PASAR","TIPE_3":"PASAR TRADISIONAL","TELEPON":"","ALAMAT":"JL. SERSAN KUSDIYO, KALAH IJO 1, TRIHARJO, KEC. SLEMAN, KABUPATEN SLEMAN, DAERAH ISTIMEWA YOGYAKARTA 55514","ID_PROV":"34","PROVINSI":"DAERAH ISTIMEWA YOGYAKARTA","ID_KABKOT":"34.04","KABKOT":"SLEMAN","ID_KEC":"34.04.13","KECAMATAN":"SLEMAN","ID_DESA":"34.04.13.2002","DESA":"TRIHARJO","LATITUDE":-7.7014889,"LONGITUDE":110.3475545,"STATUS":"BUKA","TANGGAL PENGUMPULAN":"Q2 2025","TANGGAL UPDATE":"17/06/2025"}},{"type":"Feature","geometry":{"coordinates":[110.3473302,-7.7015089],"type":"Point"},"properties":{"NAMA":"PASAR SLEMAN UNIT I","TIPE_1":"PERDAGANGAN DAN RETAIL","TIPE_2":"PASAR","TIPE_3":"PASAR TRADISIONAL","TELEPON":"","ALAMAT":"JL. DR. RADJIMIN NO.1, KALAH IJO 1, TRIHARJO, KEC. SLEMAN, KABUPATEN SLEMAN, DAERAH ISTIMEWA YOGYAKARTA","ID_PROV":"34","PROVINSI":"DAERAH ISTIMEWA YOGYAKARTA","ID_KABKOT":"34.04","KABKOT":"SLEMAN","ID_KEC":"34.04.13","KECAMATAN":"SLEMAN","ID_DESA":"34.04.13.2002","DESA":"TRIHARJO","LATITUDE":-7.7015089,"LONGITUDE":110.3473302,"STATUS":"BUKA","TANGGAL PENGUMPULAN":"Q2 2025","TANGGAL UPDATE":"17/06/2025"}},{"type":"Feature","geometry":{"coordinates":[110.348409,-7.7021103],"type":"Point"},"properties":{"NAMA":"PASAR SLEMAN UNIT 2","TIPE_1":"PERDAGANGAN DAN RETAIL","TIPE_2":"PASAR","TIPE_3":"PASAR MODERN","TELEPON":"","ALAMAT":"WADAS, TRIDADI, KEC. SLEMAN, KABUPATEN SLEMAN, DAERAH ISTIMEWA YOGYAKARTA 55514","ID_PROV":"34","PROVINSI":"DAERAH ISTIMEWA YOGYAKARTA","ID_KABKOT":"34.04","KABKOT":"SLEMAN","ID_KEC":"34.04.13","KECAMATAN":"SLEMAN","ID_DESA":"34.04.13.2003","DESA":"TRIDADI","LATITUDE":-7.7021103,"LONGITUDE":110.348409,"STATUS":"BUKA","TANGGAL PENGUMPULAN":"Q2 2025","TANGGAL UPDATE":"17/06/2025"}},{"type":"Feature","geometry":{"coordinates":[110.45761309999999,-7.7901366],"type":"Point"},"properties":{"NAMA":"PASAR TANJUNG","TIPE_1":"PERDAGANGAN DAN RETAIL","TIPE_2":"PASAR","TIPE_3":"PASAR TRADISIONAL","TELEPON":"","ALAMAT":"JL. TANJUNGTIRTO, TEGUHAN, KALITIRTO, BERBAH, SLEMAN REGENCY, SPECIAL REGION OF YOGYAKARTA 55573","ID_PROV":"34","PROVINSI":"DAERAH ISTIMEWA YOGYAKARTA","ID_KABKOT":"34.04","KABKOT":"SLEMAN","ID_KEC":"34.04.08","KECAMATAN":"BERBAH","ID_DESA":"34.04.08.2003","DESA":"KALITIRTO","LATITUDE":-7.7901366,"LONGITUDE":110.4576131,"STATUS":"BUKA","TANGGAL PENGUMPULAN":"Q2 2025","TANGGAL UPDATE":"17/06/2025"}}]}