{"type":"FeatureCollection","features":[{"type":"Feature","geometry":{"coordinates":[110.418107,-7.7753889],"type":"Point"},"properties":{"NAMA":"AKADEMI PARIWISATA YOGYAKARTA","TIPE_1":"PENDIDIKAN","TIPE_2":"PERGURUAN TINGGI","TIPE_3":"SWASTA","TELEPON":"(0274) 511791","ALAMAT":"JL. TAMBAK BAYAN, TAMBAK BAYAN, CATURTUNGGAL, KEC. DEPOK, KABUPATEN SLEMAN, DAERAH ISTIMEWA YOGYAKARTA 55281","ID_PROV":"34","PROVINSI":"DAERAH ISTIMEWA YOGYAKARTA","ID_KABKOT":"34.04","KABKOT":"SLEMAN","ID_KEC":"34.04.07","KECAMATAN":"DEPOK","ID_DESA":"34.04.07.2001","DESA":"CATURTUNGGAL","LATITUDE":"-7.7753889","LONGITUDE":"110.418107","STATUS":"BUKA","TANGGAL PENGUMPULAN":"Q2 2024","TANGGAL UPDATE":"4/16/2025"}},{"type":"Feature","geometry":{"coordinates":[110.3945184,-7.763205],"type":"Point"},"properties":{"NAMA":"UNIVERSITAS MERCU BUANA YOGYAKARTA, KAMPUS 2","TIPE_1":"PENDIDIKAN","TIPE_2":"PERGURUAN TINGGI","TIPE_3":"SWASTA","TELEPON":"(0274) 550703","ALAMAT":"GG. JEMB. MERAH NO.84C, SOROPADAN, CONDONGCATUR, KEC. DEPOK, KABUPATEN SLEMAN, DAERAH ISTIMEWA YOGYAKARTA 55283","ID_PROV":"34","PROVINSI":"DAERAH ISTIMEWA YOGYAKARTA","ID_KABKOT":"34.04","KABKOT":"SLEMAN","ID_KEC":"34.04.07","KECAMATAN":"DEPOK","ID_DESA":"34.04.07.2003","DESA":"CONDONGCATUR","LATITUDE":"-7.763205","LONGITUDE":"110.3945184","STATUS":"BUKA","TANGGAL PENGUMPULAN":"Q2 2024","TANGGAL UPDATE":"4/16/2025"}},{"type":"Feature","geometry":{"coordinates":[110.3968749,-7.78342],"type":"Point"},"properties":{"NAMA":"AKRB YOGYAKARTA","TIPE_1":"PENDIDIKAN","TIPE_2":"PERGURUAN TINGGI","TIPE_3":"SWASTA","TELEPON":"(0274) 4333577","ALAMAT":"JL. LAKSDA ADISUCIPTO NO.1, PAPRINGAN, CATURTUNGGAL, KEC. DEPOK, KABUPATEN SLEMAN, DAERAH ISTIMEWA YOGYAKARTA 55281","ID_PROV":"34","PROVINSI":"DAERAH ISTIMEWA YOGYAKARTA","ID_KABKOT":"34.04","KABKOT":"SLEMAN","ID_KEC":"34.04.07","KECAMATAN":"DEPOK","ID_DESA":"34.04.07.2001","DESA":"CATURTUNGGAL","LATITUDE":"-7.78342","LONGITUDE":"110.3968749","STATUS":"BUKA","TANGGAL PENGUMPULAN":"Q2 2024","TANGGAL UPDATE":"22/04/2025"}},{"type":"Feature","geometry":{"coordinates":[110.41777,-7.775928],"type":"Point"},"properties":{"NAMA":"SEKOLAH TINGGI KESEHATAN (STIKES) WIRA HUSADA","TIPE_1":"PENDIDIKAN","TIPE_2":"PERGURUAN TINGGI","TIPE_3":"SWASTA","TELEPON":"(0274) 485110","ALAMAT":"JL BABARSARI, GLENDONGAN, TAMBAK BAYAN, CATURTUNGGAL, KEC. DEPOK, KABUPATEN SLEMAN, DAERAH ISTIMEWA YOGYAKARTA 55281","ID_PROV":"34","PROVINSI":"DAERAH ISTIMEWA YOGYAKARTA","ID_KABKOT":"34.04","KABKOT":"SLEMAN","ID_KEC":"34.04.07","KECAMATAN":"DEPOK","ID_DESA":"34.04.07.2001","DESA":"CATURTUNGGAL","LATITUDE":"-7.775928","LONGITUDE":"110.41777","STATUS":"BUKA","TANGGAL PENGUMPULAN":"Q2 2024","TANGGAL UPDATE":"22/04/2025"}},{"type":"Feature","geometry":{"coordinates":[110.4162885,-7.7732833],"type":"Point"},"properties":{"NAMA":"INSTITUT TEKNOLOGI NASIONAL YOGYAKARTA (ITNY)","TIPE_1":"PENDIDIKAN","TIPE_2":"PERGURUAN TINGGI","TIPE_3":"SWASTA","TELEPON":"(0274) 485390","ALAMAT":"JL. BABARSARI, TAMBAK BAYAN, CATURTUNGGAL, KEC. DEPOK, KABUPATEN SLEMAN, DAERAH ISTIMEWA YOGYAKARTA 55281","ID_PROV":"34","PROVINSI":"DAERAH ISTIMEWA YOGYAKARTA","ID_KABKOT":"34.04","KABKOT":"SLEMAN","ID_KEC":"34.04.07","KECAMATAN":"DEPOK","ID_DESA":"34.04.07.2001","DESA":"CATURTUNGGAL","LATITUDE":"-7.7732833","LONGITUDE":"110.4162885","STATUS":"BUKA","TANGGAL PENGUMPULAN":"Q2 2024","TANGGAL UPDATE":"22/04/2025"}},{"type":"Feature","geometry":{"coordinates":[110.3862511,-7.7737395],"type":"Point"},"properties":{"NAMA":"UNIVERSITAS NEGERI YOGYAKARTA","TIPE_1":"PENDIDIKAN","TIPE_2":"PERGURUAN TINGGI","TIPE_3":"NEGERI","TELEPON":"(0274) 586168","ALAMAT":"JL. COLOMBO YOGYAKARTA NO.1, KARANG MALANG, CATURTUNGGAL, KEC. DEPOK, KABUPATEN SLEMAN, DAERAH ISTIMEWA YOGYAKARTA 55281","ID_PROV":"34","PROVINSI":"DAERAH ISTIMEWA YOGYAKARTA","ID_KABKOT":"34.04","KABKOT":"SLEMAN","ID_KEC":"34.04.07","KECAMATAN":"DEPOK","ID_DESA":"34.04.07.2001","DESA":"CATURTUNGGAL","LATITUDE":"-7.7737395","LONGITUDE":"110.3862511","STATUS":"BUKA","TANGGAL PENGUMPULAN":"Q2 2024","TANGGAL UPDATE":"22/04/2025"}},{"type":"Feature","geometry":{"coordinates":[110.4028694,-7.7785416],"type":"Point"},"properties":{"NAMA":"SEKOLAH TINGGI PARIWISATA AMPTA","TIPE_1":"PENDIDIKAN","TIPE_2":"PERGURUAN TINGGI","TIPE_3":"SWASTA","TELEPON":"(0274) 485115","ALAMAT":"JL. LAKSDA ADISUCIPTO NO.KM 6, NOLOGATEN, CATURTUNGGAL, KEC. DEPOK, KABUPATEN SLEMAN, DAERAH ISTIMEWA YOGYAKARTA 55281","ID_PROV":"34","PROVINSI":"DAERAH ISTIMEWA YOGYAKARTA","ID_KABKOT":"34.04","KABKOT":"SLEMAN","ID_KEC":"34.04.07","KECAMATAN":"DEPOK","ID_DESA":"34.04.07.2001","DESA":"CATURTUNGGAL","LATITUDE":"-7.7785416","LONGITUDE":"110.4028694","STATUS":"BUKA","TANGGAL PENGUMPULAN":"Q2 2024","TANGGAL UPDATE":"22/04/2025"}},{"type":"Feature","geometry":{"coordinates":[110.3777,-7.7715616],"type":"Point"},"properties":{"NAMA":"UNIVERSITAS GADJAH MADA","TIPE_1":"PENDIDIKAN","TIPE_2":"PERGURUAN TINGGI","TIPE_3":"NEGERI","TELEPON":"(0274) 588688","ALAMAT":"BULAKSUMUR, DEPOK, SLEMAN REGENCY, SPECIAL REGION OF YOGYAKARTA 55281","ID_PROV":"34","PROVINSI":"DAERAH ISTIMEWA YOGYAKARTA","ID_KABKOT":"34.04","KABKOT":"SLEMAN","ID_KEC":"34.04.07","KECAMATAN":"DEPOK","ID_DESA":"34.04.07.2001","DESA":"CATURTUNGGAL","LATITUDE":"-7.7715616","LONGITUDE":"110.3777","STATUS":"BUKA","TANGGAL PENGUMPULAN":"Q2 2024","TANGGAL UPDATE":"22/04/2025"}},{"type":"Feature","geometry":{"coordinates":[110.3943589,-7.7847839],"type":"Point"},"properties":{"NAMA":"UIN SUNAN KALIJAGA YOGYAKARTA","TIPE_1":"PENDIDIKAN","TIPE_2":"PERGURUAN TINGGI","TIPE_3":"NEGERI","TELEPON":"(0274) 512474","ALAMAT":"JL. LAKSDA ADISUCIPTO, PAPRINGAN, CATURTUNGGAL, KEC. DEPOK, KABUPATEN SLEMAN, DAERAH ISTIMEWA YOGYAKARTA 55281","ID_PROV":"34","PROVINSI":"DAERAH ISTIMEWA YOGYAKARTA","ID_KABKOT":"34.04","KABKOT":"SLEMAN","ID_KEC":"34.04.07","KECAMATAN":"DEPOK","ID_DESA":"34.04.07.2001","DESA":"CATURTUNGGAL","LATITUDE":"-7.7847839","LONGITUDE":"110.3943589","STATUS":"BUKA","TANGGAL PENGUMPULAN":"Q2 2024","TANGGAL UPDATE":"22/04/2025"}},{"type":"Feature","geometry":{"coordinates":[110.4092788,-7.7622325],"type":"Point"},"properties":{"NAMA":"UNIVERSITAS PEMBANGUNAN NASIONAL VETERAN YOGYAKARTA","TIPE_1":"PENDIDIKAN","TIPE_2":"PERGURUAN TINGGI","TIPE_3":"NEGERI","TELEPON":"(0274) 486733","ALAMAT":"JL. PADJAJARAN/RING ROAD UTARA NO.104, NGROPOH, CONDONGCATUR, KEC. DEPOK, KABUPATEN SLEMAN, DAERAH ISTIMEWA YOGYAKARTA 55283","ID_PROV":"34","PROVINSI":"DAERAH ISTIMEWA YOGYAKARTA","ID_KABKOT":"34.04","KABKOT":"SLEMAN","ID_KEC":"34.04.07","KECAMATAN":"DEPOK","ID_DESA":"34.04.07.2003","DESA":"CONDONGCATUR","LATITUDE":"-7.7622325","LONGITUDE":"110.4092788","STATUS":"BUKA","TANGGAL PENGUMPULAN":"Q2 2024","TANGGAL UPDATE":"22/04/2025"}},{"type":"Feature","geometry":{"coordinates":[110.365093,-7.767164],"type":"Point"},"properties":{"NAMA":"SEKOLAH TINGGI MARITIM YOGYAKARTA","TIPE_1":"PENDIDIKAN","TIPE_2":"PERGURUAN TINGGI","TIPE_3":"SWASTA","TELEPON":"(0274) 586263","ALAMAT":"JL. MAGELANG KM 4.4 POS 42 TROMOL, KUTU DUKUH, SINDUADI, KEC. MLATI, KABUPATEN SLEMAN, DAERAH ISTIMEWA YOGYAKARTA 55284","ID_PROV":"34","PROVINSI":"DAERAH ISTIMEWA YOGYAKARTA","ID_KABKOT":"34.04","KABKOT":"SLEMAN","ID_KEC":"34.04.06","KECAMATAN":"MLATI","ID_DESA":"34.04.06.2001","DESA":"SINDUADI","LATITUDE":"-7.767164","LONGITUDE":"110.365093","STATUS":"BUKA","TANGGAL PENGUMPULAN":"Q2 2024","TANGGAL UPDATE":"22/04/2025"}}]}