{"type":"FeatureCollection","features":[{"type":"Feature","geometry":{"coordinates":[110.437,-7.78497],"type":"Point"},"properties":{"NAMA":"STASIUN MAGUWO","TIPE_1":"TRANSPORTASI","TIPE_2":"STASIUN","TIPE_3":"COMMUTER","TELEPON":"","ALAMAT":"MAGUWOHARJO, 55282 SLEMAN, INDONESIA, SPECIAL REGION OF YOGYAKARTA","ID_PROV":"34","PROVINSI":"DAERAH ISTIMEWA YOGYAKARTA","ID_KABKOT":"34.04","KABKOT":"SLEMAN","ID_KEC":"34.04.07","KECAMATAN":"DEPOK","ID_DESA":"34.04.07.2002","DESA":"MAGUWOHARJO","LONGITUDE":110.437,"LATITUDE":-7.78497,"STATUS":"BUKA","TANGGAL PENGUMPULAN":"Q2 2024","TANGGAL UPDATE":"27/07/2025"}},{"type":"Feature","geometry":{"coordinates":[110.437,-7.78497],"type":"Point"},"properties":{"NAMA":"STASIUN MAGUWO","TIPE_1":"TRANSPORTASI","TIPE_2":"STASIUN","TIPE_3":"KERETA API","TELEPON":"","ALAMAT":"KARANGPLOSO, MAGUWOHARJO, KEC. DEPOK, KABUPATEN SLEMAN, DAERAH ISTIMEWA YOGYAKARTA 55281","ID_PROV":"34","PROVINSI":"DAERAH ISTIMEWA YOGYAKARTA","ID_KABKOT":"34.04","KABKOT":"SLEMAN","ID_KEC":"34.04.07","KECAMATAN":"DEPOK","ID_DESA":"34.04.07.2002","DESA":"MAGUWOHARJO","LONGITUDE":110.437,"LATITUDE":-7.78497,"STATUS":"BUKA","TANGGAL PENGUMPULAN":"Q2 2024","TANGGAL UPDATE":"27/07/2025"}},{"type":"Feature","geometry":{"coordinates":[110.3254,-7.79077],"type":"Point"},"properties":{"NAMA":"STASIUN PATUKAN","TIPE_1":"TRANSPORTASI","TIPE_2":"STASIUN","TIPE_3":"KERETA API","TELEPON":"","ALAMAT":"JL. SIDOARUM-GAMPING NO.2, MEJING WETAN, AMBARKETAWANG, KEC. GAMPING, KABUPATEN SLEMAN, DAERAH ISTIMEWA YOGYAKARTA 55294","ID_PROV":"34","PROVINSI":"DAERAH ISTIMEWA YOGYAKARTA","ID_KABKOT":"34.04","KABKOT":"SLEMAN","ID_KEC":"34.04.01","KECAMATAN":"GAMPING","ID_DESA":"34.04.01.2002","DESA":"AMBARKETAWANG","LONGITUDE":110.3254,"LATITUDE":-7.79077,"STATUS":"BUKA","TANGGAL PENGUMPULAN":"Q2 2024","TANGGAL UPDATE":"27/07/2025"}}]}